,place_id,name,main_category,phone,address,address_ward,address_street,address_city,address_postal_code,address_state,address_country_code
0,ChIJ0U2ke5grdTER3uF21wTF60M,Mở cửa hàng điện nước Trương Hiền,Cửa hàng thiết bị điện,0932 199 822,"Mở cửa hàng điện nước Trương Hiền, 3 8B Nguyễn Thị Sóc, Xuân Thới Đông, Hóc Môn, Thành phố Hồ Chí Minh 700000","Xuân Thới Đông, Hóc Môn",3 8B Nguyễn Thị Sóc,Thành phố Hồ Chí Minh,700000.0,"Hóc Môn, Thành phố Hồ Chí Minh",VN
2,ChIJ5eWP6m2IoDERQFwPWyGCyw8,Điện Nước Nguyễn Lễ,Cửa hàng bán đồ điện tử,0949 748 568,"Điện Nước Nguyễn Lễ, 62 Đ. Số 2, P, Ninh Kiều, Cần Thơ 900000","P, Ninh Kiều",62 Đ. Số 2,Cần Thơ,900000.0,"Ninh Kiều, Cần Thơ",VN
3,ChIJc3FgNSSJoDER0c7x_cOB3BE,Sữa chữa điện nước Cần Thơ,Cửa hàng thiết bị điện,0396 793 866,"Sữa chữa điện nước Cần Thơ, Đ. Nguyễn Văn Cừ, Phường An Khánh, Ninh Kiều, Cần Thơ 900000","Phường An Khánh, Ninh Kiều",Đ. Nguyễn Văn Cừ,Cần Thơ,900000.0,"Ninh Kiều, Cần Thơ",VN
6,ChIJ3Xl7pySJoDEReTICokdI5mk,Cửa Hàng Điện Nước Hải Thành,Cửa hàng đồ gia dụng,0939 365 759,"Cửa Hàng Điện Nước Hải Thành, 32 Đường Trần Hoàng Na, Hưng Lợi, Cái Răng, Cần Thơ 94909","Hưng Lợi, Cái Răng",32 Đường Trần Hoàng Na,Cần Thơ,94909.0,"Cái Răng, Cần Thơ",VN
10,ChIJvyYRyBxjoDERbcExtWLs0xU,Điện Nước Long Nguyên,Cửa hàng bán buôn thiết bị gia dụng,0913 784 969,"Điện Nước Long Nguyên, 106 Phan Đình Phùng, Tân An, Ninh Kiều, Cần Thơ 92000","Tân An, Ninh Kiều",106 Phan Đình Phùng,Cần Thơ,92000.0,"Ninh Kiều, Cần Thơ",VN
15,ChIJG7BWPdCJoDERWvg9YQHAnhI,Cửa Hàng Điện Nước An Toàn,Cửa hàng,,"Cửa Hàng Điện Nước An Toàn, đường D3 KDC Hồng Loan, Hưng Thành, Cái Răng, Cần Thơ","Hưng Thành, Cái Răng",đường D3 KDC Hồng Loan,Cần Thơ,,"Cái Răng, Cần Thơ",VN
17,ChIJNTRFiWFjoDER2NjiAyOG3ts,Cửa Hàng Thiết Bị Điện Nước Thịnh Cường,Cửa hàng đồ gia dụng,0918 224 919,"Cửa Hàng Thiết Bị Điện Nước Thịnh Cường, 63 Đ. B18, KDC Hưng Phú 1, Cái Răng, Cần Thơ 90000","KDC Hưng Phú 1, Cái Răng",63 Đ. B18,Cần Thơ,90000.0,"Cái Răng, Cần Thơ",VN
18,ChIJc62PPgeIoDERDHNgtQCRXi8,Cửa Hàng Điện Nước Ngọc,Cửa hàng thiết bị điện,0292 3827 384,"Cửa Hàng Điện Nước Ngọc, 160/49/10 Đoàn Thị Điểm, Cái Khế, Ninh Kiều, Cần Thơ","Cái Khế, Ninh Kiều",160/49/10 Đoàn Thị Điểm,Cần Thơ,,"Ninh Kiều, Cần Thơ",VN
19,ChIJ38z8OyGIoDERvyku7nWR2eI,Cửa Hàng Ống Nước - Điện Gia Dụng Hải Đăng,Cửa hàng thiết bị điện,0292 2225 148,"Cửa Hàng Ống Nước - Điện Gia Dụng Hải Đăng, 101C, Đường 30/04, Quận Ninh Kiều, Tp Cần Thơ, Xuân Khánh, Ninh Kiều, Cần Thơ","Xuân Khánh, Ninh Kiều","101C, Đường 30/04, Quận Ninh Kiều, Tp Cần Thơ",Cần Thơ,,"Ninh Kiều, Cần Thơ",VN
35,ChIJTZs2n1qIoDERBvVMg7pt8OI,Cửa Hàng Điện Nước Châu Diễm,Cửa hàng thiết bị điện,0292 3891 344,"Cửa Hàng Điện Nước Châu Diễm, 183 Nguyễn Văn Cừ Nối Dài, An Bình, Ninh Kiều, Cần Thơ","An Bình, Ninh Kiều",183 Nguyễn Văn Cừ Nối Dài,Cần Thơ,,"Ninh Kiều, Cần Thơ",VN
44,ChIJwZo848mJoDERVvhoPmDD8vI,Cửa hàng điện nước dân dụng Thiên Phát,Cửa hàng vật liệu xây dựng,0939 317 670,"Cửa hàng điện nước dân dụng Thiên Phát, Lê Bình, Cái Răng, Cần Thơ","Lê Bình, Cái Răng",,Cần Thơ,,"Cái Răng, Cần Thơ",VN
51,ChIJz-8LOzWIoDERY3i2ZOaLdq0,Cửa Hàng Điện Nước Bách Hóa Tân Hưng Phát,Cửa hàng,0292 3738 723,"Cửa Hàng Điện Nước Bách Hóa Tân Hưng Phát, 74 Đ. 30 Tháng 4, Hưng Lợi, Ninh Kiều, Cần Thơ","Hưng Lợi, Ninh Kiều",74 Đ. 30 Tháng 4,Cần Thơ,,"Ninh Kiều, Cần Thơ",VN
52,ChIJxcuVhEyGoDERwo6U_fRcgWc,Cửa Hàng Điện Nước Gia Dụng Thái Hưng,Cửa hàng thiết bị điện,0292 3887 792,"Cửa Hàng Điện Nước Gia Dụng Thái Hưng, 17 Đ. Huỳnh Phan Hộ, Bình Thuỷ, Bình Thủy, Cần Thơ","Bình Thuỷ, Bình Thủy",17 Đ. Huỳnh Phan Hộ,Cần Thơ,,"Bình Thủy, Cần Thơ",VN
53,ChIJ98QZ9xcvdTERY2TImUFZlJU,Cửa Hàng Điện Nước Hải,Cửa hàng thiết bị điện,,"Cửa Hàng Điện Nước Hải, 210 Đ. Nguyễn Trãi, Phường Phạm Ngũ Lão, Quận 1, Thành phố Hồ Chí Minh","Phường Phạm Ngũ Lão, Quận 1",210 Đ. Nguyễn Trãi,Thành phố Hồ Chí Minh,,"Quận 1, Thành phố Hồ Chí Minh",VN
59,ChIJXfFvEUGJoDERXCVC1ei8S3k,Cửa hàng Điện - Nước - Đồ gia dụng HÙNG,Cửa hàng đồ gia dụng,,"Cửa hàng Điện - Nước - Đồ gia dụng HÙNG, Giai Xuân, Phong Điền, Cần Thơ","Giai Xuân, Phong Điền",,Cần Thơ,,"Phong Điền, Cần Thơ",VN
60,ChIJK3KsPceOoDEROOw7dao0TKg,Cửa Hàng Điện Nước Hồng Phúc,Cửa hàng thiết bị điện,0292 3941 194,"Cửa Hàng Điện Nước Hồng Phúc, 178 ĐT923, Nhơn ái, Phong Điền, Cần Thơ","Nhơn ái, Phong Điền",178 ĐT923,Cần Thơ,,"Phong Điền, Cần Thơ",VN
68,ChIJm-O3GWNioDER5zFAQWFsrWY,Cửa Hàng Điện Nước Khương Duy,Cửa hàng thiết bị điện,0907 563 080,"Cửa Hàng Điện Nước Khương Duy, 1928 Võ Nguyên Giáp, Hưng Phú, Cái Răng, Cần Thơ","Hưng Phú, Cái Răng",1928 Võ Nguyên Giáp,Cần Thơ,,"Cái Răng, Cần Thơ",VN
69,ChIJ7e-fEYJioDER9-sN_ynwniQ,Cửa Hàng Điện Gia Dụng Ống Nước Thanh Thanh,Cửa hàng thiết bị điện,0292 3737 788,"Cửa Hàng Điện Gia Dụng Ống Nước Thanh Thanh, 6 Đ. Hoàng Thế Thiện, Hưng Phú, Cái Răng, Cần Thơ","Hưng Phú, Cái Răng",6 Đ. Hoàng Thế Thiện,Cần Thơ,,"Cái Răng, Cần Thơ",VN
70,ChIJqSyS72dioDERdQ7AuyRH8fo,Cửa Hàng Điện Nước Ba Hổ,Cửa hàng thiết bị điện,,"Cửa Hàng Điện Nước Ba Hổ, Phú Thứ, Cái Răng, Cần Thơ","Phú Thứ, Cái Răng",,Cần Thơ,,"Cái Răng, Cần Thơ",VN
80,ChIJ4RpnQFGIoDERcj9XDPlbG1U,Cửa Hàng Điện Nước Minh Tuấn,Cửa hàng thiết bị điện,0292 3898 580,"Cửa Hàng Điện Nước Minh Tuấn, 401 Đ.Xuân Thủy, An Bình, Ninh Kiều, Cần Thơ","An Bình, Ninh Kiều",401 Đ.Xuân Thủy,Cần Thơ,,"Ninh Kiều, Cần Thơ",VN
81,ChIJO9vthmuIoDERX7IwIh4ht7A,Cửa Hàng Thiết Bị Điện Nước Đăng Khôi,Dịch vụ quản lý rác thải,0903 466 248,"Cửa Hàng Thiết Bị Điện Nước Đăng Khôi, 3 Đường Số 19, Khu Dân Cư, Ninh Kiều, Cần Thơ","Khu Dân Cư, Ninh Kiều",3 Đường Số 19,Cần Thơ,,"Ninh Kiều, Cần Thơ",VN
84,ChIJC2QgcM2JoDERp9j0FcI4frs,Tiệm Điện Nước PHÚ THÀNH,Cửa hàng đồ gia dụng,0939 567 009,"Tiệm Điện Nước PHÚ THÀNH, 132/4B Đ. 3 Tháng 2, Hưng Lợi, Ninh Kiều, Cần Thơ","Hưng Lợi, Ninh Kiều",132/4B Đ. 3 Tháng 2,Cần Thơ,,"Ninh Kiều, Cần Thơ",VN
85,ChIJgZNHeTyJoDER1apCNWXrSm0,CỬA HÀNG ĐIỆN NƯỚC ĐẠI TÂM,Cửa hàng,0942 800 089,"CỬA HÀNG ĐIỆN NƯỚC ĐẠI TÂM, 365 Đ. Nguyễn Văn Linh, Long Tuyền, Bình Thủy, Cần Thơ","Long Tuyền, Bình Thủy",365 Đ. Nguyễn Văn Linh,Cần Thơ,,"Bình Thủy, Cần Thơ",VN
87,ChIJuTYtAWOJoDERPeMcl3E4E9k,Cửa hàng điện nước Nghĩa,Cửa hàng bán đồ điện tử,0962 152 347,"2Q42+27X Cửa hàng điện nước Nghĩa, Trần Hưng Đạo, Lê Bình, Cái Răng, Cần Thơ","Lê Bình, Cái Răng","2Q42+27X, Trần Hưng Đạo",Cần Thơ,,"Cái Răng, Cần Thơ",VN
89,ChIJLW_BgAiIoDERm01NvSthjcM,CỬA HÀNG ĐIỆN NƯỚC GIA DỤNG HOÀN VŨ,Cửa hàng đồ gia dụng,0336 778 660,"CỬA HÀNG ĐIỆN NƯỚC GIA DỤNG HOÀN VŨ, 33/9 Nhật Tảo, Lê Bình, Cái Răng, Cần Thơ","Lê Bình, Cái Răng","CỬA HÀNG ĐIỆN NƯỚC GIA DỤNG HOÀN VŨ, 33/9 Nhật Tảo",Cần Thơ,,"Cái Răng, Cần Thơ",VN
90,ChIJYyD-o-yJoDERHgbt5fU7e30,Cửa hàng điện nước Thái,Cửa hàng bán đồ điện tử,0778 195 246,"Cửa hàng điện nước Thái, 67/3 Trần Hưng Đạo, Lê Bình, Cái Răng, Cần Thơ","Lê Bình, Cái Răng",67/3 Trần Hưng Đạo,Cần Thơ,,"Cái Răng, Cần Thơ",VN
94,ChIJAe4kzhWJoDERiMLP8gTsumM,Cửa Hàng Vật Tư Điện Nước Thúy Phương,Cửa hàng thiết bị điện,,"XPW7+WJ4 Cửa Hàng Vật Tư Điện Nước Thúy Phương, Bông Vang, Phong Điền, Cần Thơ","Bông Vang, Phong Điền",XPW7+WJ4,Cần Thơ,,"Phong Điền, Cần Thơ",VN
101,ChIJ4bV7d8CJoDERSS3fCceE-qg,Cửa Hàng Điện Nước Lộc Phát,Cửa hàng bán đồ điện tử,0834 373 777,"XQR5+XG3 Cửa Hàng Điện Nước Lộc Phát, Đ. Trương Vĩnh Nguyên, Thường Thạnh, Cái Răng, Cần Thơ","Thường Thạnh, Cái Răng","XQR5+XG3, Đ. Trương Vĩnh Nguyên",Cần Thơ,,"Cái Răng, Cần Thơ",VN
125,ChIJq6qqqq5ioDER4-Oeop1oCes,Cửa Hàng Điện Nước Gia Dụng,Cửa hàng thiết bị điện,0352 237 747,"Cửa Hàng Điện Nước Gia Dụng, Lô 85, Trung Tâm Thương Mại Cái Khế, Phường Cái Khế, Quận Ninh Kiều, Thành Phố Cần Thơ, Cái Khế, Ninh Kiều, Cần Thơ","Cái Khế, Ninh Kiều","Lô 85, Trung Tâm Thương Mại Cái Khế, Phường Cái Khế, Quận Ninh Kiều, Thành Phố Cần Thơ",Cần Thơ,,"Ninh Kiều, Cần Thơ",VN
126,ChIJxU67URuIoDERerhTlRPCRL8,Cửa Hàng Điện Nước Tuấn Minh,Cửa hàng thiết bị điện,0939 009 173,"Cửa Hàng Điện Nước Tuấn Minh, 132/42/89 Hùng Vương, An Phú, Ninh Kiều, Cần Thơ","An Phú, Ninh Kiều",132/42/89 Hùng Vương,Cần Thơ,,"Ninh Kiều, Cần Thơ",VN
127,ChIJq6qqBw-IoDERFGjv33tZNfE,Cửa Hàng Điện Nước Hải Đoàn,Cửa hàng thiết bị điện,0292 3896 069,"Cửa Hàng Điện Nước Hải Đoàn, 126 K4, Nguyễn Văn Cừ, Quận Ninh Kiều, Tp Cần Thơ, An Hoà, Ninh Kiều, Cần Thơ","An Hoà, Ninh Kiều","126 K4, Nguyễn Văn Cừ, Quận Ninh Kiều, Tp Cần Thơ",Cần Thơ,,"Ninh Kiều, Cần Thơ",VN
128,ChIJq6qqBw-IoDERA3WjT61i3WY,Cửa Hàng Điện Nước Gia Dụng Bình Hằng,Cửa hàng,0292 3582 335,"Cửa Hàng Điện Nước Gia Dụng Bình Hằng, 380N/14B, Đường Nguyễn Văn Cừ, Quận Ninh Kiều, Tp Cần Thơ, An Hoà, Ninh Kiều, Cần Thơ","An Hoà, Ninh Kiều","380N/14B, Đường Nguyễn Văn Cừ, Quận Ninh Kiều, Tp Cần Thơ",Cần Thơ,,"Ninh Kiều, Cần Thơ",VN
129,ChIJ-4-RnhuIoDERiHlkp43QiMA,Cửa Hàng Điện Nước Huỳnh Gia,Cửa hàng thiết bị điện,0292 3830 236,"Cửa Hàng Điện Nước Huỳnh Gia, 132A, Hùng Vương, Phường Thới Bình, Quận Ninh Kiều, Thành Phố Cần Thơ, An Cư, Ninh Kiều, Cần Thơ","An Cư, Ninh Kiều","132A, Hùng Vương, Phường Thới Bình, Quận Ninh Kiều, Thành Phố Cần Thơ",Cần Thơ,,"Ninh Kiều, Cần Thơ",VN
130,ChIJhw_h7a6HoDERxdod3sajI3c,Cửa hàng Điện Nước Phú Mỹ,Cửa hàng thiết bị điện,0939 061 038,"Cửa hàng Điện Nước Phú Mỹ, 91c Đ. Cách Mạng Tháng 8, Bùi Hữu Nghĩa, Bình Thủy, Cần Thơ","Bùi Hữu Nghĩa, Bình Thủy",91c Đ. Cách Mạng Tháng 8,Cần Thơ,,"Bình Thủy, Cần Thơ",VN
131,ChIJoc5DC59ioDERvaVV4t7mHWg,Cửa Hàng Điện Nước Thạnh Mỹ,Cửa hàng thiết bị điện,,"Cửa Hàng Điện Nước Thạnh Mỹ, 69 Đường Châu Văn Liêm, Tân An, Ninh Kiều, Cần Thơ","Tân An, Ninh Kiều",69 Đường Châu Văn Liêm,Cần Thơ,,"Ninh Kiều, Cần Thơ",VN
132,ChIJS_SG6CCIoDER7wzu7lIZ5d0,Cửa Hàng Điện Nước Hồng Cơ,Cửa hàng thiết bị điện,7103752219,"Cửa Hàng Điện Nước Hồng Cơ, 99 Quang Trung, An Lạc, Ninh Kiều, Cần Thơ","An Lạc, Ninh Kiều",99 Quang Trung,Cần Thơ,,"Ninh Kiều, Cần Thơ",VN
133,ChIJq_ZHZWSJoDERHlNHHNTEvUQ,"Cửa hàng Điện Nước gia dụng, Phụ kiện điện thoại Ngân Thông",Cửa hàng tổng hợp,0907 828 978,"Cửa hàng Điện Nước gia dụng, Phụ kiện điện thoại Ngân Thông, 138 Đ. Mậu Thân, An Nghiệp, Ninh Kiều, Cần Thơ","An Nghiệp, Ninh Kiều",138 Đ. Mậu Thân,Cần Thơ,,"Ninh Kiều, Cần Thơ",VN
134,ChIJNQNwdxyIoDERRrw6zpZd2u4,Cửa Hàng Điện Nước Minh Sơn,Cửa hàng vật liệu xây dựng,7103832528,"Cửa Hàng Điện Nước Minh Sơn, 30 Đ. Huỳnh Thúc Kháng, An Phú, Ninh Kiều, Cần Thơ","An Phú, Ninh Kiều",30 Đ. Huỳnh Thúc Kháng,Cần Thơ,,"Ninh Kiều, Cần Thơ",VN
135,ChIJN_9BwWqIoDERT3UuxXdZQDE,Cửa Hàng Điện Nước Đỗ Tùng,Cửa hàng thiết bị điện,7106266665,"Cửa Hàng Điện Nước Đỗ Tùng, 398G1 Đ. Nguyễn Văn Cừ, Phường An Khánh, Ninh Kiều, Cần Thơ","Phường An Khánh, Ninh Kiều",398G1 Đ. Nguyễn Văn Cừ,Cần Thơ,,"Ninh Kiều, Cần Thơ",VN
136,ChIJJdrr8SSIoDER3oCpwWTzexM,Cửa Hàng Điện Nước Phát Đạt,Cửa hàng thiết bị điện,0979 779 467,"Cửa Hàng Điện Nước Phát Đạt, 40 Đ. Trần Văn Hoài, Xuân Khánh, Ninh Kiều, Cần Thơ 900000","Xuân Khánh, Ninh Kiều",40 Đ. Trần Văn Hoài,Cần Thơ,900000.0,"Ninh Kiều, Cần Thơ",VN
137,ChIJY_ujgp5ioDERsWkWEYhQgeM,Cửa Hàng Điện Nước Hồng Phúc,Cửa hàng thiết bị điện,0292 3837 264,"Cửa Hàng Điện Nước Hồng Phúc, Đường Nguyễn Thị Minh Khai, Tân An, Ninh Kiều, Cần Thơ","Tân An, Ninh Kiều",Đường Nguyễn Thị Minh Khai,Cần Thơ,,"Ninh Kiều, Cần Thơ",VN
138,ChIJm0XTsyaIoDERIibvCERD4aI,Cửa Hàng Điện Nước Ngân Phát,Cửa hàng thiết bị điện,,"Cửa Hàng Điện Nước Ngân Phát, 181 Đ. 30 Tháng 4, Xuân Khánh, Ninh Kiều, Cần Thơ","Xuân Khánh, Ninh Kiều",181 Đ. 30 Tháng 4,Cần Thơ,,"Ninh Kiều, Cần Thơ",VN
139,ChIJzXX-6C-IoDERYn6OASCM3c8,Cửa Hàng Điện Nước Dũng,Cửa hàng thiết bị điện,0292 6525 767,"Cửa Hàng Điện Nước Dũng, 271 Đ. Trần Ngọc Quế, Xuân Khánh, Ninh Kiều, Cần Thơ","Xuân Khánh, Ninh Kiều",271 Đ. Trần Ngọc Quế,Cần Thơ,,"Ninh Kiều, Cần Thơ",VN
140,ChIJ1f-5a3OIoDERxgq7eICH56s,Cửa Hàng Thiết Bị Điện - Nước Hồng Long,Cửa hàng thiết bị điện,0857 870 927,"Cửa Hàng Thiết Bị Điện - Nước Hồng Long, 260 Võ Văn Kiệt, An Thới, Bình Thủy, Cần Thơ","An Thới, Bình Thủy",260 Võ Văn Kiệt,Cần Thơ,,"Bình Thủy, Cần Thơ",VN
141,ChIJb14ITTeIoDERAED_2Ajdi1I,Cửa Hàng Điện Nước Ngọc Dung,Cửa hàng thiết bị điện,0292 3838 512,"Cửa Hàng Điện Nước Ngọc Dung, 8 QL91B, Hưng Lợi, Ninh Kiều, Cần Thơ","Hưng Lợi, Ninh Kiều",8 QL91B,Cần Thơ,,"Ninh Kiều, Cần Thơ",VN
142,ChIJAR9aexOIoDERQb2PIE36el4,Cửa Hàng Sơn - Điện Nước Phúc Khang,Cửa hàng thiết bị điện,0292 6511 699,"Cửa Hàng Sơn - Điện Nước Phúc Khang, 177 Đ. Nguyễn Văn Cừ, Phường An Khánh, Ninh Kiều, Cần Thơ","Phường An Khánh, Ninh Kiều",177 Đ. Nguyễn Văn Cừ,Cần Thơ,,"Ninh Kiều, Cần Thơ",VN
143,ChIJ248E82uIoDERhKL3Pt2Oda0,Tiệm Điện - Nước Lạc,Cửa hàng thiết bị điện,,"Tiệm Điện - Nước Lạc, An Khánh, Ninh Kiều, Cần Thơ","An Khánh, Ninh Kiều",,Cần Thơ,,"Ninh Kiều, Cần Thơ",VN
144,ChIJE-S7wi-IoDERwtgXIQhnD_U,Cửa Hàng Điện Nước Chín Thanh,Cửa hàng thiết bị điện,0292 3839 754,"Cửa Hàng Điện Nước Chín Thanh, 251/40A, Đường Trần Ngọc Quế, Quận Ninh Kiều, TP Cần Thơ, Xuân Khánh, Ninh Kiều, Cần Thơ","Xuân Khánh, Ninh Kiều","251/40A, Đường Trần Ngọc Quế, Quận Ninh Kiều, TP Cần Thơ",Cần Thơ,,"Ninh Kiều, Cần Thơ",VN
145,ChIJr9raj0eIoDER2tBd0WxNtZQ,Cửa Hàng Điện Nước Huy Ngữ,Cửa hàng thiết bị điện,0778 171 583,"Cửa Hàng Điện Nước Huy Ngữ, 2 Đ. Nguyễn Hiền, Khu dân cư 91B, Ninh Kiều, Cần Thơ","Khu dân cư 91B, Ninh Kiều",2 Đ. Nguyễn Hiền,Cần Thơ,,"Ninh Kiều, Cần Thơ",VN
146,ChIJJ3nYWkGIoDER02akeJcINvA,Cửa Hàng Điện Nước Gia Dụng Việt Phúc,Cửa hàng thiết bị điện,0903 133 339,"Cửa Hàng Điện Nước Gia Dụng Việt Phúc, 9 Đ. Nguyễn Văn Linh, Phường An Khánh, Ninh Kiều, Cần Thơ","Phường An Khánh, Ninh Kiều",9 Đ. Nguyễn Văn Linh,Cần Thơ,,"Ninh Kiều, Cần Thơ",VN
147,ChIJ43el6gaIoDERu4Axxmgtop0,Cửa Hàng Điện Gia Dụng Trung Thành,Cửa hàng thiết bị điện,0292 3763 763,"Cửa Hàng Điện Gia Dụng Trung Thành, 105 Đ. Cách Mạng Tháng 8, An Hoà, Ninh Kiều, Cần Thơ","An Hoà, Ninh Kiều",105 Đ. Cách Mạng Tháng 8,Cần Thơ,,"Ninh Kiều, Cần Thơ",VN
148,ChIJNRL_Dp9ioDERr6lnVFr9h28,Cửa Hàng Thiết Bị Điện Nước Hai Hiếu,Cửa hàng thiết bị điện,0292 3824 261,"Cửa Hàng Thiết Bị Điện Nước Hai Hiếu, 16 Đ. Điện Biên Phủ, Tân An, Ninh Kiều, Cần Thơ","Tân An, Ninh Kiều",16 Đ. Điện Biên Phủ,Cần Thơ,,"Ninh Kiều, Cần Thơ",VN
149,ChIJAfnvxESIoDER1rZlXpHTKeA,Cửa Hàng Điện Nước Dũng,Cửa hàng thiết bị điện,0292 6525 767,"Cửa Hàng Điện Nước Dũng, 70, Đường Nguyễn Văn Cừ, Quận Ninh Kiều, An Bình, Ninh Kiều, Cần Thơ","An Bình, Ninh Kiều","70, Đường Nguyễn Văn Cừ, Quận Ninh Kiều",Cần Thơ,,"Ninh Kiều, Cần Thơ",VN
150,ChIJQ41TX0KIoDERRpDsS2qKHww,Cửa Hàng Thiết Bị Điện Nước Phúc Thịnh,Cửa hàng thiết bị điện,0989 889 406,"2PJX+XWW Cửa Hàng Thiết Bị Điện Nước Phúc Thịnh, Đ. Nguyễn Văn Linh, Phường An Khánh, Ninh Kiều, Cần Thơ","Phường An Khánh, Ninh Kiều","2PJX+XWW, Đ. Nguyễn Văn Linh",Cần Thơ,,"Ninh Kiều, Cần Thơ",VN
151,ChIJMYPdUTeIoDERN4vmBW81n28,Cửa Hàng - Điện Nước - Gia Dụng Ngân Phát,Cửa hàng thiết bị điện,,"Cửa Hàng - Điện Nước - Gia Dụng Ngân Phát, Hưng Lợi, Ninh Kiều, Cần Thơ","Hưng Lợi, Ninh Kiều",,Cần Thơ,,"Ninh Kiều, Cần Thơ",VN
152,ChIJJ8hWp7OJoDERJGZ9f1WZ3WQ,Cửa Hàng Điện Nước Gia Lập,Cửa hàng thiết bị điện,0292 3913 515,"Cửa Hàng Điện Nước Gia Lập, 1 Đ. 3 Tháng 2, An Bình, Ninh Kiều, Cần Thơ","An Bình, Ninh Kiều",1 Đ. 3 Tháng 2,Cần Thơ,,"Ninh Kiều, Cần Thơ",VN
153,ChIJB-eI42eIoDERScR3XUVI59I,Cửa Hàng Thiết Bị Điện - Nước Gia Phát,Cửa hàng bán đồ điện tử,0907 453 339,"Cửa Hàng Thiết Bị Điện - Nước Gia Phát, 302 QL91B, Phường An Khánh, Ninh Kiều, Cần Thơ","Phường An Khánh, Ninh Kiều",302 QL91B,Cần Thơ,,"Ninh Kiều, Cần Thơ",VN
154,ChIJL1gcCmNioDERNmnsIDtqOWY,Cửa Hàng Điện Nước Phúc My,Cửa hàng vật liệu xây dựng,0292 3890 992,"Cửa Hàng Điện Nước Phúc My, B5 - B6, Võ Nguyên Giáp, Phú Thứ, Cái Răng, Cần Thơ","Phú Thứ, Cái Răng","B5 - B6, Võ Nguyên Giáp",Cần Thơ,,"Cái Răng, Cần Thơ",VN
155,ChIJKRdE5lCIoDERu7rzrG3E8M4,Cửa Hàng Điện Nước Nguyễn Hưng - sơn xịt SAMURAI,Cửa hàng thiết bị điện,0904 903 998,"Cửa Hàng Điện Nước Nguyễn Hưng - sơn xịt SAMURAI, 10 Nguyễn Văn Cừ Nối Dài, Phường An Khánh, Ninh Kiều, Cần Thơ","Phường An Khánh, Ninh Kiều",10 Nguyễn Văn Cừ Nối Dài,Cần Thơ,,"Ninh Kiều, Cần Thơ",VN
156,ChIJv9QIwLCJoDERMoz4Y6x9wOQ,Cửa Hàng Điện -Nước- Gia Dụng Thiên Quang,Cửa hàng thiết bị điện,0919 145 832,"Cửa Hàng Điện -Nước- Gia Dụng Thiên Quang, 454 Nguyễn Trãi, Lê Bình, Cái Răng, Cần Thơ","Lê Bình, Cái Răng",454 Nguyễn Trãi,Cần Thơ,,"Cái Răng, Cần Thơ",VN
157,ChIJGeBwQ0KJoDER1yJp0XFERvs,CỬA HÀNG ĐIỆN NƯỚC HÀ ĐĂNG,Cửa hàng đồ gia dụng,,"CỬA HÀNG ĐIỆN NƯỚC HÀ ĐĂNG, 449 Đ. Nguyễn Đệ, An Hoà, Ninh Kiều, Cần Thơ","An Hoà, Ninh Kiều",449 Đ. Nguyễn Đệ,Cần Thơ,,"Ninh Kiều, Cần Thơ",VN
177,ChIJw7Ad1zWIoDERBTkWHsgwaEM,Cửa Hàng Điện Nước Thanh Hiền,Cửa hàng thiết bị điện,0974 136 293,"Cửa Hàng Điện Nước Thanh Hiền, 106 Đ. 3 Tháng 2, Hưng Lợi, Ninh Kiều, Cần Thơ","Hưng Lợi, Ninh Kiều",106 Đ. 3 Tháng 2,Cần Thơ,,"Ninh Kiều, Cần Thơ",VN
179,ChIJATHdVDOIoDERVXI7U1_0z30,Cửa Hàng Điện Nước Trung Kiên,Cửa hàng thiết bị điện,0292 3781 794,"Cửa Hàng Điện Nước Trung Kiên, 51B Đ. Trần Hoàng Na, Hưng Lợi, Ninh Kiều, Cần Thơ","Hưng Lợi, Ninh Kiều",51B Đ. Trần Hoàng Na,Cần Thơ,,"Ninh Kiều, Cần Thơ",VN
181,ChIJ03BArLOJoDERa4qsogzdxq0,Cửa Hàng Điện Nước Minh Quang,Cửa hàng bán đồ điện tử,0939 291 818,"Cửa Hàng Điện Nước Minh Quang, 109A/3 Đường, Can Tho City, Đ. 3 Tháng 2, An Bình, Ninh Kiều, Cần Thơ","An Bình, Ninh Kiều","109A/3 Đường, Can Tho City, Đ. 3 Tháng 2",Cần Thơ,,"Ninh Kiều, Cần Thơ",VN
184,ChIJzTXI8WdioDERNrLuGDYJRW0,Cửa Hàng Điện Nước Quang Bằng,Cửa hàng thiết bị điện,0987 807 191,"Cửa Hàng Điện Nước Quang Bằng, Lock K1, Đường 9, Cái Răng, Cần Thơ","Phú Thứ, Cái Răng","Lock K1, Đường 9",Cần Thơ,,"Cái Răng, Cần Thơ",VN
188,ChIJQU6bemRioDERbkR7UvPZPcM,Cửa Hàng Điện Nước Hưng Phát,Cửa hàng thiết bị điện,0327 268 115,"Cửa Hàng Điện Nước Hưng Phát, Khu Dân Cư 586, Đường Số 8, Phường Phú Thứ, Quận Cái Răng, Thành Phố Cần Thơ, Phú Thứ, Cái Răng, Cần Thơ","Phú Thứ, Cái Răng","Khu Dân Cư 586, Đường Số 8, Phường Phú Thứ, Quận Cái Răng, Thành Phố Cần Thơ",Cần Thơ,,"Cái Răng, Cần Thơ",VN
258,ChIJTSg5axyIoDERUSJSyjvmrA4,ĐIỆN NƯỚC NHƯ Ý,Cửa hàng bách hóa,0988 855 599,"ĐIỆN NƯỚC NHƯ Ý, 1 Đ. Trần Hưng Đạo, An Cư, Ninh Kiều, Cần Thơ","An Cư, Ninh Kiều",1 Đ. Trần Hưng Đạo,Cần Thơ,,"Ninh Kiều, Cần Thơ",VN
287,ChIJq6qqBw-IoDERUDL0iweHy1E,DNTN Quốc Toàn Điện Nước Gia Dụng,Cửa hàng,0292 3893 634,"DNTN Quốc Toàn Điện Nước Gia Dụng, 134, Nguyễn Văn Cừ, Quận Ninh Kiều, Tp Cần Thơ, An Hoà, Ninh Kiều, Cần Thơ","An Hoà, Ninh Kiều","134, Nguyễn Văn Cừ, Quận Ninh Kiều, Tp Cần Thơ",Cần Thơ,,"Ninh Kiều, Cần Thơ",VN
288,ChIJ65fusg6IoDERRJtHTX-pAKA,Tiệm Điện Toàn,Cửa hàng thiết bị điện,0292 3898 822,"Tiệm Điện Toàn, 14 Đ. Nguyễn Đệ, An Hoà, Ninh Kiều, Cần Thơ","An Hoà, Ninh Kiều",14 Đ. Nguyễn Đệ,Cần Thơ,,"Ninh Kiều, Cần Thơ",VN
311,ChIJxaIk5WOIoDERhb0xiTu_Dbw,Cửa Hàng Thiết Bị Điện Nước,Cửa hàng thiết bị điện,0908 228 555,"Cửa Hàng Thiết Bị Điện Nước, 1, Quốc Lộ 91B, Phường Long Tuyền, Quận Bình Thủy, Thành Phố Cần Thơ, Long Hoà, Bình Thủy, Cần Thơ","Long Hoà, Bình Thủy","1, Quốc Lộ 91B, Phường Long Tuyền, Quận Bình Thủy, Thành Phố Cần Thơ",Cần Thơ,,"Bình Thủy, Cần Thơ",VN
350,ChIJIbRzTbKJoDERuiCUzaobo-s,Cửa Hàng Điện Nước Gia Dụng Quang Lâm,Cửa hàng thiết bị điện,0292 3567 249,"Cửa Hàng Điện Nước Gia Dụng Quang Lâm, 9, Quốc Lộ 1A, Quận Cái Răng, An Bình, Ninh Kiều, Cần Thơ","An Bình, Ninh Kiều","9, Quốc Lộ 1A, Quận Cái Răng",Cần Thơ,,"Ninh Kiều, Cần Thơ",VN
358,ChIJMVSEOkuIoDER-xjRE8jRn1s,Cửa Hàng Điện Gia Dụng - Ống Nước Nhật Tân,Cửa hàng thiết bị điện,0944 111 269,"Cửa Hàng Điện Gia Dụng - Ống Nước Nhật Tân, 12/4B, Đường 3/2, Quận Ninh Kiều, TP Cần Thơ, Hưng Lợi, Ninh Kiều, Cần Thơ","Hưng Lợi, Ninh Kiều","12/4B, Đường 3/2, Quận Ninh Kiều, TP Cần Thơ",Cần Thơ,,"Ninh Kiều, Cần Thơ",VN
361,ChIJd6ypODaIoDERjPFATYl5cCU,Điện nước Trí Nhân,Cửa hàng thiết bị điện,0389 986 564,"Điện nước Trí Nhân, 17 Đ. 3 Tháng 2, Hưng Lợi, Ninh Kiều, Cần Thơ","Hưng Lợi, Ninh Kiều",17 Đ. 3 Tháng 2,Cần Thơ,,"Ninh Kiều, Cần Thơ",VN
363,ChIJ8zWvOrGJoDERGCCPR1eSOUY,Tiệm Điện Nước Vĩnh Phát,Cửa hàng thiết bị điện,0292 3914 596,"Tiệm Điện Nước Vĩnh Phát, 19 Ngô Quyền, Lê Bình, Cái Răng, Cần Thơ","Lê Bình, Cái Răng",19 Ngô Quyền,Cần Thơ,,"Cái Răng, Cần Thơ",VN
373,ChIJ2cs0xeWIoDERTheF5K8u9VQ,Cửa Hàng Vật Tư Điện Nước Trung Nam,Cửa hàng thiết bị điện,,"Cửa Hàng Vật Tư Điện Nước Trung Nam, Long Tuyền, Bình Thủy, Cần Thơ","Long Tuyền, Bình Thủy",,Cần Thơ,,"Bình Thủy, Cần Thơ",VN
400,ChIJNYN9WsCOoDER4lHy_WJf3Z0,Cửa Hàng Điện Nước Tấn Lan,Cửa hàng thiết bị điện,0939 157 259,"XMW8+QR4 Cửa Hàng Điện Nước Tấn Lan, Chợ, Phong Điền, Cần Thơ","Chợ, Phong Điền",XMW8+QR4,Cần Thơ,,"Phong Điền, Cần Thơ",VN
403,ChIJGWBBt8COoDERDSpWbJmBgbk,Cửa Hàng Điện Nước Quý,Cửa hàng thiết bị điện,0292 3850 218,"Cửa Hàng Điện Nước Quý, 339 ĐT923, Nhơn ái, Phong Điền, Cần Thơ","Nhơn ái, Phong Điền",339 ĐT923,Cần Thơ,,"Phong Điền, Cần Thơ",VN
404,ChIJbSiDYxSJoDER3sxH7cDA5pA,Cửa Hàng Điện Nước Anh Thư,Cửa hàng thiết bị điện,,"Cửa Hàng Điện Nước Anh Thư, 6 Bông Vang, Mỹ Khánh, Phong Điền, Cần Thơ","Mỹ Khánh, Phong Điền",6 Bông Vang,Cần Thơ,,"Phong Điền, Cần Thơ",VN
405,ChIJCWX0yfOIoDERdkiU6qzCui4,Cứ Hàng Điện - Nước Gia Dụng Tý Điện Cơ,Cửa hàng thiết bị điện,,"2PJG+FM5 Cứ Hàng Điện - Nước Gia Dụng Tý Điện Cơ, Đinh Công Chánh, Long Tuyền, Bình Thủy, Cần Thơ","Long Tuyền, Bình Thủy","2PJG+FM5, Đinh Công Chánh",Cần Thơ,,"Bình Thủy, Cần Thơ",VN
406,ChIJsxFdFK6JoDER5x5BeIaKdbM,Cửa Hàng Điện Nước Thắng Hà,Cửa hàng thiết bị điện,,"Cửa Hàng Điện Nước Thắng Hà, 185 Lộ Vòng Cung, An Bình, Ninh Kiều, Cần Thơ","An Bình, Ninh Kiều",185 Lộ Vòng Cung,Cần Thơ,,"Ninh Kiều, Cần Thơ",VN
407,ChIJaQi6buuJoDERkDDMN2ngsJY,Cửa Hàng Điện Nước Bảo An,Cửa hàng thiết bị điện,,"XQP6+85X Cửa Hàng Điện Nước Bảo An, Đ. Trương Vĩnh Nguyên, Thường Thạnh, Cái Răng, Cần Thơ","Thường Thạnh, Cái Răng","XQP6+85X, Đ. Trương Vĩnh Nguyên",Cần Thơ,,"Cái Răng, Cần Thơ",VN
413,ChIJmWMJG72JoDERp2uh24XLBHQ,Cửa Hàng Điện Nước Nguyễn Hùng,Cửa hàng vật liệu xây dựng,0907 224 123,"Cửa Hàng Điện Nước Nguyễn Hùng, 281B QL1A, Hiệp Lợi, Cái Răng, Cần Thơ","Hiệp Lợi, Cái Răng",281B QL1A,Cần Thơ,,"Cái Răng, Cần Thơ",VN
420,ChIJ8Vm01CqKoDERd-7ktFfv4z4,Cửa Hàng Điện Nước Huỳnh Lâm,Cửa hàng thiết bị điện,,"Cửa Hàng Điện Nước Huỳnh Lâm, Tân Phú Thạnh, Châu Thành A, Hậu Giang","Tân Phú Thạnh, Châu Thành A",,Hậu Giang,,Hậu Giang,VN
430,ChIJhxVwtPqJoDERfZlcatPp0v8,Cửa Hàng Vât Tư Điện - Nước Huy Thịnh,Cửa hàng vật liệu xây dựng,0907 842 144,"Cửa Hàng Vât Tư Điện - Nước Huy Thịnh, 010 Nguyễn Thị Trâm, Thường Thạnh, Cái Răng, Cần Thơ 94000","Thường Thạnh, Cái Răng",010 Nguyễn Thị Trâm,Cần Thơ,94000.0,"Cái Răng, Cần Thơ",VN
433,ChIJr-2wG1-JoDERoFHRxKg5h7Y,Cửa Hàng Điện Nước Khang Huy,Cửa hàng vật liệu xây dựng,,"XQH9+Q5M Cửa Hàng Điện Nước Khang Huy, Thường Thạnh, Cái Răng, Cần Thơ","Thường Thạnh, Cái Răng",XQH9+Q5M,Cần Thơ,,"Cái Răng, Cần Thơ",VN
441,ChIJ2a3LbrKJoDERSoxp4BZ_x_s,Dịch Vụ Điện Nước Đăc Nhân Tâm,Cửa hàng thiết bị điện,0916 336 266,"Dịch Vụ Điện Nước Đăc Nhân Tâm, 221F Đ. Hoàng Quốc Việt, An Bình, Ninh Kiều, Cần Thơ","An Bình, Ninh Kiều",221F Đ. Hoàng Quốc Việt,Cần Thơ,,"Ninh Kiều, Cần Thơ",VN
443,ChIJQea3wraJoDERZ2SBtzHLhho,Tiệm Điện Nước Phát Đạt,Cửa hàng thiết bị điện,0938 224 075,"2Q33+XHJ Tiệm Điện Nước Phát Đạt, Trần Chiên, Lê Bình, Cái Răng, Cần Thơ","Lê Bình, Cái Răng","2Q33+XHJ, Trần Chiên",Cần Thơ,,"Cái Răng, Cần Thơ",VN
527,ChIJS6u95CSIoDERgOZv7P8B72k,Tiệm Điện Lạnh - Điện Nước Nguyễn Lễ,Cửa hàng vật liệu xây dựng,0949 745 868,"Tiệm Điện Lạnh - Điện Nước Nguyễn Lễ, 45 Đ. Trần Văn Hoài, Xuân Khánh, Ninh Kiều, Cần Thơ","Xuân Khánh, Ninh Kiều",45 Đ. Trần Văn Hoài,Cần Thơ,,"Ninh Kiều, Cần Thơ",VN
588,ChIJqfLkLqJioDERuMdL3y3tnb0,Cửa Hàng Điện Dân Dụng Viết Lễ,Cửa hàng thiết bị điện,7103826537,"Cửa Hàng Điện Dân Dụng Viết Lễ, 7 Đ. Trần Quốc Toản, Tân An, Ninh Kiều, Cần Thơ","Tân An, Ninh Kiều",7 Đ. Trần Quốc Toản,Cần Thơ,,"Ninh Kiều, Cần Thơ",VN
