,place_id,name,main_category,phone,address,address_ward,address_street,address_city,address_postal_code,address_state,address_country_code,coordinates
0,ChIJJeaXxf6JoDER4-1cQ49XMHk,CellphoneS Cần Thơ,Cửa hàng máy tính,028 7100 9272,"CellphoneS Cần Thơ, 272 Đ. 30 Tháng 4, Hưng Lợi, Ninh Kiều, Cần Thơ 900000","Hưng Lợi, Ninh Kiều",272 Đ. 30 Tháng 4,Cần Thơ,900000.0,"Ninh Kiều, Cần Thơ",VN,"10.0200224,105.76805619999999"
1,ChIJyShuuTCIoDERJ0vRVxlMw3U,Siêu thị Thế Giới Di Động,Cửa hàng điện thoại di động,1900 232460,"Siêu thị Thế Giới Di Động, 217 Hẻm 132 Đ. 3 Tháng 2, P, Ninh Kiều, Cần Thơ 94000","P, Ninh Kiều",217 Hẻm 132 Đ. 3 Tháng 2,Cần Thơ,94000.0,"Ninh Kiều, Cần Thơ",VN,"10.0215374,105.7653174"
14,ChIJi_MH9ouHoDERQBqmnXKHHbE,CellphoneS 131A-133 Cách Mạng Tháng 8 | Cần Thơ,Cửa hàng điện thoại di động,028 7101 0133,"CellphoneS 131A-133 Cách Mạng Tháng 8 | Cần Thơ, 131A-133, Đ. Cách Mạng Tháng 8, An Hoà, Ninh Kiều, Cần Thơ 94100","An Hoà, Ninh Kiều","131A-133, Đ. Cách Mạng Tháng 8",Cần Thơ,94100.0,"Ninh Kiều, Cần Thơ",VN,"10.0511433,105.7739397"
18,ChIJb3RfZzqIoDER4PV_KrSl5Hc,Di Động Rẻ by Di Động Thông Minh,Cửa hàng điện thoại di động,0911 108 855,"Di Động Rẻ by Di Động Thông Minh, 184A Đ. 3 Tháng 2, Hưng Lợi, Ninh Kiều, Cần Thơ","Hưng Lợi, Ninh Kiều",184A Đ. 3 Tháng 2,Cần Thơ,,"Ninh Kiều, Cần Thơ",VN,"10.0231358,105.76648089999999"
30,ChIJ30ZkSzCIoDERIqc0-CaeQd8,Siêu Thị Thế Giới Di Động,Cửa hàng điện thoại di động,1900 232460,"Siêu Thị Thế Giới Di Động, 84-86A Đ. 30 Tháng 4, An Lạc, Ninh Kiều, Cần Thơ 920000","An Lạc, Ninh Kiều",84-86A Đ. 30 Tháng 4,Cần Thơ,920000.0,"Ninh Kiều, Cần Thơ",VN,"10.0297656,105.7797842"
43,ChIJvSnTPSZjoDEROjZ3gp-p80I,duongphi.com - Cần Thơ,Cửa hàng điện thoại di động,1900 3121,"duongphi.com - Cần Thơ, 76 Nguyễn Trãi, An Hội, Ninh Kiều, Cần Thơ 94000","An Hội, Ninh Kiều",76 Nguyễn Trãi,Cần Thơ,94000.0,"Ninh Kiều, Cần Thơ",VN,"10.0410278,105.7847386"
44,ChIJJzJ2ZjOJoDERxEFFd7yMLWQ,Siêu thị Thế Giới Di Động,Cửa hàng điện thoại di động,1900 232460,"Siêu thị Thế Giới Di Động, 305V Nguyễn Văn Linh, Khu Vực 3, P, Ninh Kiều, Cần Thơ 94000","P, Ninh Kiều","305V Nguyễn Văn Linh, Khu Vực 3",Cần Thơ,94000.0,"Ninh Kiều, Cần Thơ",VN,"10.030437899999999,105.752361"
52,ChIJoWjOraFioDERMFNgcvEgUdo,Siêu thị Điện máy XANH,Cửa hàng bán đồ điện tử,1900 232461,"Siêu thị Điện máy XANH, Số 08 Hòa Bình, P, Ninh Kiều, 94000","P, Ninh Kiều",Số 08 Hòa Bình,Cần Thơ,94000.0,"Ninh Kiều, Cần Thơ",VN,"10.034792,105.78534839999999"
53,ChIJSYbJvwOIoDER4BWs2D8l9bw,Siêu thị Thế Giới Di Động,Cửa hàng điện thoại di động,1900 232460,"Siêu thị Thế Giới Di Động, 35B Đ. Cách Mạng Tháng 8, Thới Bình, Ninh Kiều, Cần Thơ 920000","Thới Bình, Ninh Kiều",35B Đ. Cách Mạng Tháng 8,Cần Thơ,920000.0,"Ninh Kiều, Cần Thơ",VN,"10.0476104,105.777507"
62,ChIJW2LAzyN9oDER7QP99L_dxjE,Thế Giới Di Động,Cửa hàng điện thoại di động,1900 232460,"Thế Giới Di Động, Tổ 21 Khóm 5, P, Bình Minh, Vĩnh Long 85000","P, Bình Minh",Tổ 21 Khóm 5,Vĩnh Long,85000.0,"Bình Minh, Vĩnh Long",VN,"10.0708776,105.82233219999999"
65,ChIJPw1xhbRjoDERnAjR8eGYBuM,102 Store,Cửa hàng điện thoại di động,0909 885 102,"102 Store, 27 Phan Đình Phùng, Tân An, Ninh Kiều, Cần Thơ","Tân An, Ninh Kiều",27 Phan Đình Phùng,Cần Thơ,,"Ninh Kiều, Cần Thơ",VN,"10.0334082,105.78701319999999"
66,ChIJiTjf3C8vdTERtFdCLjpnocw,Di Động Sài Gòn,Cửa hàng điện thoại di động,0819 259 259,"Di Động Sài Gòn, 241 Đ. 3 Tháng 2, Phường 10, Quận 10, Thành phố Hồ Chí Minh 70000","Phường 10, Quận 10",241 Đ. 3 Tháng 2,Thành phố Hồ Chí Minh,70000.0,"Quận 10, Thành phố Hồ Chí Minh",VN,"10.77061,106.6728424"
69,ChIJryMggh2IoDER8s2MYHn5x5c,Showroom iTamLoan,Cửa hàng điện thoại di động,1900 6459,"Showroom iTamLoan, 46-48 Trần Văn Khéo, An Hội, Ninh Kiều, Cần Thơ 900000","An Hội, Ninh Kiều",46-48 Trần Văn Khéo,Cần Thơ,900000.0,"Ninh Kiều, Cần Thơ",VN,"10.0448598,105.7846984"
74,ChIJQ5kf7V-JoDERyB1ukcK7wu8,Hoàng Hà Mobile,Cửa hàng điện thoại di động,0828 522 255,"Hoàng Hà Mobile, 221 Đ. 3 Tháng 2, Hưng Lợi, Ninh Kiều, Cần Thơ 900000","Hưng Lợi, Ninh Kiều",221 Đ. 3 Tháng 2,Cần Thơ,900000.0,"Ninh Kiều, Cần Thơ",VN,"10.021990299999999,105.7655448"
76,ChIJNR__MDeIoDERrVEw_HflcEM,"Siêu Thị Điện Thoại, Laptop Phương Tùng",Cửa hàng điện thoại di động,1800 6869,"Siêu Thị Điện Thoại, Laptop Phương Tùng, 211 Đ. 3 Tháng 2, Hưng Lợi, Ninh Kiều, Cần Thơ 940000","Hưng Lợi, Ninh Kiều",211 Đ. 3 Tháng 2,Cần Thơ,940000.0,"Ninh Kiều, Cần Thơ",VN,"10.021138599999999,105.7650311"
80,ChIJKdqw78aHoDERbE6CiKD0_As,Thế Giới Di Động,Cửa hàng điện thoại di động,1900 232460,"Thế Giới Di Động, 26/9 Lê Hồng Phong, Bình Thuỷ, Bình Thủy, Cần Thơ","Bình Thuỷ, Bình Thủy",26/9 Lê Hồng Phong,Cần Thơ,,"Bình Thủy, Cần Thơ",VN,"10.0744756,105.75030509999999"
84,ChIJYYvNCz2JoDERIkD_ETEpRb4,"Hoàng Anh Mobile - Cửa hàng bán lẻ điện thoại di động, smartphone, phụ kiện chính hãng Cần Thơ.",Cửa hàng điện thoại di động,0941 944 448,"Hoàng Anh Mobile - Cửa hàng bán lẻ điện thoại di động, smartphone, phụ kiện chính hãng Cần Thơ., 73 Đ. Cách Mạng Tháng 8, An Hoà, Ninh Kiều, Cần Thơ","An Hoà, Ninh Kiều",73 Đ. Cách Mạng Tháng 8,Cần Thơ,,"Ninh Kiều, Cần Thơ",VN,"10.0500803,105.7751681"
88,ChIJy42CTCGIoDERLwLay5Fnns4,Phương Tùng Luxury Store Chi Nhánh 30/4,Cửa hàng điện thoại di động,1800 6869,"Phương Tùng Luxury Store Chi Nhánh 30/4, 192 Đ. 30 Tháng 4, Xuân Khánh, Ninh Kiều, Cần Thơ","Xuân Khánh, Ninh Kiều",192 Đ. 30 Tháng 4,Cần Thơ,,"Ninh Kiều, Cần Thơ",VN,"10.027463599999999,105.7771381"
90,ChIJfZMwM2pjoDERorvVy-bfXr0,Ken Táo,Cửa hàng điện thoại di động,0858 585 585,"Ken Táo, 9 Đ. Nguyễn Văn Cừ, An Hoà, Ninh Kiều, Cần Thơ","An Hoà, Ninh Kiều",9 Đ. Nguyễn Văn Cừ,Cần Thơ,,"Ninh Kiều, Cần Thơ",VN,"10.051409699999999,105.7734218"
92,ChIJ28skeBSJoDERZ_hxVN31Yow,Di Động Việt,Cửa hàng điện thoại di động,1800 6018,"Di Động Việt, 24B Nguyễn Trãi, Thới Bình, Ninh Kiều, Cần Thơ 900000","Thới Bình, Ninh Kiều",24B Nguyễn Trãi,Cần Thơ,900000.0,"Ninh Kiều, Cần Thơ",VN,"10.045194799999999,105.7804748"
105,ChIJayLS8CCIoDERNPdYWqLPIfY,Phụ Kiện Số - 133A Xô Viết Nghệ Tỉnh,Cửa hàng phụ kiện điện thoại di động,0292 6544 134,"Phụ Kiện Số - 133A Xô Viết Nghệ Tỉnh, 133A Đ. Xô Viết Nghệ Tĩnh, An Cư, Ninh Kiều, Cần Thơ 94000","An Cư, Ninh Kiều",133A Đ. Xô Viết Nghệ Tĩnh,Cần Thơ,94000.0,"Ninh Kiều, Cần Thơ",VN,"10.0408771,105.7812994"
109,ChIJ0WpT6hyIoDER4A9un5ShZy8,Di Động Thiên Minh,Cửa hàng điện thoại di động,0919 325 545,"Di Động Thiên Minh, 110 Hùng Vương, An Cư, Ninh Kiều, Cần Thơ","An Cư, Ninh Kiều",110 Hùng Vương,Cần Thơ,,"Ninh Kiều, Cần Thơ",VN,"10.042031,105.77784559999999"
122,ChIJK6SN-zOIoDERszfCrJKMR1Y,Siêu thị Thế Giới Di Động,Cửa hàng điện thoại di động,1800 1060,"Siêu thị Thế Giới Di Động, 552-554 Ba Mươi Tháng Tư, P. Hưng Lợi, Hưng Lợi, Ninh Kiều, Cần Thơ","Hưng Lợi, Ninh Kiều","552-554 Ba Mươi Tháng Tư, P. Hưng Lợi",Cần Thơ,,"Ninh Kiều, Cần Thơ",VN,"10.0160321,105.764046"
123,ChIJNTQWR2VjoDERPY1G_8yUJN0,DI ĐỘNG BULL,Cửa hàng điện thoại di động,0899 499 444,"DI ĐỘNG BULL, 24 Đ. Mậu Thân, An Nghiệp, Ninh Kiều, Cần Thơ 94154","An Nghiệp, Ninh Kiều",24 Đ. Mậu Thân,Cần Thơ,94154.0,"Ninh Kiều, Cần Thơ",VN,"10.0401061,105.7686256"
138,ChIJw8bofl-JoDERsb-THXpTktc,Cảnh Phúc Mobile,Cửa hàng điện thoại di động,0583 020 097,"Cảnh Phúc Mobile, 9/2 Phạm Ngọc Hưng, Phường An Khánh, Bình Thủy, Cần Thơ","Phường An Khánh, Bình Thủy",9/2 Phạm Ngọc Hưng,Cần Thơ,,"Bình Thủy, Cần Thơ",VN,"10.046109,105.75865569999999"
139,ChIJJ93aDV-JoDERm1_oRI5bumU,"Tứ Quí Care 2 - Sửa chữa điện thoại, thay kính điện thoại tại Cần Thơ",Cửa hàng sửa chữa điện thoại di động,0901 044 299,"Tứ Quí Care 2 - Sửa chữa điện thoại, thay kính điện thoại tại Cần Thơ, 121 Đ. Xô Viết Nghệ Tĩnh, An Cư, Ninh Kiều, Cần Thơ 94000","An Cư, Ninh Kiều",121 Đ. Xô Viết Nghệ Tĩnh,Cần Thơ,94000.0,"Ninh Kiều, Cần Thơ",VN,"10.040781299999999,105.78150169999999"
140,ChIJ13BcCahioDERwNx1vsjb0oI,Ngọc Trân - Loa karaoke di động Cần Thơ,Cửa hàng thiết bị âm thanh,0292 3763 853,"Ngọc Trân - Loa karaoke di động Cần Thơ, 33 Trần Văn Khéo, An Hội, Ninh Kiều, Cần Thơ","An Hội, Ninh Kiều",33 Trần Văn Khéo,Cần Thơ,,"Ninh Kiều, Cần Thơ",VN,"10.043850899999999,105.7829886"
142,ChIJx4v8alyJoDERr83Ud5Q9djA,Siêu thị TopZone - Hệ thống cửa hàng Apple chính hãng 100%,Cửa hàng điện thoại di động,1900 969642,"Siêu thị TopZone - Hệ thống cửa hàng Apple chính hãng 100%, Số 08 Hoà Bình, P, Ninh Kiều, Cần Thơ 94000","P, Ninh Kiều",Số 08 Hoà Bình,Cần Thơ,94000.0,"Ninh Kiều, Cần Thơ",VN,"10.0348448,105.78539459999999"
143,ChIJX-ByD9-JoDERaa3MEVycKVY,Siêu thị Thế Giới Di Động,Cửa hàng điện thoại di động,1900 232460,"Siêu thị Thế Giới Di Động, 403 Đ. Nguyễn Văn Cừ, An Hoà, Ninh Kiều, Cần Thơ 94000","An Hoà, Ninh Kiều",403 Đ. Nguyễn Văn Cừ,Cần Thơ,94000.0,"Ninh Kiều, Cần Thơ",VN,"10.043965,105.76517"
153,ChIJMbYJ-cKHoDERdRTpTjjkVT8,Thế Giới Di Động,Cửa hàng điện thoại di động,028 3810 2102,"3Q94+HFF Thế Giới Di Động, Hẻm 115 Cách Mạng Tháng Tám, P, Bình Thủy, Cần Thơ","P, Bình Thủy","3Q94+HFF, Hẻm 115 Cách Mạng Tháng Tám",Cần Thơ,,"Bình Thủy, Cần Thơ",VN,"10.0689431,105.7561782"
154,ChIJq6Zsq0GJoDER_gnuWOFv8rc,Điện thoại di động Dương Linh,Cửa hàng điện thoại di động,0932 896 860,"Điện thoại di động Dương Linh, 388A/35, Nguyễn Văn Cừ Nối Dài, KV2, Ninh Kiều, Cần Thơ 900000","KV2, Ninh Kiều","388A/35, Nguyễn Văn Cừ Nối Dài",Cần Thơ,900000.0,"Ninh Kiều, Cần Thơ",VN,"10.0352841,105.76272039999999"
168,ChIJ0yts0OaJoDER8QpOlk31LOw,Ép Kính Chấn Phong Cần Thơ,Cửa hàng điện thoại di động,0901 042 575,"Ép Kính Chấn Phong Cần Thơ, 112/46 Hẻm 112 Đ. 3 Tháng 2, Hưng Lợi, Ninh Kiều, Cần Thơ 900000","Hưng Lợi, Ninh Kiều",112/46 Hẻm 112 Đ. 3 Tháng 2,Cần Thơ,900000.0,"Ninh Kiều, Cần Thơ",VN,"10.0180104,105.759158"
174,ChIJF8489mGGoDERx3tPi9w_T8Q,Thế Giới Di Động,Cửa hàng điện thoại di động,028 3810 2102,"Thế Giới Di Động, 189 Lê Hồng Phong, P, Bình Thủy, Cần Thơ","P, Bình Thủy",189 Lê Hồng Phong,Cần Thơ,,"Bình Thủy, Cần Thơ",VN,"10.100440899999999,105.7059086"
175,ChIJk5_lsP1joDERug58n3lDMDo,Di Động Cần Thơ,Cửa hàng sửa chữa điện thoại di động,0945 667 661,"Di Động Cần Thơ, Hoàng Văn Thụ, An Hội, Ninh Kiều, Cần Thơ 92000","An Hội, Ninh Kiều",Hoàng Văn Thụ,Cần Thơ,92000.0,"Ninh Kiều, Cần Thơ",VN,"10.0413128,105.7822243"
179,ChIJpebHRLqJoDERMeY9u1A3t5M,Thế Giới Di Động,Cửa hàng điện thoại di động,028 3810 2102,"Thế Giới Di Động, Khu Yên Hạ, P, Cái Răng, Cần Thơ","P, Cái Răng",Khu Yên Hạ,Cần Thơ,,"Cái Răng, Cần Thơ",VN,"9.9999016,105.75058659999999"
205,ChIJvWCTB7aJoDERMdTZ1jL0bRU,Quốc Bảo 365 Store,Cửa hàng điện thoại di động,0898 656 565,"Quốc Bảo 365 Store, Đ. Trần Hoàng Na, Hưng Lợi, Ninh Kiều, Cần Thơ","Hưng Lợi, Ninh Kiều",Đ. Trần Hoàng Na,Cần Thơ,,"Ninh Kiều, Cần Thơ",VN,"10.0182679,105.7578485"
214,ChIJ8bZ5gzyJoDERTIlblmmgcKc,Viện Di Động,Cửa hàng điện thoại di động,1800 6729,"Viện Di Động, 24 Nguyễn Trãi, Thới Bình, Ninh Kiều, Cần Thơ 900000","Thới Bình, Ninh Kiều",24 Nguyễn Trãi,Cần Thơ,900000.0,"Ninh Kiều, Cần Thơ",VN,"10.045246299999999,105.78046619999999"
216,ChIJO0iYkaSJoDERDTxOVkOdvjs,ĐTDĐ Hoàng Chung Mobile,Cửa hàng điện thoại di động,0522 096 917,"ĐTDĐ Hoàng Chung Mobile, Nhà Hàng Lúa Nếp, Hẻm 138 Trần Hưng Đạo, bãi cát, Ninh Kiều, Cần Thơ 123456","bãi cát, Ninh Kiều","Nhà Hàng Lúa Nếp, Hẻm 138 Trần Hưng Đạo",Cần Thơ,123456.0,"Ninh Kiều, Cần Thơ",VN,"10.0452739,105.7928357"
222,ChIJ-Sispi5joDERlsUIkr6i4p4,Thế Giới Di Động,Cửa hàng điện thoại di động,028 3810 2102,"Thế Giới Di Động, QL 54, tổ 50, khóm Đông Thuận, P.Đông Thuận, Vĩnh Long","Đông Binh, Bình Minh","QL 54, tổ 50, khóm Đông Thuận, P.Đông Thuận",Vĩnh Long,,"Bình Minh, Vĩnh Long",VN,"10.0458254,105.8358141"
234,ChIJC-p35hSJoDERCgt90J2vpk8,Điện Thoại THANH BÌNH,Cửa hàng điện thoại di động,0918 024 333,"Điện Thoại THANH BÌNH, 185 Huỳnh Cương, An Cư, Ninh Kiều, Cần Thơ","An Cư, Ninh Kiều",185 Huỳnh Cương,Cần Thơ,,"Ninh Kiều, Cần Thơ",VN,"10.0369742,105.7813733"
235,ChIJLar8PjpjoDEROgIvMoIJ0lI,VIP Mobile,Cửa hàng điện thoại di động,0567 402 222,"VIP Mobile, 74 Đ. Xô Viết Nghệ Tĩnh, An Cư, Ninh Kiều, Cần Thơ","An Cư, Ninh Kiều",74 Đ. Xô Viết Nghệ Tĩnh,Cần Thơ,,"Ninh Kiều, Cần Thơ",VN,"10.0363595,105.7855137"
236,ChIJVRnVyJFioDERhZEi1StR09w,Cửa hàng điện thoại di động Hoa An,Cửa hàng điện thoại di động,0907 941 624,"Cửa hàng điện thoại di động Hoa An, 64 QL1A, Hưng Phú, Cái Răng, Cần Thơ","Hưng Phú, Cái Răng",64 QL1A,Cần Thơ,,"Cái Răng, Cần Thơ",VN,"10.0219557,105.79740149999999"
237,ChIJrxD0IMKJoDERdV8ETzSX70c,SUN Apple Store,Cửa hàng điện thoại di động,0888 816 018,"SUN Apple Store, 501A Hẻm 553, Hưng Lợi, Ninh Kiều, Cần Thơ 94000","Hưng Lợi, Ninh Kiều",501A Hẻm 553,Cần Thơ,94000.0,"Ninh Kiều, Cần Thơ",VN,"10.013207099999999,105.7612609"
239,ChIJVQPKWYmJoDERFNDSIQj1Fz8,Cửa Hàng Điện Thoại Di Động BOL GA,Cửa hàng,0855 656 565,"Cửa Hàng Điện Thoại Di Động BOL GA, ĐC:, 10 Đ. Nguyễn Văn Linh, Hưng Lợi, Ninh Kiều, Cần Thơ","Hưng Lợi, Ninh Kiều","ĐC:, 10 Đ. Nguyễn Văn Linh",Cần Thơ,,"Ninh Kiều, Cần Thơ",VN,"10.0262008,105.75838329999999"
253,ChIJh6MFsbSJoDERu7wAr7lcVIY,Cửa Hàng Điện Thoại Di Động Hông Công,Cửa hàng điện thoại di động,0939 613 136,"Cửa Hàng Điện Thoại Di Động Hông Công, 32/1 Đường 3/2 nối dài, An Bình, Ninh Kiều, Cần Thơ","An Bình, Ninh Kiều",32/1 Đường 3/2 nối dài,Cần Thơ,,"Ninh Kiều, Cần Thơ",VN,"10.0118408,105.7536714"
254,ChIJYa2QJ2uIoDERgEoaCZYi_5Y,Cửa Hàng Điện Thoại Di Động Cường Thịnh,Cửa hàng điện thoại di động,0906 737 737,"Cửa Hàng Điện Thoại Di Động Cường Thịnh, 132K, Đường Nguyễn Văn Cừ, Phường An Khánh, Quận Ninh Kiều, Phường An Khánh, Ninh Kiều, Cần Thơ","Phường An Khánh, Ninh Kiều","132K, Đường Nguyễn Văn Cừ, Phường An Khánh, Quận Ninh Kiều",Cần Thơ,,"Ninh Kiều, Cần Thơ",VN,"10.0367672,105.75803959999999"
255,ChIJQV7SqhCIoDERP2xjcXfYgJo,Cửa Hàng Điện Thoại Di Động Bo Bo,Cửa hàng điện thoại di động,0909 566 669,"2QGH+784 Cửa Hàng Điện Thoại Di Động Bo Bo, Chợ, Xuân Khánh, Ninh Kiều, Cần Thơ","Xuân Khánh, Ninh Kiều","2QGH+784, Chợ",Cần Thơ,,"Ninh Kiều, Cần Thơ",VN,"10.025645299999999,105.77831769999999"
294,ChIJvyR4vtGJoDER-AJQLxuT8kw,Di Động Hoàng Giang,Cửa hàng bán đồ điện tử,0984 123 489,"2QP4+6WH Di Động Hoàng Giang, Đ. Trần Nam Phú, Phường An Khánh, Ninh Kiều, Cần Thơ","Phường An Khánh, Ninh Kiều","2QP4+6WH, Đ. Trần Nam Phú",Cần Thơ,,"Ninh Kiều, Cần Thơ",VN,"10.0355559,105.7573714"
296,ChIJL32v-DqIoDERa_qWXl1ii-o,Cửa Hàng Điện Thoại Di Động Phong Nhã,Cửa hàng điện thoại di động,0982 299 405,"Cửa Hàng Điện Thoại Di Động Phong Nhã, 51/47B, Đường 3/2, Quận Ninh Kiều, Tp Cần Thơ, Hưng Lợi, Ninh Kiều, Cần Thơ","Hưng Lợi, Ninh Kiều","51/47B, Đường 3/2, Quận Ninh Kiều, Tp Cần Thơ",Cần Thơ,,"Ninh Kiều, Cần Thơ",VN,"10.0248554,105.7674591"
298,ChIJ8zd4IryJoDERLgkLAB9esvw,Cửa Hàng Điện Thoại Di Động Anh Quý 1,Cửa hàng điện thoại di động,0292 2460 248,"Cửa Hàng Điện Thoại Di Động Anh Quý 1, 63/6, Đường Trần Hưng Đạo, Quận Cái Răng, Lê Bình, Cái Răng, Cần Thơ","Lê Bình, Cái Răng","63/6, Đường Trần Hưng Đạo, Quận Cái Răng",Cần Thơ,,"Cái Răng, Cần Thơ",VN,"9.9947085,105.7520156"
300,ChIJe_5fC8GOoDERhZp2zErJ-ec,Cửa Hàng Điện Thoại Di Động Minh,Cửa hàng điện thoại di động,0787 942 591,"Cửa Hàng Điện Thoại Di Động Minh, 153 Ấp Thị Tứ, Đường Tỉnh Lộ 923, Thị Trấn Phong Điền, Huyện Phong Điền, Thị trấn Phong Điền, Phong Điền, Cần Thơ","Thị trấn Phong Điền, Phong Điền","153 Ấp Thị Tứ, Đường Tỉnh Lộ 923, Thị Trấn Phong Điền, Huyện Phong Điền",Cần Thơ,,"Phong Điền, Cần Thơ",VN,"9.998739299999999,105.6680124"
312,ChIJa9xlyw-IoDERQ04kxKWMVN8,Cửa Hàng Điện Thoại Di Động Hưng Nguyễn,Cửa hàng điện thoại di động,0904 535 158,"Cửa Hàng Điện Thoại Di Động Hưng Nguyễn, 335 Đ. Nguyễn Văn Cừ, An Hoà, Ninh Kiều, Cần Thơ","An Hoà, Ninh Kiều",335 Đ. Nguyễn Văn Cừ,Cần Thơ,,"Ninh Kiều, Cần Thơ",VN,"10.0455407,105.7674464"
313,ChIJSTUxSp9ioDERROEinmH8cAg,Cửa Hàng Điện Thoại Di Động Hoàng,Cửa hàng điện thoại di động,0292 3823 172,"Cửa Hàng Điện Thoại Di Động Hoàng, 156 Đường Hai Bà Trưng, Tân An, Ninh Kiều, Cần Thơ","Tân An, Ninh Kiều",156 Đường Hai Bà Trưng,Cần Thơ,,"Ninh Kiều, Cần Thơ",VN,"10.0308558,105.78799629999999"
314,ChIJFfK0c2yIoDERSdoDU-axl5A,Cửa Hàng Điện Thoại Di Động 8 Đỏ,Cửa hàng điện thoại di động,0907 447 189,"Cửa Hàng Điện Thoại Di Động 8 Đỏ, L60, Đường 17, Chợ An Khánh, Phường An Khánh, Quận Ninh Kiều, Thành Phố Cần Thơ, Phường An Khánh, Ninh Kiều, Cần Thơ","Phường An Khánh, Ninh Kiều","L60, Đường 17, Chợ An Khánh, Phường An Khánh, Quận Ninh Kiều, Thành Phố Cần Thơ",Cần Thơ,,"Ninh Kiều, Cần Thơ",VN,"10.0388328,105.7543188"
315,ChIJyYq9BiiIoDER9DseEj_HRss,Cửa Hàng Điện Thoại Di Động 91,Cửa hàng điện thoại di động,0833 155 665,"Cửa Hàng Điện Thoại Di Động 91, 91, Đường Quang Trung, Quận Cái Răng, Hưng Phú, Cái Răng, Cần Thơ","Hưng Phú, Cái Răng","91, Đường Quang Trung, Quận Cái Răng",Cần Thơ,,"Cái Răng, Cần Thơ",VN,"10.0215186,105.7816093"
316,ChIJfaS0TTSIoDERHI9Nu2fvHwo,Cửa Hàng Điện Thoại Di Động GSM,Cửa hàng điện thoại di động,0292 3514 514,"Cửa Hàng Điện Thoại Di Động GSM, 118/20A, Đường 30/4, Quận Ninh Kiều, Hưng Lợi, Ninh Kiều, Cần Thơ","Hưng Lợi, Ninh Kiều","118/20A, Đường 30/4, Quận Ninh Kiều",Cần Thơ,,"Ninh Kiều, Cần Thơ",VN,"10.0154391,105.76178589999999"
317,ChIJ5-N53EOIoDERenSGR1kHujE,Cửa Hàng Điện Thoại Di Động Thành Đạt,Cửa hàng điện thoại di động,0906 350 180,"Cửa Hàng Điện Thoại Di Động Thành Đạt, 271/91, Quốc Lộ 91B, Quận Bình Thủy, Tp Cần Thơ, Phường An Khánh, Ninh Kiều, Cần Thơ","Phường An Khánh, Ninh Kiều","271/91, Quốc Lộ 91B, Quận Bình Thủy, Tp Cần Thơ",Cần Thơ,,"Ninh Kiều, Cần Thơ",VN,"10.0301551,105.7520905"
320,ChIJL2I2QieIoDER1s_ETD1BQak,Cửa Hàng Điện Thoại Di Động Nguyễn Hữu Phúc,Cửa hàng điện thoại di động,0813 667 253,"Cửa Hàng Điện Thoại Di Động Nguyễn Hữu Phúc, 2 Quang Trung, Khu Vực 6, Ninh Kiều, Cần Thơ","Khu Vực 6, Ninh Kiều",2 Quang Trung,Cần Thơ,,"Ninh Kiều, Cần Thơ",VN,"10.0258862,105.78088729999999"
323,ChIJU3h1nEFjoDERJdOP-uS913c,DUY IPHONE_ CẦN THƠ TTTM CÁI KHẾ ,Cửa hàng điện thoại di động,0939 353 935,"DUY IPHONE_ CẦN THƠ TTTM CÁI KHẾ , Đ. Hồ Tùng Mậu, Cái Khế, Ninh Kiều, Cần Thơ 92000","Cái Khế, Ninh Kiều",Đ. Hồ Tùng Mậu,Cần Thơ,92000.0,"Ninh Kiều, Cần Thơ",VN,"10.046098599999999,105.7831186"
346,ChIJ-T7j7xGIoDERV0r0n701mr4,Van Anh Mobile Store,Cửa hàng,0292 3891 456,"Van Anh Mobile Store, 335 Đ. Nguyễn Văn Cừ, An Hoà, Ninh Kiều, Cần Thơ","An Hoà, Ninh Kiều",335 Đ. Nguyễn Văn Cừ,Cần Thơ,,"Ninh Kiều, Cần Thơ",VN,"10.0455407,105.7674464"
359,ChIJ3ZA7HA6JoDERRw_8xwrC_4Q,Điện Thoại Di Động Vy Mobile,Cửa hàng bán đồ điện tử,0888 574 444,"Điện Thoại Di Động Vy Mobile, Đường Số 4, An Bình, Bình Thủy, Cần Thơ","An Bình, Bình Thủy",Đường Số 4,Cần Thơ,,"Bình Thủy, Cần Thơ",VN,"10.0176237,105.7371517"
360,ChIJq6qqqhWIoDERh10W9-vTKko,Cửa Hàng Điện Thoại Di Động ĐỘC và LẠ 3,Cửa hàng điện thoại di động,0939 397 393,"Cửa Hàng Điện Thoại Di Động ĐỘC và LẠ 3, 107 Nguyễn Văn Cừ Nối Dài, Phường An Khánh, Ninh Kiều, Cần Thơ","Phường An Khánh, Ninh Kiều",107 Nguyễn Văn Cừ Nối Dài,Cần Thơ,,"Ninh Kiều, Cần Thơ",VN,"10.025714899999999,105.7473873"
364,ChIJOYMmEbyJoDER5poJ7QwAFe4,Cửa Hàng Điện Thoại Di Động Quốc Tuấn 2,Cửa hàng điện thoại di động,0292 3914 788,"Cửa Hàng Điện Thoại Di Động Quốc Tuấn 2, 74/4, Đường Trần Hưng Đạo, Quận Cái Răng, Lê Bình, Cái Răng, Cần Thơ","Lê Bình, Cái Răng","74/4, Đường Trần Hưng Đạo, Quận Cái Răng",Cần Thơ,,"Cái Răng, Cần Thơ",VN,"9.9947856,105.75201609999999"
366,ChIJeU-YH7eJoDERpvsH9sYBUzY,Quoc Su Mobile Shop,Cửa hàng điện thoại di động,0292 3525 398,"Quoc Su Mobile Shop, 437, Hau Thanh My Street, Cai Rang District, Can Tho City, Lê Bình, Cái Răng, Cần Thơ","Lê Bình, Cái Răng","437, Hau Thanh My Street, Cai Rang District, Can Tho City",Cần Thơ,,"Cái Răng, Cần Thơ",VN,"10.0040069,105.7542488"
376,ChIJCxLoLrSOoDER9Dc_WpDWdro,Cửa Hàng Điện Thoại Di Động Hồng Vân,Cửa hàng điện thoại di động,0292 3850 424,"Cửa Hàng Điện Thoại Di Động Hồng Vân, 42 Ấp Thị Tứ, Đường Tỉnh Lộ 923, Thị Trấn Phong Điền, Huyện Phong Điền, Thị trấn Phong Điền, Phong Điền, Cần Thơ","Thị trấn Phong Điền, Phong Điền","42 Ấp Thị Tứ, Đường Tỉnh Lộ 923, Thị Trấn Phong Điền, Huyện Phong Điền",Cần Thơ,,"Phong Điền, Cần Thơ",VN,"9.9908782,105.68277529999999"
390,ChIJ-3pSoIKJoDERbGLAoYnhWm0,Cửa Hàng Điện Thoại Di Động Sang IP,Cửa hàng điện thoại di động,0849 794 919,"Cửa Hàng Điện Thoại Di Động Sang IP, 251/40C Đ. Trần Ngọc Quế, Xuân Khánh, Ninh Kiều, Cần Thơ 94115","Xuân Khánh, Ninh Kiều",251/40C Đ. Trần Ngọc Quế,Cần Thơ,94115.0,"Ninh Kiều, Cần Thơ",VN,"10.0205596,105.771874"
406,ChIJNZHQQjGIoDERtEfV40f87G4,Hoang Kim Mobile Phone Store,Cửa hàng,0907 271 102,"Hoang Kim Mobile Phone Store, 156, 30/4 Street, Ninh Kieu District, Can Tho City, Hưng Lợi, Ninh Kiều, Cần Thơ","Hưng Lợi, Ninh Kiều","156, 30/4 Street, Ninh Kieu District, Can Tho City",Cần Thơ,,"Ninh Kiều, Cần Thơ",VN,"10.017863,105.76577359999999"
408,ChIJndGqDN6WoDERvLTE0izUCfM,Điện Thoại Điện Máy Dững,Cửa hàng điện thoại di động,0939 556 797,"Điện Thoại Điện Máy Dững, 68, ẤP ĐÔNG HÒA, XÃ ĐÔNG THUẬN,H, Thới Lai, Cần Thơ 70000","Đông Thuận, Thới Lai","68, ẤP ĐÔNG HÒA, XÃ ĐÔNG THUẬN,H",Cần Thơ,70000.0,"Thới Lai, Cần Thơ",VN,"10.0204086,105.47857169999999"
423,ChIJqWJ3XQaIoDERrMcfmbImZns,Cửa Hàng Điện Thoại Di Động Tây Đô,Cửa hàng điện thoại di động,0292 3766 006,"Cửa Hàng Điện Thoại Di Động Tây Đô, 24/4C, Trần Việt Châu, phường An Hòa, quận Ninh Kiều, Tp. Cần Thơ","Thới Bình, Ninh Kiều","24/4C, Trần Việt Châu, phường An Hòa, quận Ninh Kiều, Tp. Cần Thơ",Cần Thơ,,"Ninh Kiều, Cần Thơ",VN,"10.048559,105.7748026"
424,ChIJlZHbny-JoDER-r-eNTCldcQ,Cửa hàng điện thoại di động Toàn Táo,Cửa hàng điện thoại di động,,"Cửa hàng điện thoại di động Toàn Táo, 14 Đ. Phạm Ngũ Lão, Thới Bình, Ninh Kiều, Cần Thơ","Thới Bình, Ninh Kiều",14 Đ. Phạm Ngũ Lão,Cần Thơ,,"Ninh Kiều, Cần Thơ",VN,"10.0470138,105.77692479999999"
425,ChIJn3pqYwGIoDERHopmFpzQ4lc,Cửa Hàng Điện Thoại Di Động Minh Hiếu,Cửa hàng điện thoại di động,0292 5648 870,"Cửa Hàng Điện Thoại Di Động Minh Hiếu, 88/79, Đường Cách Mạng Tháng 8, Quận Ninh Kiều, Tp Cần Thơ, Cái Khế, Ninh Kiều, Cần Thơ","Cái Khế, Ninh Kiều","88/79, Đường Cách Mạng Tháng 8, Quận Ninh Kiều, Tp Cần Thơ",Cần Thơ,,"Ninh Kiều, Cần Thơ",VN,"10.049324799999999,105.7783048"
426,ChIJ63jaxgOIoDERfVD2A4__Is0,Cửa Hàng Điện Thoại Di Động Đăng Khoa,Cửa hàng điện thoại di động,0292 3769 439,"Cửa Hàng Điện Thoại Di Động Đăng Khoa, 4B, Nguyễn Trãi, Phường Cái Khế, Quận Ninh Kiều, Tp Cần Thơ","An Hội, Ninh Kiều","4B, Nguyễn Trãi, Phường Cái Khế, Quận Ninh Kiều, Tp Cần Thơ",Cần Thơ,,"Ninh Kiều, Cần Thơ",VN,"10.0428102,105.78246109999999"
427,ChIJOR0UAKFioDERfrNXzPvNOi4,Cửa Hàng Điện Thoại Di Động Gertralo,Cửa hàng điện thoại di động,7103815113,"Cửa Hàng Điện Thoại Di Động Gertralo, 49 Đ. Ngô Quyền, Tân An, Ninh Kiều, Cần Thơ 94112","Tân An, Ninh Kiều",49 Đ. Ngô Quyền,Cần Thơ,94112.0,"Ninh Kiều, Cần Thơ",VN,"10.035039399999999,105.78511639999999"
428,ChIJiXGcWahioDERhm-SSocteBM,Cửa Hàng Điện Thoại Di Động Ngọc Ngân,Cửa hàng điện thoại di động,0907 145 558,"Cửa Hàng Điện Thoại Di Động Ngọc Ngân, 15, Trần Văn Khéo, Quận Ninh Kiều, Cái Khế, Ninh Kiều, Cần Thơ","Cái Khế, Ninh Kiều","15, Trần Văn Khéo, Quận Ninh Kiều",Cần Thơ,,"Ninh Kiều, Cần Thơ",VN,"10.045209,105.784697"
429,ChIJCYtFxb-JoDERcnPppepKMmM,Di Động Giá Rẻ,Cửa hàng bán đồ điện tử,0292 3822 326,"Di Động Giá Rẻ, 329 QL91B, Phường An Khánh, Ninh Kiều, Cần Thơ","Phường An Khánh, Ninh Kiều",329 QL91B,Cần Thơ,,"Ninh Kiều, Cần Thơ",VN,"10.026726499999999,105.7569288"
430,ChIJMedkU6BioDER3tTaXNUp2vw,Cửa Hàng Điện Thoại Di Động Chuyên,Cửa hàng điện thoại di động,7103815113,"Cửa Hàng Điện Thoại Di Động Chuyên, 49 Đ. Ngô Quyền, Tân An, Ninh Kiều, Cần Thơ 94112","Tân An, Ninh Kiều",49 Đ. Ngô Quyền,Cần Thơ,94112.0,"Ninh Kiều, Cần Thơ",VN,"10.035039399999999,105.78511639999999"
431,ChIJR5UeS2uIoDERccHNn-QbVTM,Cửa Hàng Điện Thoại Di Động Quỳnh Liên,Cửa hàng điện thoại di động,0903 768 534,"Cửa Hàng Điện Thoại Di Động Quỳnh Liên, 161C Đ. Nguyễn Văn Cừ, Phường An Khánh, Ninh Kiều, Cần Thơ","Phường An Khánh, Ninh Kiều",161C Đ. Nguyễn Văn Cừ,Cần Thơ,,"Ninh Kiều, Cần Thơ",VN,"10.038084099999999,105.7585203"
432,ChIJ-3IzakGIoDERGUY1HTNtg90,Cửa Hàng Điện Di Động Thoại Tùng,Cửa hàng điện thoại di động,0933 570 570,"Cửa Hàng Điện Di Động Thoại Tùng, 337B3, Đường Nguyễn Văn Linh, Quận Ninh Kiều, Thành Phố Cần Thơ, Phường An Khánh, Ninh Kiều, Cần Thơ","Phường An Khánh, Ninh Kiều","337B3, Đường Nguyễn Văn Linh, Quận Ninh Kiều, Thành Phố Cần Thơ",Cần Thơ,,"Ninh Kiều, Cần Thơ",VN,"10.0300459,105.75357029999999"
433,ChIJqZwdX0xjoDER43h9PfVgp70,Điện thoại di động Tuấn Kiệt,Cửa hàng điện thoại di động,0932 972 168,"Điện thoại di động Tuấn Kiệt, 38 Đ. Xô Viết Nghệ Tĩnh, An Hội, Ninh Kiều, Cần Thơ","An Hội, Ninh Kiều",38 Đ. Xô Viết Nghệ Tĩnh,Cần Thơ,,"Ninh Kiều, Cần Thơ",VN,"10.038333999999999,105.784047"
434,ChIJD1qUSZ9ioDERoCsDGd9RYxU,Cửa Hàng Điện Thoại Di Động Nguyễn Hoàng Quốc Trung,Cửa hàng điện thoại di động,0345 204 278,"Cửa Hàng Điện Thoại Di Động Nguyễn Hoàng Quốc Trung, 66, Đường Hai Bà Trưng, Phường Tân An, Quận Ninh Kiều, Tân An, Ninh Kiều, Cần Thơ","Tân An, Ninh Kiều","66, Đường Hai Bà Trưng, Phường Tân An, Quận Ninh Kiều",Cần Thơ,,"Ninh Kiều, Cần Thơ",VN,"10.031096,105.7874793"
435,ChIJ7wZxwZ1ioDERIPzu8K3sgts,Cửa Hàng Điện Thoại Di Động Trần Tâm,Cửa hàng điện thoại di động,0292 3829 154,"Cửa Hàng Điện Thoại Di Động Trần Tâm, 11A1, Đường 30 Tháng 4, phường Xuân Khánh, quận Ninh Kiều, Tp. Cần Thơ, Xuân Khánh, Ninh Kiều, Cần Thơ","Xuân Khánh, Ninh Kiều","11A1, Đường 30 Tháng 4, phường Xuân Khánh, quận Ninh Kiều, Tp. Cần Thơ",Cần Thơ,,"Ninh Kiều, Cần Thơ",VN,"10.0266352,105.7760806"
436,ChIJrX2DriaIoDERX7xhTHzi36s,Cửa Hàng Điện Thoại Di Động Minh Nguyệt,Cửa hàng điện thoại di động,0292 2219 979,"Cửa Hàng Điện Thoại Di Động Minh Nguyệt, 34, 30/4, Quận Ninh Kiều, Xuân Khánh, Ninh Kiều, Cần Thơ","Xuân Khánh, Ninh Kiều","34, 30/4, Quận Ninh Kiều",Cần Thơ,,"Ninh Kiều, Cần Thơ",VN,"10.027016999999999,105.77720289999999"
437,ChIJG3k3q7SJoDERnOgw5OTpz6g,Cửa Hàng Điện Thoại Di Động Minh Hòa,Cửa hàng điện thoại di động,0292 3846 447,"Cửa Hàng Điện Thoại Di Động Minh Hòa, 121A, Đường 3/2 Nối Dài, p. An Bình, Quận Ninh Kiều, Hưng Lợi, Ninh Kiều, Cần Thơ","Hưng Lợi, Ninh Kiều","121A, Đường 3/2 Nối Dài, p. An Bình, Quận Ninh Kiều",Cần Thơ,,"Ninh Kiều, Cần Thơ",VN,"10.0115666,105.75284549999999"
438,ChIJgzoXywmJoDERym9Umz3puzA,Điện Thoại Di Động Nghĩa Trần Mobile,Cửa hàng điện thoại di động,0769 666 665,"Điện Thoại Di Động Nghĩa Trần Mobile, 337b Đ. Nguyễn Văn Linh, Phường An Khánh, Ninh Kiều, Cần Thơ","Phường An Khánh, Ninh Kiều",337b Đ. Nguyễn Văn Linh,Cần Thơ,,"Ninh Kiều, Cần Thơ",VN,"10.0330969,105.7488813"
439,ChIJfdE3kYWJoDER66nc2-zxqtU,PROPHONE - Di động giá rẻ cần thơ,Cửa hàng điện thoại di động,,"PROPHONE - Di động giá rẻ cần thơ, 46 Đ. Nguyễn Việt Hồng, An Lạc, Ninh Kiều, Cần Thơ","An Lạc, Ninh Kiều",46 Đ. Nguyễn Việt Hồng,Cần Thơ,,"Ninh Kiều, Cần Thơ",VN,"10.0315955,105.7800415"
445,ChIJ9bryV6hioDERooU6eqTn2dM,Cửa Hàng Điện Thoại Di Động Hoàng Thông,Cửa hàng,0292 3763 813,"Cửa Hàng Điện Thoại Di Động Hoàng Thông, 1919, Trần Văn Khéo, Quận Ninh Kiều, Tp Cần Thơ, Cái Khế, Ninh Kiều, Cần Thơ","Cái Khế, Ninh Kiều","1919, Trần Văn Khéo, Quận Ninh Kiều, Tp Cần Thơ",Cần Thơ,,"Ninh Kiều, Cần Thơ",VN,"10.0453131,105.784075"
448,ChIJs5wDFCKIoDERV2xijmw82Y8,Cửa Hàng Điện Thoại Di Động Tín Phong,Cửa hàng điện thoại di động,7103833033,"Cửa Hàng Điện Thoại Di Động Tín Phong, C5 Đ. Mậu Thân, An Phú, Ninh Kiều, Cần Thơ","An Phú, Ninh Kiều",C5 Đ. Mậu Thân,Cần Thơ,,"Ninh Kiều, Cần Thơ",VN,"10.031916899999999,105.7751536"
450,ChIJs0zydaFioDERPTVNrtgPVQE,Nguyen Chan Hung Old Mobile Phone Store,Cửa hàng điện thoại di động,0933 983 560,"Nguyen Chan Hung Old Mobile Phone Store, 27, Tran Quoc Toan Street, Tan An Ward, Ninh Kieu District, Tân An, Ninh Kiều, Cần Thơ","Tân An, Ninh Kiều","27, Tran Quoc Toan Street, Tan An Ward, Ninh Kieu District",Cần Thơ,,"Ninh Kiều, Cần Thơ",VN,"10.035129,105.7867603"
451,ChIJnRTEZX1ioDERxtyf0Y4ob0c,Cửa Hàng Điện Thoại Di Động Chăm,Cửa hàng điện thoại di động,0939 144 144,"Cửa Hàng Điện Thoại Di Động Chăm, DD 20Khu Dân Cư Hưng Phú, Quận Cái Răng, Tp Cần Thơ, Hưng Phú, Cái Răng, Cần Thơ","Hưng Phú, Cái Răng","DD 20Khu Dân Cư Hưng Phú, Quận Cái Răng, Tp Cần Thơ",Cần Thơ,,"Cái Răng, Cần Thơ",VN,"10.009896699999999,105.79190899999999"
457,ChIJ--qsZqBioDERnPpiwNzhg9w,Mai Phat Mobile Store,Cửa hàng điện thoại di động,0292 3813 839,"Mai Phat Mobile Store, 16/47, Nguyen Khuyen Street, Ninh Kieu District, Can Tho City, Tân An, Ninh Kiều, Cần Thơ","Tân An, Ninh Kiều","16/47, Nguyen Khuyen Street, Ninh Kieu District, Can Tho City",Cần Thơ,,"Ninh Kiều, Cần Thơ",VN,"10.0349255,105.78319719999999"
458,ChIJuQ7G6hmIoDERWPpq_aazR74,Huu Giang Mobile Store,Cửa hàng điện thoại di động,0292 2202 068,"Huu Giang Mobile Store, 114 Đ. Mậu Thân, An Nghiệp, Ninh Kiều, Cần Thơ 900000","An Nghiệp, Ninh Kiều",114 Đ. Mậu Thân,Cần Thơ,900000.0,"Ninh Kiều, Cần Thơ",VN,"10.0373588,105.7717696"
499,ChIJDyJ5vqdioDERDkH9x7Et1eg,Phuc Vinh Mobile Store,Cửa hàng,0292 3824 299,"Phuc Vinh Mobile Store, 49A Nguyễn Trãi, An Hội, Ninh Kiều, Cần Thơ","An Hội, Ninh Kiều",49A Nguyễn Trãi,Cần Thơ,,"Ninh Kiều, Cần Thơ",VN,"10.0433497,105.78223159999999"
511,ChIJP4o4LgOIoDERASU393tIef0,Cửa Hàng Đtdđ Akah,Cửa hàng điện thoại di động,,"Cửa Hàng Đtdđ Akah, 54 Hùng Vương, An Hội, Ninh Kiều, Cần Thơ","An Hội, Ninh Kiều",54 Hùng Vương,Cần Thơ,,"Ninh Kiều, Cần Thơ",VN,"10.044075999999999,105.7781179"
517,ChIJUYNKaRyIoDERNL3mEF2fDpw,Minh Huy Mobile Store,Cửa hàng,0292 3833 618,"Minh Huy Mobile Store, An Nghiệp, Ninh Kiều, Cần Thơ","An Nghiệp, Ninh Kiều",,Cần Thơ,,"Ninh Kiều, Cần Thơ",VN,"10.0388903,105.7766814"
524,ChIJA0ea06FioDER3kmPe0nPo9k,Thanh Hung Mobile Store,Cửa hàng,0292 3828 130,"Thanh Hung Mobile Store, 66 Nguyễn Thái Học, Tân An, Ninh Kiều, Cần Thơ","Tân An, Ninh Kiều",66 Nguyễn Thái Học,Cần Thơ,,"Ninh Kiều, Cần Thơ",VN,"10.0328083,105.7852269"
531,ChIJ9TUpXUGIoDERuRdosweUp6Q,Cửa Hàng Điện Thoại Di Dộng V&D,Cửa hàng điện thoại di động,0988 721 464,"Cửa Hàng Điện Thoại Di Dộng V&D, 337A, Quốc Lộ 91B, Quận Ninh Kiều, Thành Phố Cần Thơ, Phường An Khánh, Ninh Kiều, Cần Thơ","Phường An Khánh, Ninh Kiều","337A, Quốc Lộ 91B, Quận Ninh Kiều, Thành Phố Cần Thơ",Cần Thơ,,"Ninh Kiều, Cần Thơ",VN,"10.0297883,105.7534269"
535,ChIJt2bf1EOIoDERxBTC2lBUAyY,cửa hàng điện thoại di động CSM,Cửa hàng điện thoại di động,,"cửa hàng điện thoại di động CSM, 380 Đ. Nguyễn Văn Cừ, Phường An Khánh, Ninh Kiều, Cần Thơ","Phường An Khánh, Ninh Kiều",380 Đ. Nguyễn Văn Cừ,Cần Thơ,,"Ninh Kiều, Cần Thơ",VN,"10.0309326,105.7520923"
540,ChIJhf1MRbOJoDERYRLWpqICwhk,Cửa Hàng Điện Thoại Di Động Hiền,Cửa hàng điện thoại di động,0292 2463 378,"Cửa Hàng Điện Thoại Di Động Hiền, 85/5, Quốc Lộ 1A, TP Cần Thơ, Quận Cái Răng, An Bình, Ninh Kiều, Cần Thơ","An Bình, Ninh Kiều","85/5, Quốc Lộ 1A, TP Cần Thơ, Quận Cái Răng",Cần Thơ,,"Ninh Kiều, Cần Thơ",VN,"10.0115651,105.7528433"
541,ChIJv0oRJgCJoDERtJDWdb19teg,Cửa hàng điện thoại di động Nguyễn Trung,Cửa hàng điện thoại di động,,"Cửa hàng điện thoại di động Nguyễn Trung, 274 Đ. Bùi Hữu Nghĩa, Long Tuyền, Bình Thủy, Cần Thơ","Long Tuyền, Bình Thủy",274 Đ. Bùi Hữu Nghĩa,Cần Thơ,,"Bình Thủy, Cần Thơ",VN,"10.0502522,105.7234683"
547,ChIJGQgePwqJoDERwO_cSOhOJ1U,[30k/c] Ốp Lưng Điện Thoại Xinh - Có tất cả các hãng,Cửa hàng điện thoại di động,0789 667 678,"[30k/c] Ốp Lưng Điện Thoại Xinh - Có tất cả các hãng, 60 Đường số 6, Phường An Khánh, Ninh Kiều, Cần Thơ","Phường An Khánh, Ninh Kiều",60 Đường số 6,Cần Thơ,,"Ninh Kiều, Cần Thơ",VN,"10.0438039,105.7572234"
549,ChIJyco7zEOIoDERKxOobTQiZx8,Cửa Hàng Điện Thoại Di Động Thế Kỷ,Cửa hàng điện thoại di động,0292 3740 960,"Cửa Hàng Điện Thoại Di Động Thế Kỷ, 1L, Quốc Lộ 91B, phường Hưng Lợi, quận Ninh Kiều, Tp. Cần Thơ, Phường An Khánh, Ninh Kiều, Cần Thơ","Phường An Khánh, Ninh Kiều","1L, Quốc Lộ 91B, phường Hưng Lợi, quận Ninh Kiều, Tp. Cần Thơ",Cần Thơ,,"Ninh Kiều, Cần Thơ",VN,"10.0310884,105.7517384"
558,ChIJKftZFEeIoDERqH6voLOdLjY,Trung Tâm ĐTDĐ Didonggiare,Cửa hàng điện thoại di động,0763 808 288,"Trung Tâm ĐTDĐ Didonggiare, 1 Đ. Nguyễn Văn Linh, Phường An Khánh, Ninh Kiều, Cần Thơ","Phường An Khánh, Ninh Kiều",1 Đ. Nguyễn Văn Linh,Cần Thơ,,"Ninh Kiều, Cần Thơ",VN,"10.026845,105.75692"
572,ChIJF_kpTbKJoDERqiVlRmFumAM,Điện Thoại Di Động VI Phúc,Cửa hàng điện thoại di động,,"2P5X+HVQ Điện Thoại Di Động VI Phúc, ĐT923, An Bình, Ninh Kiều, Cần Thơ","An Bình, Ninh Kiều","2P5X+HVQ, ĐT923",Cần Thơ,,"Ninh Kiều, Cần Thơ",VN,"10.0089586,105.7497492"
575,ChIJSfrVtrSJoDERlMVALFP2zZg,Cửa Hàng Điện Thoại Di Động Thịnh,Cửa hàng điện thoại di động,0292 3832 873,"Cửa Hàng Điện Thoại Di Động Thịnh, 166/4, Quốc Lộ 1A, P. Lê Bình, Quận Cái Răng, Hưng Lợi, Ninh Kiều, Cần Thơ","Hưng Lợi, Ninh Kiều","166/4, Quốc Lộ 1A, P. Lê Bình, Quận Cái Răng",Cần Thơ,,"Ninh Kiều, Cần Thơ",VN,"10.0117985,105.7538431"
578,ChIJQ76D2uWIoDERDA1koiIRyMM,Điện Thoại Di Động Minh Điền,Cửa hàng điện thoại di động,0907 300 060,"Điện Thoại Di Động Minh Điền, Long Tuyền, Bình Thủy, Cần Thơ","Long Tuyền, Bình Thủy",,Cần Thơ,,"Bình Thủy, Cần Thơ",VN,"10.022862199999999,105.7180298"
579,ChIJhSxNT7WJoDERY34-SVLzuvM,Cửa Hàng Điện Thoại Di Động Trung Nguyên,Cửa hàng điện thoại di động,0292 3911 679,"Cửa Hàng Điện Thoại Di Động Trung Nguyên, 422, Quốc Lộ 1A, Quận Cái Răng, Hưng Lợi, Ninh Kiều, Cần Thơ","Hưng Lợi, Ninh Kiều","422, Quốc Lộ 1A, Quận Cái Răng",Cần Thơ,,"Ninh Kiều, Cần Thơ",VN,"10.0115324,105.75752159999999"
581,ChIJXTW4ILqJoDERgsLLJkaZjSo,Cửa Hàng Điện Thoại Di Động Cô Minh,Cửa hàng điện thoại di động,0292 3915 339,"Cửa Hàng Điện Thoại Di Động Cô Minh, 266E, Đường Trần Hưng Đạo, Quận Cái Răng, Lê Bình, Cái Răng, Cần Thơ","Lê Bình, Cái Răng","266E, Đường Trần Hưng Đạo, Quận Cái Răng",Cần Thơ,,"Cái Răng, Cần Thơ",VN,"9.9998805,105.7526415"
582,ChIJ3dKqerOJoDERrZpqDbI1oV8,Cửa Hàng Điện Thoại Di Động Bích Trân,Cửa hàng điện thoại di động,0977 988 667,"Cửa Hàng Điện Thoại Di Động Bích Trân, 108A, Quốc Lộ 1A, P. An Bình, Quận Ninh Kiều, An Bình, Ninh Kiều, Cần Thơ","An Bình, Ninh Kiều","108A, Quốc Lộ 1A, P. An Bình, Quận Ninh Kiều",Cần Thơ,,"Ninh Kiều, Cần Thơ",VN,"10.0106521,105.7513737"
585,ChIJ_d-pHryJoDER8jphtmq037s,Cửa Hàng Điện Thoại Di Động Lâm,Cửa hàng điện thoại di động,0292 3848 589,"Cửa Hàng Điện Thoại Di Động Lâm, 69/2, Đường Trần Hưng Đạo, Quận Cái Răng, Lê Bình, Cái Răng, Cần Thơ","Lê Bình, Cái Răng","69/2, Đường Trần Hưng Đạo, Quận Cái Răng",Cần Thơ,,"Cái Răng, Cần Thơ",VN,"9.9951163,105.7523847"
593,ChIJI2yoAbeJoDERhg63rh5vMdc,Ngoc Bich Mobile Shop,Cửa hàng điện thoại di động,0909 363 650,"Ngoc Bich Mobile Shop, 80, Hau Thanh My Street, Cai Rang District, Can Tho City, Lê Bình, Cái Răng, Cần Thơ","Lê Bình, Cái Răng","80, Hau Thanh My Street, Cai Rang District, Can Tho City",Cần Thơ,,"Cái Răng, Cần Thơ",VN,"10.0039377,105.755431"
625,ChIJU2Qai6-JoDER4QpmEqUeeOA,Điện Thoại Di Động Thái Bửu,Cửa hàng,,"2P2W+R4J Điện Thoại Di Động Thái Bửu, Võ Tánh, Lê Bình, Cái Răng, Cần Thơ","Lê Bình, Cái Răng","2P2W+R4J, Võ Tánh",Cần Thơ,,"Cái Răng, Cần Thơ",VN,"10.0020902,105.7452625"
637,ChIJz0oRBGiIoDERNxLPSY90M9M,Điện Thoại Di Động Quốc Tuấn,Cửa hàng,,"Điện Thoại Di Động Quốc Tuấn, An Khánh, Ninh Kiều, Cần Thơ","An Khánh, Ninh Kiều",,Cần Thơ,,"Ninh Kiều, Cần Thơ",VN,"10.034735399999999,105.7473024"
650,ChIJGUSym0qIoDERU585Gy3MNOI,Dung Nga Mobile Store,Cửa hàng,0292 3739 197,"Dung Nga Mobile Store, 56A, Street 3/2, Hung Loi Ward, Ninh Kieu District, Can Tho City, Hưng Lợi, Ninh Kiều, Cần Thơ","Hưng Lợi, Ninh Kiều","56A, Street 3/2, Hung Loi Ward, Ninh Kieu District, Can Tho City",Cần Thơ,,"Ninh Kiều, Cần Thơ",VN,"10.013914699999999,105.7580562"
653,ChIJSVAZ-TSJoDERt9TaSfXN2To,Điện Thoại Di Động Thành Lợi,Cửa hàng bán đồ điện tử,0845 165 165,"2Q96+PF6 Điện Thoại Di Động Thành Lợi, Hưng Lợi, Ninh Kiều, Cần Thơ","Hưng Lợi, Ninh Kiều",2Q96+PF6,Cần Thơ,,"Ninh Kiều, Cần Thơ",VN,"10.0192768,105.7611488"
655,ChIJFeNYSzeIoDERaEHlvFiWpSA,Cửa Hàng Đtdđ Q - D,Cửa hàng điện thoại di động,0919 149 149,"Cửa Hàng Đtdđ Q - D, 1 Đ. Nguyễn Văn Linh, Hưng Lợi, Ninh Kiều, Cần Thơ","Hưng Lợi, Ninh Kiều",1 Đ. Nguyễn Văn Linh,Cần Thơ,,"Ninh Kiều, Cần Thơ",VN,"10.021600699999999,105.7642733"
658,ChIJBa1KWzqIoDER0J-LgKhBwDc,Cửa Hàng Điện Thoại Di Động Đặng Huỳnh,Cửa hàng điện thoại di động,0292 3893 845,"Cửa Hàng Điện Thoại Di Động Đặng Huỳnh, 171C, Đường 3/2, Quận Ninh Kiều, TP Cần Thơ, Hưng Lợi, Ninh Kiều, Cần Thơ","Hưng Lợi, Ninh Kiều","171C, Đường 3/2, Quận Ninh Kiều, TP Cần Thơ",Cần Thơ,,"Ninh Kiều, Cần Thơ",VN,"10.0242319,105.7666046"
660,ChIJ3Q1NWjeIoDERPUGtR20TbCg,Cửa Hàng Đtdđ Hiện Đại 2,Cửa hàng điện thoại di động,0292 6744 474,"Cửa Hàng Đtdđ Hiện Đại 2, 9c QL91B, Hưng Lợi, Ninh Kiều, Cần Thơ","Hưng Lợi, Ninh Kiều",9c QL91B,Cần Thơ,,"Ninh Kiều, Cần Thơ",VN,"10.022496499999999,105.76350959999999"
661,ChIJR9d2r-WJoDERJnGmc_hKJB0,CỬA HÀNG ĐIỆN THOẠI DI ĐỘNG THIÊN VŨ MOBILE,Cửa hàng bán đồ điện tử,0914 415 795,"CỬA HÀNG ĐIỆN THOẠI DI ĐỘNG THIÊN VŨ MOBILE, 86 Ngô Sĩ Liên, kdc metro, Ninh Kiều, Cần Thơ","kdc metro, Ninh Kiều",86 Ngô Sĩ Liên,Cần Thơ,,"Ninh Kiều, Cần Thơ",VN,"10.020743,105.760522"
671,ChIJC_tTBDuIoDERSzfGCYO3qQQ,Cửa Hàng Điện Thoại Di Động Hương Lan,Cửa hàng,0918 579 697,"Cửa Hàng Điện Thoại Di Động Hương Lan, 51A2, Đường 3/2, Quận Ninh Kiều, Tp Cần Thơ, Xuân Khánh, Ninh Kiều, Cần Thơ","Xuân Khánh, Ninh Kiều","51A2, Đường 3/2, Quận Ninh Kiều, Tp Cần Thơ",Cần Thơ,,"Ninh Kiều, Cần Thơ",VN,"10.0256601,105.76791929999999"
682,ChIJdVVdy8eJoDERH_50LQNEt94,Phụ Kiện 102,Cửa hàng điện thoại di động,0939 977 285,"Phụ Kiện 102, 102 Đ. Trần Hoàng Na, Khu dân cư 91B, Ninh Kiều, Cần Thơ","Khu dân cư 91B, Ninh Kiều",102 Đ. Trần Hoàng Na,Cần Thơ,,"Ninh Kiều, Cần Thơ",VN,"10.022057499999999,105.75374219999999"
687,ChIJ6RzJpiaIoDERUmFy8D_G9MA,Cửa Hàng Đtdđ At,Cửa hàng điện thoại di động,0292 3753 646,"Cửa Hàng Đtdđ At, 185 Đ. 30 Tháng 4, Xuân Khánh, Ninh Kiều, Cần Thơ","Xuân Khánh, Ninh Kiều",185 Đ. 30 Tháng 4,Cần Thơ,,"Ninh Kiều, Cần Thơ",VN,"10.0264239,105.7765017"
689,ChIJZRVWjV2JoDERWjLjw9pJ5B0,Phụ kiện Út Sữa,Cửa hàng điện thoại di động,0909 983 565,"Phụ kiện Út Sữa, 58 Hẻm 112 Đ. 3 Tháng 2, Hưng Lợi, Ninh Kiều, Cần Thơ","Hưng Lợi, Ninh Kiều",58 Hẻm 112 Đ. 3 Tháng 2,Cần Thơ,,"Ninh Kiều, Cần Thơ",VN,"10.0182583,105.7577326"
717,ChIJgcWY_O2JoDERf5eWnwIUvOc,Gia Bảo Mobifone,Cửa hàng điện thoại di động,,"Gia Bảo Mobifone, 191 Đ. 30 Tháng 4, Hưng Lợi, Ninh Kiều, Cần Thơ","Hưng Lợi, Ninh Kiều",191 Đ. 30 Tháng 4,Cần Thơ,,"Ninh Kiều, Cần Thơ",VN,"10.016589999999999,105.7650353"
720,ChIJiVai_MyJoDERL4BbKhSTXFI,Anh Kieu Mobile Phone Store,Cửa hàng điện thoại di động,0939 089 288,"Anh Kieu Mobile Phone Store, 144B Tầm Vu, Hưng Lợi, Ninh Kiều, Cần Thơ","Hưng Lợi, Ninh Kiều",144B Tầm Vu,Cần Thơ,,"Ninh Kiều, Cần Thơ",VN,"10.0096293,105.7672137"
722,ChIJK7E8QjGIoDER2qN_UWGGHrs,Hoang Chau Mobile Store,Cửa hàng,0919 334 244,"Hoang Chau Mobile Store, 176, 30/4 Street, Ninh Kieu District, Can Tho City, Hưng Lợi, Ninh Kiều, Cần Thơ","Hưng Lợi, Ninh Kiều","176, 30/4 Street, Ninh Kieu District, Can Tho City",Cần Thơ,,"Ninh Kiều, Cần Thơ",VN,"10.018116599999999,105.7658165"
726,ChIJaTNLTDeIoDERjGToEwUqPmY,Truong Giang Mobile Store,Cửa hàng,0292 6290 118,"Truong Giang Mobile Store, 328/7, 91B Highway, An Khanh Ward, Binh Thuy District, Can Tho City, Phường An Khánh, Ninh Kiều, Cần Thơ","Phường An Khánh, Ninh Kiều","328/7, 91B Highway, An Khanh Ward, Binh Thuy District, Can Tho City",Cần Thơ,,"Ninh Kiều, Cần Thơ",VN,"10.0280297,105.75548119999999"
730,ChIJfwVGDSKIoDERJOwcDxiT0Ew,Cửa Hàng Điện Thoại Di Động Lạc Việt,Cửa hàng,,"Cửa Hàng Điện Thoại Di Động Lạc Việt, 123 Đ. Mậu Thân, An Phú, Ninh Kiều, Cần Thơ","An Phú, Ninh Kiều",123 Đ. Mậu Thân,Cần Thơ,,"Ninh Kiều, Cần Thơ",VN,"10.032172,105.7745798"
779,ChIJtVj8FiKIoDERmKon9AVM0b0,Hoang Lan Mobile Store,Cửa hàng,0292 3834 430,"Hoang Lan Mobile Store, 142C Đ. Mậu Thân, An Phú, Ninh Kiều, Cần Thơ","An Phú, Ninh Kiều",142C Đ. Mậu Thân,Cần Thơ,,"Ninh Kiều, Cần Thơ",VN,"10.0318984,105.7753333"
