,place_id,name,main_category,phone,address,address_ward,address_street,address_city,address_postal_code,address_state,address_country_code
0,ChIJoWjOraFioDERMFNgcvEgUdo,Siêu thị Điện máy XANH,Cửa hàng bán đồ điện tử,1900 232461,"Siêu thị Điện máy XANH, Số 08 Hòa Bình, P, Ninh Kiều, 94000","P, Ninh Kiều",Số 08 Hòa Bình,Cần Thơ,94000.0,"Ninh Kiều, Cần Thơ",VN
3,ChIJOa1v3x8vdTER-ZWEndbA5_U,Hoa Tuơi Sài Gòn- Hoa Tươi 360,Cửa hàng bán buôn hoa,0977 301 303,"Hoa Tuơi Sài Gòn- Hoa Tươi 360, VN, 413 Đ. Lê Văn Sỹ, Phường 2, Tân Bình, Thành phố Hồ Chí Minh 700000","Phường 2, Tân Bình","VN, 413 Đ. Lê Văn Sỹ",Thành phố Hồ Chí Minh,700000.0,"Tân Bình, Thành phố Hồ Chí Minh",VN
11,ChIJ3U_axUqIoDERNApC7iWjlPA,HEAD Hoá 1 Cần Thơ-ĐL Honda Ủy Nhiệm,Đại lý xe Honda,0292 3832 979,"HEAD Hoá 1 Cần Thơ-ĐL Honda Ủy Nhiệm, 29A Đ. 3 Tháng 2, Hưng Lợi, Ninh Kiều, Cần Thơ","Hưng Lợi, Ninh Kiều",29A Đ. 3 Tháng 2,Cần Thơ,,"Ninh Kiều, Cần Thơ",VN
12,ChIJ7-AIkzOJoDER1uXhPFdyMJg,Siêu thị Bách hóa XANH,Siêu thị,1900 1908,"Siêu thị Bách hóa XANH, 6 Đ. Trần Hoàng Na, P, Ninh Kiều, Cần Thơ 700000","P, Ninh Kiều",6 Đ. Trần Hoàng Na,Cần Thơ,700000.0,"Ninh Kiều, Cần Thơ",VN
13,ChIJxVXN2ICrNTERpFoO7nCsB44,Hoa Việt Pháp (.hoa.vn),Cửa hàng hoa,024 3991 1088,"Hoa Việt Pháp (.hoa.vn), 15 Ng. 65 P. Phạm Ngọc Thạch, Kim Liên, Đống Đa, Hà Nội 10000","Kim Liên, Đống Đa",15 Ng. 65 P. Phạm Ngọc Thạch,Hà Nội,10000.0,"Đống Đa, Hà Nội",VN
14,ChIJXyAfQzSJoDERrt9EZjLCPQo,Bách hoá XANH,Siêu thị,1900 1908,"Bách hoá XANH, 148 Đ. Nguyễn Tri Phương, P, Ninh Kiều, Cần Thơ 700000","P, Ninh Kiều",148 Đ. Nguyễn Tri Phương,Cần Thơ,700000.0,"Ninh Kiều, Cần Thơ",VN
15,ChIJXz9FNaBioDERkMVxaGUNOnU,Nhà sách FAHASA Hòa Bình,Hiệu sách,0292 3815 253,"Nhà sách FAHASA Hòa Bình, 01 Hoà Bình P, Ninh Kiều","Tân An, Ninh Kiều",01 Hoà Bình P,Cần Thơ,,"Ninh Kiều, Cần Thơ",VN
16,ChIJHXAW992JoDERk2zB83v-F4w,Bách hoá XANH,Siêu thị,1900 1908,"Bách hoá XANH, 8 Đ. Đồng Văn Cống, KV5, Bình Thủy, Cần Thơ","KV5, Bình Thủy",8 Đ. Đồng Văn Cống,Cần Thơ,,"Bình Thủy, Cần Thơ",VN
17,ChIJ2XpKGxSJoDERvRkzqeb4rHs,Siêu thị Bách hoá XANH 48 Nguyễn Đệ,Siêu thị,1900 1908,"Siêu thị Bách hoá XANH 48 Nguyễn Đệ, 48A Nguyễn Đệ, Khu Vực IV, P, Bình Thủy, Cần Thơ","P, Bình Thủy","48A Nguyễn Đệ, Khu Vực IV",Cần Thơ,,"Bình Thủy, Cần Thơ",VN
18,ChIJTQMY8J9ioDERiqJpBP62QrA,In Ấn Hải Lưu - In Quảng Cáo Giá Rẻ - CN Hòa Bình,Cửa hàng in ấn,0899 909 997,"In Ấn Hải Lưu - In Quảng Cáo Giá Rẻ - CN Hòa Bình, 19A Đại lộ Hoà Bình, Tân An, Ninh Kiều, Cần Thơ 94000","Tân An, Ninh Kiều",19A Đại lộ Hoà Bình,Cần Thơ,94000.0,"Ninh Kiều, Cần Thơ",VN
19,ChIJL7EmCU2JoDERzqPk3zV0Eso,Siêu thị Bách hoá XANH 141A Nguyễn Văn Cừ nối dài,Siêu thị,1900 1908,"Siêu thị Bách hoá XANH 141A Nguyễn Văn Cừ nối dài, 141A Nguyễn Văn Cừ Nối Dài, P, Ninh Kiều, Cần Thơ","P, Ninh Kiều",141A Nguyễn Văn Cừ Nối Dài,Cần Thơ,,"Ninh Kiều, Cần Thơ",VN
20,ChIJY1DpHbmJoDER1VvEI9OMRWI,Siêu thị Bách hóa XANH 390A Trần Nam Phú,Siêu thị,1900 1908,"Siêu thị Bách hóa XANH 390A Trần Nam Phú, 390A Đ. Trần Nam Phú, Phường An Khánh, Ninh Kiều, Cần Thơ","Phường An Khánh, Ninh Kiều",390A Đ. Trần Nam Phú,Cần Thơ,,"Ninh Kiều, Cần Thơ",VN
22,ChIJ76ktcFCJoDEROA6ArFc0xeY,Siêu thị Bách hóa XANH Mậu Thân,Cửa hàng tạp phẩm,1900 1908,"Siêu thị Bách hóa XANH Mậu Thân, Đ. Mậu Thân, An Nghiệp, Ninh Kiều, Cần Thơ","An Nghiệp, Ninh Kiều",Đ. Mậu Thân,Cần Thơ,,"Ninh Kiều, Cần Thơ",VN
23,ChIJoR6ESzeIoDERKtWGHz06ffs,Shop Hoa Tươi Đà Lạt,Cửa hàng hoa,0902 641 567,"Shop Hoa Tươi Đà Lạt, 266 Đ. 30 Tháng 4, Xuân Khánh, Ninh Kiều, Cần Thơ","Xuân Khánh, Ninh Kiều",266 Đ. 30 Tháng 4,Cần Thơ,,"Ninh Kiều, Cần Thơ",VN
37,ChIJF-6D7qFioDERsfNSFHaupFs,Tạp Hóa Cô 6 Cô 7,Cửa hàng tạp phẩm,,"Tạp Hóa Cô 6 Cô 7, 27 Phan Đình Phùng, Tân An, Ninh Kiều, Cần Thơ","Tân An, Ninh Kiều",27 Phan Đình Phùng,Cần Thơ,,"Ninh Kiều, Cần Thơ",VN
39,ChIJQdLQEz9joDER488Pt_7Q1rc,Thiều Hoa,Cửa hàng quần áo nữ,1800 9246,"Thiều Hoa, 19 Nguyễn Trãi, Tân An, Ninh Kiều, Cần Thơ","Tân An, Ninh Kiều",19 Nguyễn Trãi,Cần Thơ,,"Ninh Kiều, Cần Thơ",VN
41,ChIJiyrrPPuJoDER61WHc_xqnng,Siêu thị Bách hoá XANH 116A/3 Trần Vĩnh Kiết,Siêu thị,1900 1908,"Siêu thị Bách hoá XANH 116A/3 Trần Vĩnh Kiết, 3 Đ. Trần Vĩnh Kiết, An Bình, Ninh Kiều, Cần Thơ","An Bình, Ninh Kiều",3 Đ. Trần Vĩnh Kiết,Cần Thơ,,"Ninh Kiều, Cần Thơ",VN
42,ChIJSazgD8-JoDERWK2bLCsnIqc,Siêu thị Bách hoá XANH 36/46 Trần Việt Châu (Chợ An Hòa),Siêu thị,1900 1908,"Siêu thị Bách hoá XANH 36/46 Trần Việt Châu (Chợ An Hòa), 38 Đ. Trần Việt Châu, An Hoà, Ninh Kiều, Cần Thơ","An Hoà, Ninh Kiều",38 Đ. Trần Việt Châu,Cần Thơ,,"Ninh Kiều, Cần Thơ",VN
46,ChIJJVaI-adioDERC_traOfSSuw,Thế Giới Nước Hoa - Nguyễn Trãi,Cửa hàng nước hoa,0901 320 877,"Thế Giới Nước Hoa - Nguyễn Trãi, 171 Nguyễn Trãi, An Hội, Ninh Kiều, Cần Thơ","An Hội, Ninh Kiều",171 Nguyễn Trãi,Cần Thơ,,"Ninh Kiều, Cần Thơ",VN
48,ChIJ7z0oPp9ioDERJkftDitvnoQ,Tiệm Chè Hữu Hòa,Cửa hàng bánh,0292 3821 698,"Tiệm Chè Hữu Hòa, 62 Phan Đình Phùng, Tân An, Ninh Kiều, Cần Thơ","Tân An, Ninh Kiều",62 Phan Đình Phùng,Cần Thơ,,"Ninh Kiều, Cần Thơ",VN
49,ChIJ90FX_3KJoDERLAjs-zk-mbg,Siêu thị Bách Hoá XANH Đinh Tiên Hoàng,Cửa hàng tiện lợi,1900 1908,"Siêu thị Bách Hoá XANH Đinh Tiên Hoàng, Thửa số 165, 216, 753, tờ bản đồ 12, Đường, Đ. Đinh Tiên Hoàng, An Hội, Ninh Kiều, Cần Thơ","An Hội, Ninh Kiều","Thửa số 165, 216, 753, tờ bản đồ 12, Đường, Đ. Đinh Tiên Hoàng",Cần Thơ,,"Ninh Kiều, Cần Thơ",VN
52,ChIJuXvsy26JoDERJLlelnJPnZ8,Hoa Nắng Coffee - Mậu Thân,Quán cà phê,0907 579 767,"Hoa Nắng Coffee - Mậu Thân, 94 Đ. Mậu Thân, An Hoà, Ninh Kiều, Cần Thơ","An Hoà, Ninh Kiều",94 Đ. Mậu Thân,Cần Thơ,,"Ninh Kiều, Cần Thơ",VN
53,ChIJh7T9qx6IoDER8CTGtHaFpgE,Hoa vải Minh Vi,Cửa hàng hoa,0936 830 430,"Hoa vải Minh Vi, vào hẻm 100m, Hẻm 65/42 Đường Trần Hưng Đạo P. An Cư, Q. Ninh Kiều, TP. Cần Thơ Hẻm 140 Lý tự trọng, 42 Đ. Trần Hưng Đạo, An Cư, Ninh Kiều, Cần Thơ","An Cư, Ninh Kiều","vào hẻm 100m, Hẻm 65/42 Đường Trần Hưng Đạo P. An Cư, Q. Ninh Kiều, TP. Cần Thơ Hẻm 140 Lý tự trọng, 42 Đ. Trần Hưng Đạo",Cần Thơ,,"Ninh Kiều, Cần Thơ",VN
58,ChIJtSu0HRqJoDERRsS7d8IcMQA,Tiệm giặt nhà Hoà,Cửa hàng giặt là,,"Tiệm giặt nhà Hoà, 233/15 Đ. Nguyễn Văn Cừ, An Hoà, Ninh Kiều, Cần Thơ 900000","An Hoà, Ninh Kiều",233/15 Đ. Nguyễn Văn Cừ,Cần Thơ,900000.0,"Ninh Kiều, Cần Thơ",VN
59,ChIJ8QThyaiJoDERuHt30kcyhMw,Tiệm hoa Hạnh Phúc ( HiMy 2Hand),Cửa hàng,0947 303 089,"Tiệm hoa Hạnh Phúc ( HiMy 2Hand), 3a Hẻm 216 Tầm Vu, Hưng Lợi, Ninh Kiều, Cần Thơ","Hưng Lợi, Ninh Kiều",3a Hẻm 216 Tầm Vu,Cần Thơ,,"Ninh Kiều, Cần Thơ",VN
62,ChIJwQW0DxyIoDERULV2pdGqgsc,Hoa Tươi Cần Thơ - Tiệm Hoa Happy,Cửa hàng hoa,0913 540 545,"Hoa Tươi Cần Thơ - Tiệm Hoa Happy, 46 Đ. Trần Hưng Đạo, An Nghiệp, Ninh Kiều, Cần Thơ","An Nghiệp, Ninh Kiều",46 Đ. Trần Hưng Đạo,Cần Thơ,,"Ninh Kiều, Cần Thơ",VN
75,ChIJlQ-g0gKJoDERQub5KEYgOrY,Tạp Hoá Cô Út Cần Thơ,Cửa hàng tạp hóa,0989 816 562,"Tạp Hoá Cô Út Cần Thơ, 158/72 Hẻm 2, Đ. Nguyễn Việt Hồng, An Phú, Ninh Kiều, Cần Thơ","An Phú, Ninh Kiều","158/72 Hẻm 2, Đ. Nguyễn Việt Hồng",Cần Thơ,,"Ninh Kiều, Cần Thơ",VN
78,ChIJG7oMSWuIoDERdrr4tErInjg,Công Ty TNHH Hoa Lan Cần Thơ,Cửa hàng hoa,0971 332 468,"Công Ty TNHH Hoa Lan Cần Thơ, 34 Trần Bạch Đằng, Phường An Khánh, Ninh Kiều, Cần Thơ 900000","Phường An Khánh, Ninh Kiều",34 Trần Bạch Đằng,Cần Thơ,900000.0,"Ninh Kiều, Cần Thơ",VN
79,ChIJ0Y5e8EaJoDERM7-rLUK-oA8,A.Perfume Nước Hoa Xách Tay Chính Hãng,Cửa hàng nước hoa,0934 555 673,"A.Perfume Nước Hoa Xách Tay Chính Hãng, Đối diện trường GTVT Miền Nam, 331 Đ. Nguyễn Văn Linh, Hưng Lợi, Ninh Kiều, Cần Thơ 900000","Hưng Lợi, Ninh Kiều","Đối diện trường GTVT Miền Nam, 331 Đ. Nguyễn Văn Linh",Cần Thơ,900000.0,"Ninh Kiều, Cần Thơ",VN
80,ChIJJ4_8t8KJoDERnKFwkaANasI,TMA Shop - Nước Hoa Chính Hãng - Hoa Sáp,Cửa hàng nước hoa,0393 252 629,"TMA Shop - Nước Hoa Chính Hãng - Hoa Sáp, 216/35B Đ. 30 Tháng 4, Hưng Lợi, Ninh Kiều, Cần Thơ","Hưng Lợi, Ninh Kiều",216/35B Đ. 30 Tháng 4,Cần Thơ,,"Ninh Kiều, Cần Thơ",VN
82,ChIJecMLDXuJoDERzW2r43dK9us,Hoạ Cụ Cá Con,Cửa hàng văn phòng phẩm,0969 215 404,"Hoạ Cụ Cá Con, 43D/5 đường 3/2, Xuân Khánh, Ninh Kiều, Cần Thơ 902044","Xuân Khánh, Ninh Kiều",43D/5 đường 3/2,Cần Thơ,902044.0,"Ninh Kiều, Cần Thơ",VN
83,ChIJ17ApohOIoDER1HweGEQVEG4,Cửa Hàng Gas - Bếp Gas Xuân Hoa,Cửa hàng bán dụng cụ sửa nhà,0292 3891 791,"Cửa Hàng Gas - Bếp Gas Xuân Hoa, 138 Nguyễn Văn Cừ Nối Dài, Phường An Khánh, Ninh Kiều, Cần Thơ","Phường An Khánh, Ninh Kiều",138 Nguyễn Văn Cừ Nối Dài,Cần Thơ,,"Ninh Kiều, Cần Thơ",VN
85,ChIJKYrYXgaJoDERmxenGyk3bO0,Shop Hoa Phương Thư,Cửa hàng hoa,0969 726 167,"Shop Hoa Phương Thư, 89 Đ. Trần Hoàng Na, KDC, Ninh Kiều, Cần Thơ","KDC, Ninh Kiều",89 Đ. Trần Hoàng Na,Cần Thơ,,"Ninh Kiều, Cần Thơ",VN
87,ChIJ9Xuk7aeJoDERd-I0ERUtUr4,Giấy in bill-decal nhiệt-máy in hoá đơn Kpos Cần Thơ,Cửa hàng giấy,0909 549 495,"Giấy in bill-decal nhiệt-máy in hoá đơn Kpos Cần Thơ, Tp, Hẻm 7 Đ. Trần Vĩnh Kiết, An Bình, Ninh Kiều, Cần Thơ","An Bình, Ninh Kiều","Tp, Hẻm 7 Đ. Trần Vĩnh Kiết",Cần Thơ,,"Ninh Kiều, Cần Thơ",VN
89,ChIJpff4TYCJoDERKb4dbPdIqVM,Tiệm Hoa Cỏ Thơm,Cửa hàng hoa,0939 647 838,"Tiệm Hoa Cỏ Thơm, 216/2P Tầm Vu, Hưng Lợi, Ninh Kiều, Cần Thơ 940000","Hưng Lợi, Ninh Kiều",216/2P Tầm Vu,Cần Thơ,940000.0,"Ninh Kiều, Cần Thơ",VN
91,ChIJzXlD38SJoDERlGLzw_tkXOE,Tiệm Chiết Nước Hoa TaMa Cần Thơ,Cửa hàng nước hoa,0985 834 783,"Tiệm Chiết Nước Hoa TaMa Cần Thơ, Hẻm 216 Tầm Vu, Hưng Lợi, Ninh Kiều, Cần Thơ","Hưng Lợi, Ninh Kiều",Hẻm 216 Tầm Vu,Cần Thơ,,"Ninh Kiều, Cần Thơ",VN
93,ChIJ1-1FSiGIoDERSQNgdDuonjs,Shop Hoa Tươi Họa Mi,Cửa hàng,0292 3824 736,"Shop Hoa Tươi Họa Mi, 186A Đ. 30 Tháng 4, Xuân Khánh, Ninh Kiều, Cần Thơ","Xuân Khánh, Ninh Kiều",186A Đ. 30 Tháng 4,Cần Thơ,,"Ninh Kiều, Cần Thơ",VN
94,ChIJx0-NgP2rNTERXoOZWcQX_sQ,Tiệm Hoa Mai Hương - Tuệ Tĩnh,Cửa hàng hoa,0986 062 229,"Tiệm Hoa Mai Hương - Tuệ Tĩnh, 94 P. Tuệ Tĩnh, Nguyễn Du, Hai Bà Trưng, Hà Nội","Nguyễn Du, Hai Bà Trưng",94 P. Tuệ Tĩnh,Hà Nội,,"Hai Bà Trưng, Hà Nội",VN
95,ChIJhdY-qkqJoDERizVzENtXB58,Shop Hoa Tươi Cần Thơ - Hoa Mặt Trời,Cửa hàng hoa,0934 769 192,"Shop Hoa Tươi Cần Thơ - Hoa Mặt Trời, 35 Đ. Nguyễn Văn Cừ, An Hoà, Ninh Kiều, Cần Thơ","An Hoà, Ninh Kiều",35 Đ. Nguyễn Văn Cừ,Cần Thơ,,"Ninh Kiều, Cần Thơ",VN
96,ChIJiTG5dzCJoDER6f7TXrdrgpQ,Tiệm Hoa Ông Xã,Cửa hàng hoa,0899 272 725,"Tiệm Hoa Ông Xã, 131 Đ. Lý Tự Trọng, An Phú, Ninh Kiều, Cần Thơ 900000","An Phú, Ninh Kiều",131 Đ. Lý Tự Trọng,Cần Thơ,900000.0,"Ninh Kiều, Cần Thơ",VN
104,ChIJAZsaeeiJoDERLn1zPH0g9CU,BÁCH HÓA THANH THẢO HÀ,Cửa hàng tạp phẩm,0942 334 884,"BÁCH HÓA THANH THẢO HÀ, 22 Đ. Trần Hưng Đạo, An Cư, Ninh Kiều, Cần Thơ","An Cư, Ninh Kiều",22 Đ. Trần Hưng Đạo,Cần Thơ,,"Ninh Kiều, Cần Thơ",VN
105,ChIJS6LETkGIoDERTpkplhUbulk,Hoa Sáp Cần Thơ - Thông Điệp Flower,Nhà thiết kế hoa,0939 470 654,"Hoa Sáp Cần Thơ - Thông Điệp Flower, 27 Đ. Phan Huy Chú, Phường An Khánh, Ninh Kiều, Cần Thơ 94000","Phường An Khánh, Ninh Kiều",27 Đ. Phan Huy Chú,Cần Thơ,94000.0,"Ninh Kiều, Cần Thơ",VN
106,ChIJKR-dPo6JoDERPm863-UzylU,Cửa Hàng Pháo Hoa Cần Thơ,Cửa hàng bán pháo hoa,0984 642 567,"Cửa Hàng Pháo Hoa Cần Thơ, 622 Đ. Nguyễn Đệ, P, Bình Thủy, Cần Thơ","P, Bình Thủy",622 Đ. Nguyễn Đệ,Cần Thơ,,"Bình Thủy, Cần Thơ",VN
108,ChIJ925KPbuJoDERznEfk4Jtslg,Yến Sào Khánh Hòa - 45 Mậu Thân,Cửa hàng tổng hợp,,"Yến Sào Khánh Hòa - 45 Mậu Thân, 45 Đ. Mậu Thân, An Hoà, Ninh Kiều, Cần Thơ","An Hoà, Ninh Kiều",45 Đ. Mậu Thân,Cần Thơ,,"Ninh Kiều, Cần Thơ",VN
121,ChIJbTY4wIeJoDERJtBmbtyQEG0,Bách hóa Tây nguyên (miền tây),Cửa hàng bán thực phẩm đặc sản,0932 252 702,"Bách hóa Tây nguyên (miền tây), 206 Hẻm 553, Xuân Khánh, Ninh Kiều, Cần Thơ 94115","Xuân Khánh, Ninh Kiều",206 Hẻm 553,Cần Thơ,94115.0,"Ninh Kiều, Cần Thơ",VN
128,ChIJVYawbZOHoDERPnVEmWngGR0,TẠP HOÁ ĐỒ CÂU DƯƠNG BÌNH ( KOI CẦN THƠ),Cửa hàng bán đồ câu cá,0772 178 861,"TẠP HOÁ ĐỒ CÂU DƯƠNG BÌNH ( KOI CẦN THƠ), 9/19, Đ. Nguyễn Văn Cừ, Cái Khế, Ninh Kiều, Cần Thơ","Cái Khế, Ninh Kiều","9/19, Đ. Nguyễn Văn Cừ",Cần Thơ,,"Ninh Kiều, Cần Thơ",VN
129,ChIJ4Uy1Vg6JoDERXymRWGBMmb8,Shop Bách Hóa Đồ Gia Dụng Mẫn Lê,Cửa hàng tiện lợi,0975 792 577,"Shop Bách Hóa Đồ Gia Dụng Mẫn Lê, 19 Đ. Nguyễn Văn Cừ, Cái Khế, Ninh Kiều, Cần Thơ","Cái Khế, Ninh Kiều",19 Đ. Nguyễn Văn Cừ,Cần Thơ,,"Ninh Kiều, Cần Thơ",VN
130,ChIJqeJpK4djoDERF_if-d2pF0A,HOÀ HUỲNH STORE - Cần Thơ,Cửa hàng điện thoại di động,0932 878 878,"HOÀ HUỲNH STORE - Cần Thơ, 20 Lý Hồng Thanh, P, Q.NK, Cần Thơ","P, Q.NK",20 Lý Hồng Thanh,Cần Thơ,,"Q.NK, Cần Thơ",VN
132,ChIJmwkmuZ6JoDERnGOU7dnxS4g,Thiên Perfume Tiệm Nước Hoa Chính Hãng,Cửa hàng mỹ phẩm,0704 855 955,"Thiên Perfume Tiệm Nước Hoa Chính Hãng, vào 200m ngay ngã tư nhìn tay Phải Thấy ngay, Đ. Nguyễn Văn Cừ/147/23c Hẻm 38, An Hoà, Ninh Kiều, Cần Thơ 90000","An Hoà, Ninh Kiều","vào 200m ngay ngã tư nhìn tay Phải Thấy ngay, Đ. Nguyễn Văn Cừ/147/23c Hẻm 38",Cần Thơ,90000.0,"Ninh Kiều, Cần Thơ",VN
135,ChIJLxzFJ3OJoDERYSvGXz1SlnE,Chuyện Hoa Flower Studio,Cửa hàng hoa,0344 373 986,"Chuyện Hoa Flower Studio, 284 Đ. Trần Vĩnh Kiết, An Bình, Ninh Kiều, Cần Thơ","An Bình, Ninh Kiều",284 Đ. Trần Vĩnh Kiết,Cần Thơ,,"Ninh Kiều, Cần Thơ",VN
136,ChIJ6xhMBbKJoDERlFm5HTbL37E,Vựa Hoa Tươi Lê Quang,Cửa hàng hoa,0773 034 678,"Vựa Hoa Tươi Lê Quang, 12c Đ. Phạm Hùng, Ba Láng, Tp, Cần Thơ","Ba Láng, Tp",12c Đ. Phạm Hùng,Cần Thơ,,"Tp, Cần Thơ",VN
138,ChIJHbGwjDeIoDER2wNr4m-allc,Nước hoa Charme Hải Hòa,Cửa hàng nước hoa,0918 143 128,"Nước hoa Charme Hải Hòa, 57 đường số 1, Khu dân cư Metro, Đ. Nguyễn Văn Linh, P, Ninh Kiều, Cần Thơ","P, Ninh Kiều","57 đường số 1, Khu dân cư Metro, Đ. Nguyễn Văn Linh",Cần Thơ,,"Ninh Kiều, Cần Thơ",VN
139,ChIJC8DxMUaIoDERgrwBS_NPg30,Tạp Hóa Thiên Tân,Cửa hàng tạp hóa,0907 577 287,"Tạp Hóa Thiên Tân, 88 Đường B22, Khu dân cư 91B, Ninh Kiều, Cần Thơ","Khu dân cư 91B, Ninh Kiều",88 Đường B22,Cần Thơ,,"Ninh Kiều, Cần Thơ",VN
140,ChIJq03azIWJoDERuqn3z7JB6Dk,Nước hoa Charme Ánh Hồng Cần Thơ,Cửa hàng nước hoa,0939 498 831,"Nước hoa Charme Ánh Hồng Cần Thơ, 1 Đ. Nguyễn Văn Linh, Hưng Lợi, Ninh Kiều, Cần Thơ","Hưng Lợi, Ninh Kiều",1 Đ. Nguyễn Văn Linh,Cần Thơ,,"Ninh Kiều, Cần Thơ",VN
142,ChIJC4n3FhYIB04Re_tYwgUsXXk,Hoa Len Sunny,Cửa hàng phụ kiện thời trang,0902 588 453,"Hoa Len Sunny, 47/7 Hẻm 51, Xuân Khánh, Ninh Kiều, Cần Thơ 90000","Xuân Khánh, Ninh Kiều",47/7 Hẻm 51,Cần Thơ,90000.0,"Ninh Kiều, Cần Thơ",VN
143,ChIJLVeMK2uJoDERY2Sc8JgkfDY,Chau Shop - Bách Hóa Tổng Hợp,Cửa hàng bách hóa,0356 016 345,"Chau Shop - Bách Hóa Tổng Hợp, 2/24 Đ. Lý Tự Trọng, An Cư, Ninh Kiều, Cần Thơ 90000","An Cư, Ninh Kiều",2/24 Đ. Lý Tự Trọng,Cần Thơ,90000.0,"Ninh Kiều, Cần Thơ",VN
144,ChIJXbA84rljoDERXupuKyZrlpo,Shop Hoa Tươi Cái Răng - Tiệm Hoa Hạnh Phúc,Cửa hàng hoa,0352 505 610,"Shop Hoa Tươi Cái Răng - Tiệm Hoa Hạnh Phúc, 79 Đ. Nguyễn Văn Quy, Phú Thứ, Cái Răng, Cần Thơ","Phú Thứ, Cái Răng",79 Đ. Nguyễn Văn Quy,Cần Thơ,,"Cái Răng, Cần Thơ",VN
146,ChIJPY9lpUtjoDERD995gZ-Hbcc,Tạp Hóa Chú Lùn,Cửa hàng đồ gia dụng,0949 500 090,,,,,,,
151,ChIJeSEgM9c7vKsR-w1yR2fjXOo,Tiệm Tạp Hóa Vinh Tuyền,Cửa hàng tạp hóa,0902 703 300,"Tiệm Tạp Hóa Vinh Tuyền, 42/31 Đ. Trần Việt Châu, Thới Bình, Ninh Kiều, Cần Thơ","Thới Bình, Ninh Kiều",42/31 Đ. Trần Việt Châu,Cần Thơ,,"Ninh Kiều, Cần Thơ",VN
154,ChIJ__cg7VyJoDERGth2wBsPrRI,"Hoa Tươi Cần Thơ, Điện Hoa Tươi Cần Thơ",Cửa hàng hoa,0966 183 183,"Hoa Tươi Cần Thơ, Điện Hoa Tươi Cần Thơ, 388Z Đ. Nguyễn Văn Cừ, Phường An Khánh, Ninh Kiều, Cần Thơ 910000","Phường An Khánh, Ninh Kiều",388Z Đ. Nguyễn Văn Cừ,Cần Thơ,910000.0,"Ninh Kiều, Cần Thơ",VN
155,ChIJWyPuY72JoDERl0K-4_ePPGI,Tạp hóa tuổi thơ Covy,Tiệm bánh kẹo,0792 432 169,"Tạp hóa tuổi thơ Covy, 147/43A Đ. Nguyễn Văn Cừ, P, Ninh Kiều, Cần Thơ","P, Ninh Kiều",147/43A Đ. Nguyễn Văn Cừ,Cần Thơ,,"Ninh Kiều, Cần Thơ",VN
158,ChIJRRTNU4qJoDERCPeWg3nMp-0,Shop Hoa Tươi Hướng Viễn Cần Thơ,Cửa hàng,0843 322 800,"Shop Hoa Tươi Hướng Viễn Cần Thơ, 217 Đ. Nguyễn Tri Phương, Phường An Khánh, Ninh Kiều, Cần Thơ","Phường An Khánh, Ninh Kiều",217 Đ. Nguyễn Tri Phương,Cần Thơ,,"Ninh Kiều, Cần Thơ",VN
160,ChIJW6VQo-OHoDERK6pmjheVwMM,Hoa tươi Huỳnh Như,Cửa hàng hoa,0932 986 386,"Hoa tươi Huỳnh Như, 11 Đường B21, Khu dân cư 91B, Ninh Kiều, Cần Thơ","Khu dân cư 91B, Ninh Kiều",11 Đường B21,Cần Thơ,,"Ninh Kiều, Cần Thơ",VN
164,ChIJLeviDPSJoDERoto8pFurBUc,Mr. Flower _ Hoa hồng sáp thơm Cần Thơ,Cửa hàng hoa,0346 070 937,"Mr. Flower _ Hoa hồng sáp thơm Cần Thơ, Hẻm 577 Đ. 30 Tháng 4, Hưng Lợi, Ninh Kiều, Cần Thơ","Hưng Lợi, Ninh Kiều",Hẻm 577 Đ. 30 Tháng 4,Cần Thơ,,"Ninh Kiều, Cần Thơ",VN
176,ChIJQXTO6LeJoDERJAQqTZMB8Og,Nước hoa giá rẻ LocDoci,Cửa hàng nước hoa,0907 179 646,"Nước hoa giá rẻ LocDoci, Kế bên Số Dzách, có đường hẻm chạy hết, đường quẹo phải/4e/1 Hẻm 51, Phường An Khánh, Ninh Kiều, Cần Thơ","Phường An Khánh, Ninh Kiều","Kế bên Số Dzách, có đường hẻm chạy hết, đường quẹo phải/4e/1 Hẻm 51",Cần Thơ,,"Ninh Kiều, Cần Thơ",VN
177,ChIJjUuMUQCJoDERhh07fwrgqM0,Cửa hàng nước hoa PL Perfume,Cửa hàng mỹ phẩm,,"Cửa hàng nước hoa PL Perfume, 15A Đ. Mậu Thân, An Phú, Ninh Kiều, Cần Thơ","An Phú, Ninh Kiều",15A Đ. Mậu Thân,Cần Thơ,,"Ninh Kiều, Cần Thơ",VN
178,ChIJL8x3tYmJoDERSl0mPIlOc3c,Nước hoa NT Shop,Cửa hàng nước hoa,0333 694 380,"Nước hoa NT Shop, 10A/1 Khu Vực 3, Xuân Khánh, Ninh Kiều, Cần Thơ 90000","Xuân Khánh, Ninh Kiều",10A/1 Khu Vực 3,Cần Thơ,90000.0,"Ninh Kiều, Cần Thơ",VN
179,ChIJXY6gyiGIoDERMtl55zKtwrw,Cửa Hàng Nước Hoa Dubai Cần Thơ - SUDUBAI,Cửa hàng mỹ phẩm,,"Cửa Hàng Nước Hoa Dubai Cần Thơ - SUDUBAI, 108/46/29 Đ. Nguyễn Việt Hồng, An Lạc, Ninh Kiều, Cần Thơ","An Lạc, Ninh Kiều",108/46/29 Đ. Nguyễn Việt Hồng,Cần Thơ,,"Ninh Kiều, Cần Thơ",VN
180,ChIJj1RL-9GJoDERdR4YdWJqXhI,Vũ Hoà Photocopy In Màu Giá Rẻ Cần Thơ,Cửa hàng in ấn,0704 840 000,"Vũ Hoà Photocopy In Màu Giá Rẻ Cần Thơ, 96/5 Đ. Nguyễn Thần Hiến, P, Ninh Kiều, Cần Thơ 94000","P, Ninh Kiều",96/5 Đ. Nguyễn Thần Hiến,Cần Thơ,94000.0,"Ninh Kiều, Cần Thơ",VN
181,ChIJSd-S-KBioDERPUdzD3Lmmlc,Cafe Mai Hoa,Quán cà phê,0908 888 777,"Cafe Mai Hoa, 71 Đ. Ngô Quyền, Tân An, Ninh Kiều, Cần Thơ","Tân An, Ninh Kiều",71 Đ. Ngô Quyền,Cần Thơ,,"Ninh Kiều, Cần Thơ",VN
182,ChIJ72HiD4GJoDER-MaUinrkou4,Nước Hoa Halam Perfume,Cửa hàng nước hoa,0787 898 898,"Nước Hoa Halam Perfume, 182/1 Đ. Trần Hưng Đạo, An Phú, Ninh Kiều, Cần Thơ 90000","An Phú, Ninh Kiều",182/1 Đ. Trần Hưng Đạo,Cần Thơ,90000.0,"Ninh Kiều, Cần Thơ",VN
185,ChIJf5TTmYRjoDER3RnFLiZFNjk,Blume - Tiệm nước hoa,Cửa hàng,0939 882 699,"Blume - Tiệm nước hoa, 06 Đ. Nguyễn Bình, Cái Khế, Ninh Kiều, Cần Thơ","Cái Khế, Ninh Kiều",06 Đ. Nguyễn Bình,Cần Thơ,,"Ninh Kiều, Cần Thơ",VN
188,ChIJ4S6YUw-IoDERw_XUloPtTyc,"Hẻm 186 Nguyễn Văn Cừ, P. An Hòa, Quận Ninh Kiều, Tp. Cần Thơ",Cửa hàng đồ gia dụng,,"Hẻm 186 Nguyễn Văn Cừ, P. An Hòa, Quận Ninh Kiều, Tp. Cần Thơ, 140B/3 Đ. Nguyễn Văn Cừ, An Hoà, Ninh Kiều, Cần Thơ","An Hoà, Ninh Kiều",140B/3 Đ. Nguyễn Văn Cừ,Cần Thơ,,"Ninh Kiều, Cần Thơ",VN
189,ChIJdz9FqySIoDERheo1zoreeyc,BÁCH HÓA VÀ PHỤ KIỆN PHƯƠNG THẢO 5,Cửa hàng,0702 818 445,"BÁCH HÓA VÀ PHỤ KIỆN PHƯƠNG THẢO 5, 8 Đ. Mạc Thiên Tích, Xuân Khánh, Ninh Kiều, Cần Thơ","Xuân Khánh, Ninh Kiều",8 Đ. Mạc Thiên Tích,Cần Thơ,,"Ninh Kiều, Cần Thơ",VN
190,ChIJ_fV4cFCIoDERqIXwfby4qvY,Cafe Ẩm thực The Gardens,Quán cà phê,0292 3783 789,"Cafe Ẩm thực The Gardens, Cà phê Gardens): Số 259AA-261AA Nguyễn Văn Cừ ND, P. An Bình, Q. Ninh Kiều Quán ăn 34k): Số 3-4, đường số 4, KDC Hồng Phát, P. An Bình, Q, Ninh Kiều, Cần Thơ 900000","An Bình, Ninh Kiều","Cà phê Gardens): Số 259AA-261AA Nguyễn Văn Cừ ND, P. An Bình, Q. Ninh Kiều Quán ăn 34k): Số 3-4, đường số 4, KDC Hồng Phát, P. An Bình, Q",Cần Thơ,900000.0,"Ninh Kiều, Cần Thơ",VN
191,ChIJVWMoy8aJoDER-DnrMxzNsxc,Nước hoa Pháp chính hãng Cần Thơ - Topy Shop,Cửa hàng chăm sóc sức khỏe và làm đẹp,0939 941 002,"Nước hoa Pháp chính hãng Cần Thơ - Topy Shop, số 38 Đ. A3, Khu dân cư 91B, Ninh Kiều, Cần Thơ 94000","Khu dân cư 91B, Ninh Kiều",số 38 Đ. A3,Cần Thơ,94000.0,"Ninh Kiều, Cần Thơ",VN
193,ChIJITv4KEyIoDERdhuho5UR_QA,Tạp Hóa Tuấn Duy,Cửa hàng tạp phẩm,0917 193 865,"Tạp Hóa Tuấn Duy, Đ. Trần Vĩnh Kiết, Hưng Lợi, Ninh Kiều, Cần Thơ","Hưng Lợi, Ninh Kiều",Đ. Trần Vĩnh Kiết,Cần Thơ,,"Ninh Kiều, Cần Thơ",VN
195,ChIJoTbU6keIoDERAlirV-kCYzg,Cửa hàng bách hóa Huy Khôi,Cửa hàng bách hóa,,"2QF4+PVQ Cửa hàng bách hóa Huy Khôi, Đ. Nguyễn Hiền, Hưng Lợi, Ninh Kiều, Cần Thơ","Hưng Lợi, Ninh Kiều","2QF4+PVQ, Đ. Nguyễn Hiền",Cần Thơ,,"Ninh Kiều, Cần Thơ",VN
196,ChIJXeDn9zeIoDERtMzyjnZhZAA,Tạp hoá Gia dụng 60s,Cửa hàng đồ gia dụng,,"2QF5+4Q7 Tạp hoá Gia dụng 60s, Hưng Lợi, Ninh Kiều, Cần Thơ","Hưng Lợi, Ninh Kiều",2QF5+4Q7,Cần Thơ,,"Ninh Kiều, Cần Thơ",VN
198,ChIJO7CBSZ9ioDERZ0n_4Fdq3Ss,Cơ Sở Bánh Tét NĂM HÒA,Cửa hàng bánh ngọt,0939 525 388,"Cơ Sở Bánh Tét NĂM HÒA, 150 Đường Hai Bà Trưng, Tân An, Ninh Kiều, Cần Thơ","Tân An, Ninh Kiều",150 Đường Hai Bà Trưng,Cần Thơ,,"Ninh Kiều, Cần Thơ",VN
199,ChIJf2ulqCaIoDERdYZbwtJSy6U,Shop Hoa Tươi Mỹ Trang,Cửa hàng hoa,0292 3887 997,"Shop Hoa Tươi Mỹ Trang, 208 Đ. 30 Tháng 4, Xuân Khánh, Ninh Kiều, Cần Thơ 900000","Xuân Khánh, Ninh Kiều",208 Đ. 30 Tháng 4,Cần Thơ,900000.0,"Ninh Kiều, Cần Thơ",VN
201,ChIJQyOem59ioDERhTi5rudy2tg,Cửa Hàng Tạp Hoá Hồng Phước,Cửa hàng tạp hóa,0292 3825 809,"Cửa Hàng Tạp Hoá Hồng Phước, 16Bis Đ. Đồng Khởi, Tân An, Ninh Kiều, Cần Thơ","Tân An, Ninh Kiều",16Bis Đ. Đồng Khởi,Cần Thơ,,"Ninh Kiều, Cần Thơ",VN
202,ChIJO6WE1waJoDERgJoRA4Q-jq8,Vựa hoa tươi Lê Bình,Cửa hàng hoa,0931 212 018,"Vựa hoa tươi Lê Bình, 14 Đ. Nguyễn Văn Linh, Hưng Lợi, Ninh Kiều, Cần Thơ","Hưng Lợi, Ninh Kiều",14 Đ. Nguyễn Văn Linh,Cần Thơ,,"Ninh Kiều, Cần Thơ",VN
205,ChIJcTd-8TqIoDERM_SMGXhD4TY,Hoa Lavender Khô Cần Thơ,Cửa hàng hoa khô,0949 136 176,"Hoa Lavender Khô Cần Thơ, 40 Phan Bội Châu, Tân An, Ninh Kiều, Cần Thơ","Tân An, Ninh Kiều",40 Phan Bội Châu,Cần Thơ,,"Ninh Kiều, Cần Thơ",VN
206,ChIJN3VEHreJoDERIOP7YpJyyoU,Chợ Hoa Cần Thơ,Cửa hàng hoa,,"Chợ Hoa Cần Thơ, 264 Đ. Nguyễn Tri Phương, Phường An Khánh, Ninh Kiều, Cần Thơ","Phường An Khánh, Ninh Kiều",264 Đ. Nguyễn Tri Phương,Cần Thơ,,"Ninh Kiều, Cần Thơ",VN
209,ChIJEUWf3GWJoDER01-1Tf2IJO8,Tạp hóa 144,Cửa hàng tạp phẩm,,"Tạp hóa 144, 281 Đ.Xuân Thủy, An Bình, Ninh Kiều, Cần Thơ","An Bình, Ninh Kiều",281 Đ.Xuân Thủy,Cần Thơ,,"Ninh Kiều, Cần Thơ",VN
210,ChIJTy-5VDOIoDERIxrdYmnrJQU,Cửa Hàng Tạp Hoá Bách Sơn,Cửa hàng bách hóa,,"Cửa Hàng Tạp Hoá Bách Sơn, 17 Đ. Trần Hoàng Na, Hưng Lợi, Ninh Kiều, Cần Thơ","Hưng Lợi, Ninh Kiều",17 Đ. Trần Hoàng Na,Cần Thơ,,"Ninh Kiều, Cần Thơ",VN
211,ChIJjVeHeZ9ioDERb9Tn___kAiw,Cửa Hàng Đtdđ Quốc Hòa,Cửa hàng,0292 3825 954,"Cửa Hàng Đtdđ Quốc Hòa, 28 Đ. Nam Kỳ Khởi Nghĩa, Tân An, Ninh Kiều, Cần Thơ 94112","Tân An, Ninh Kiều",28 Đ. Nam Kỳ Khởi Nghĩa,Cần Thơ,94112.0,"Ninh Kiều, Cần Thơ",VN
212,ChIJq6qqqq5ioDERfHVGD3JkQvU,Cửa Hàng Tạp Hóa Quang Linh,Cửa hàng bách hóa,0939 992 587,"Cửa Hàng Tạp Hóa Quang Linh, Kios 43, Nhà Lồng 3, Trung Tâm Thương Mại Cái Khế, Phường Cái Khế, Quận Ninh Kiều, Thành Phố Cần Thơ, Cái Khế, Ninh Kiều, Cần Thơ","Cái Khế, Ninh Kiều","Kios 43, Nhà Lồng 3, Trung Tâm Thương Mại Cái Khế, Phường Cái Khế, Quận Ninh Kiều, Thành Phố Cần Thơ",Cần Thơ,,"Ninh Kiều, Cần Thơ",VN
215,ChIJUzK-OgOIoDERGMAp-FJTfDY,Shopdep24h - Bán nước hoa - son môi chính hãng uy tín tại Cần Thơ,Cửa hàng mỹ phẩm,0968 444 004,,,,,,,
216,ChIJAybFa3GJoDERGNGBYDmljXM,Tiệm hoa Bà Xã,Cửa hàng hoa,0987 292 093,"Tiệm hoa Bà Xã, 23 Đ. Nguyễn Đệ, An Hoà, Bình Thủy, Cần Thơ","An Hoà, Bình Thủy",23 Đ. Nguyễn Đệ,Cần Thơ,,"Bình Thủy, Cần Thơ",VN
220,ChIJkavbq1qIoDERoMVNcNlGl2I,Cửa Hàng Tạp Hoá 130,Cửa hàng bách hóa,0901 020 389,"Cửa Hàng Tạp Hoá 130, 130 AB1, Xuân Thủy, Khu Dân Cư Cái Sơn - Hàng Bàng, Phường An Bình, Quận Ninh Kiều, Thành Phố Cần Thơ, An Bình, Ninh Kiều, Cần Thơ","An Bình, Ninh Kiều","130 AB1, Xuân Thủy, Khu Dân Cư Cái Sơn - Hàng Bàng, Phường An Bình, Quận Ninh Kiều, Thành Phố Cần Thơ",Cần Thơ,,"Ninh Kiều, Cần Thơ",VN
221,ChIJ_9I7TDeIoDERWgQVyLYgLWg,Shop Hoa Tươi Hướng Dương 138 Cần Thơ,Cửa hàng tạp phẩm,0932 958 232,"Shop Hoa Tươi Hướng Dương 138 Cần Thơ, 1L Đ. Nguyễn Văn Linh, Hưng Lợi, Ninh Kiều, Cần Thơ","Hưng Lợi, Ninh Kiều",1L Đ. Nguyễn Văn Linh,Cần Thơ,,"Ninh Kiều, Cần Thơ",VN
223,ChIJR81FQEOJoDERt_mAM_gJby4,Cà phê bánh Muồng Hoa Đào,Quán cà phê,,"Cà phê bánh Muồng Hoa Đào, Hem 9, Đ. Trần Nam Phú, Phường An Khánh, Ninh Kiều, Cần Thơ","Phường An Khánh, Ninh Kiều","Hem 9, Đ. Trần Nam Phú",Cần Thơ,,"Ninh Kiều, Cần Thơ",VN
224,ChIJU4RTuKFioDERsZqtEr52Fbs,Shop Hoa Như Lan,Chợ hoa,0292 3822 119,"Shop Hoa Như Lan, 23 Đ. Ngô Văn Sở, Tân An, Ninh Kiều, Cần Thơ","Tân An, Ninh Kiều",23 Đ. Ngô Văn Sở,Cần Thơ,,"Ninh Kiều, Cần Thơ",VN
225,ChIJb1M5ULOJoDERu8ELe2EP7NU,Tạp Hoá Hà,Cửa hàng tổng hợp,,"Tạp Hoá Hà, 2/58, Đ. Bùi Thị Xuân, An Hội, Ninh Kiều, Cần Thơ","An Hội, Ninh Kiều","2/58, Đ. Bùi Thị Xuân",Cần Thơ,,"Ninh Kiều, Cần Thơ",VN
227,ChIJ0Z7H3nCJoDERKTxhreKLC_0,Công Ty Cổ Phần Hóa Dầu Sài Gòn,Cửa hàng,0774 043 789,"Công Ty Cổ Phần Hóa Dầu Sài Gòn, 36 Đ. Cách Mạng Tháng 8, Cái Khế, Ninh Kiều, Cần Thơ 900000","Cái Khế, Ninh Kiều",36 Đ. Cách Mạng Tháng 8,Cần Thơ,900000.0,"Ninh Kiều, Cần Thơ",VN
228,ChIJb0WpuTOJoDERbYGVBggsX5w,Tiệm Hoa An Khánh Cần Thơ,Cửa hàng hoa,0939 206 602,"Tiệm Hoa An Khánh Cần Thơ, 35 Đường Trần Minh Sơn, P, Ninh Kiều, Cần Thơ","P, Ninh Kiều",35 Đường Trần Minh Sơn,Cần Thơ,,"Ninh Kiều, Cần Thơ",VN
229,ChIJY7fJQ6qJoDER_EcVLnId7Ls,Tạp hoá Phúc Thịnh,Cửa hàng tạp hóa,0775 862 662,"Tạp hoá Phúc Thịnh, 54 Đ. Trần Hoàng Na, Hưng Lợi, Ninh Kiều, Cần Thơ","Hưng Lợi, Ninh Kiều",54 Đ. Trần Hoàng Na,Cần Thơ,,"Ninh Kiều, Cần Thơ",VN
232,ChIJmd7WWJ9ioDERB2CXQ30Y51k,shop hoa Đoàn Dũng(khắc tặng phẩm),Cửa hàng hoa,0939 134 867,"shop hoa Đoàn Dũng(khắc tặng phẩm), 58/7B Nguyễn Thái Học, Tân An, Ninh Kiều, Cần Thơ","Tân An, Ninh Kiều",58/7B Nguyễn Thái Học,Cần Thơ,,"Ninh Kiều, Cần Thơ",VN
233,ChIJzUtJZaFioDERicw_M7x8JoQ,Đồng Hồ Hoà Anh,Cửa hàng đồng hồ,0919 168 169,"Đồng Hồ Hoà Anh, 33 Phan Đình Phùng, Tân An, Ninh Kiều, Cần Thơ","Tân An, Ninh Kiều",33 Phan Đình Phùng,Cần Thơ,,"Ninh Kiều, Cần Thơ",VN
235,ChIJjxwm86WJoDERBEp0yWu_Uwo,Shop Hoa Tươi Hoàng Kim - Cần Thơ,Cửa hàng hoa,0868 927 383,"Shop Hoa Tươi Hoàng Kim - Cần Thơ, 103 Đường Trần Minh Sơn, Phường An Khánh, Ninh Kiều, Cần Thơ","Phường An Khánh, Ninh Kiều",103 Đường Trần Minh Sơn,Cần Thơ,,"Ninh Kiều, Cần Thơ",VN
238,ChIJkXMrfDiIoDERATbm1hdzgOs,Cửa Hàng Tạp Hóa Cà Phê,Cửa hàng tạp hóa,0292 6507 779,"Cửa Hàng Tạp Hóa Cà Phê, 227/9, QL91B, Phường An Khánh, Ninh Kiều, Cần Thơ","Phường An Khánh, Ninh Kiều","227/9, QL91B",Cần Thơ,,"Ninh Kiều, Cần Thơ",VN
242,ChIJH2-SwiCIoDERhSgHVG0BlW8,Shop Hoa Tươi Kim Hoàng Cần Thơ,Cửa hàng hoa,0939 366 317,"Shop Hoa Tươi Kim Hoàng Cần Thơ, 95A Quang Trung, An Lạc, Ninh Kiều, Cần Thơ","An Lạc, Ninh Kiều",95A Quang Trung,Cần Thơ,,"Ninh Kiều, Cần Thơ",VN
243,ChIJM-4l5u2HoDERquGOk5asgzg,Shop Hoala (shop hoa tươi),Cửa hàng hoa,0939 163 966,"Shop Hoala (shop hoa tươi), 43a Lê Hồng Phong, Trà Nóc, Bình Thủy, Cần Thơ","Trà Nóc, Bình Thủy",43a Lê Hồng Phong,Cần Thơ,,"Bình Thủy, Cần Thơ",VN
244,ChIJTV5UojGHoDERSCiimA5Dwow,Bách hóa xanh,Cửa hàng,,"3Q4H+H7V Bách hóa xanh, Cồn Khương, Ninh Kiều, Cần Thơ","Cồn Khương, Ninh Kiều",3Q4H+H7V,Cần Thơ,,"Ninh Kiều, Cần Thơ",VN
247,ChIJ26jyK6BioDERmVSHa_Qrv-0,Cửa Hàng Hoa Tươi Cát Tường,Cửa hàng hoa,0292 3822 153,"Cửa Hàng Hoa Tươi Cát Tường, 78 Nguyễn Thái Học, Tân An, Ninh Kiều, Cần Thơ","Tân An, Ninh Kiều",78 Nguyễn Thái Học,Cần Thơ,,"Ninh Kiều, Cần Thơ",VN
257,ChIJvZtnTmCJoDER3t6_-zhJoHk,HOA TRÀ Tea&Coffee,Quán cà phê,0901 092 456,"HOA TRÀ Tea&Coffee, 359/3B, Đ. Nguyễn Văn Cừ, An Hoà, Ninh Kiều, Cần Thơ","An Hoà, Ninh Kiều","359/3B, Đ. Nguyễn Văn Cừ",Cần Thơ,,"Ninh Kiều, Cần Thơ",VN
259,ChIJyTTtuBSIoDERGKMp8dp6DGw,Cửa Hàng Hoa Kiểng Thảo Nguyên,Cửa hàng,0918 385 212,"Cửa Hàng Hoa Kiểng Thảo Nguyên, 152 Đ. Nguyễn Văn Cừ, Phường An Khánh, Ninh Kiều, Cần Thơ","Phường An Khánh, Ninh Kiều",152 Đ. Nguyễn Văn Cừ,Cần Thơ,,"Ninh Kiều, Cần Thơ",VN
264,ChIJVTEYC1CIoDER8o-3fO6a8ps,Cửa Hàng Tạp Hoá Đỗ Quyên,Cửa hàng bách hóa,0966 777 738,"Cửa Hàng Tạp Hoá Đỗ Quyên, 245 Đ. Tú Xương, An Bình, Ninh Kiều, Cần Thơ","An Bình, Ninh Kiều",245 Đ. Tú Xương,Cần Thơ,,"Ninh Kiều, Cần Thơ",VN
269,ChIJqyS3FKqJoDERltyJbTQ3ido,Shop Hoa Tươi Tây Đô,Cửa hàng hoa,0979 157 545,"Shop Hoa Tươi Tây Đô, 30 Trần Chiên, Lê Bình, Cái Răng, Cần Thơ","Lê Bình, Cái Răng",30 Trần Chiên,Cần Thơ,,"Cái Răng, Cần Thơ",VN
272,ChIJvZVWErGJoDER77grrR75f0w,Cửa Hàng Tạp Hóa Tường Phát,Cửa hàng bách hóa,,"Cửa Hàng Tạp Hóa Tường Phát, 63 Trần Hưng Đạo, Lê Bình, Cái Răng, Cần Thơ","Lê Bình, Cái Răng",63 Trần Hưng Đạo,Cần Thơ,,"Cái Răng, Cần Thơ",VN
273,ChIJqeNRNh6JoDERoD-csyMuWNM,Hoa Tươi Cần Thơ Mimi Võ,Cửa hàng hoa,,"Hoa Tươi Cần Thơ Mimi Võ, 268/4b, Đ. Nguyễn Văn Linh, P, Ninh Kiều, Cần Thơ","P, Ninh Kiều","268/4b, Đ. Nguyễn Văn Linh",Cần Thơ,,"Ninh Kiều, Cần Thơ",VN
274,ChIJvztGLZ2JoDERJzbOUrYf4Dw,Tạp hóa Minh Nghi,Cửa hàng tạp phẩm,,"Tạp hóa Minh Nghi, 30 Hẻm 132 Đ. 3 Tháng 2, Hưng Lợi, Ninh Kiều, Cần Thơ","Hưng Lợi, Ninh Kiều",30 Hẻm 132 Đ. 3 Tháng 2,Cần Thơ,,"Ninh Kiều, Cần Thơ",VN
280,ChIJZSP5mTWIoDEREjtx8d91ZbA,Công Ty Trách Nhiệm Hữu Hạn Đức Hòa,Cửa hàng,0292 3738 897,"Công Ty Trách Nhiệm Hữu Hạn Đức Hòa, Đ. 3 Tháng 2, Hưng Lợi, Ninh Kiều, Cần Thơ","Hưng Lợi, Ninh Kiều",Đ. 3 Tháng 2,Cần Thơ,,"Ninh Kiều, Cần Thơ",VN
285,ChIJHeAay7eJoDERH37Ffi0OlGk,Tạp hoá / Nhà trọ Minh Khang,Cửa hàng tạp phẩm,,"2QG8+929 Tạp hoá / Nhà trọ Minh Khang, Hẻm 51, Phường An Khánh, Ninh Kiều, Cần Thơ","Phường An Khánh, Ninh Kiều","2QG8+929, Hẻm 51",Cần Thơ,,"Ninh Kiều, Cần Thơ",VN
288,ChIJqVCcHq9ioDERJmcvRJwTUBo,Tiệm Thuốc Bắc Vĩnh Hòa Sanh,Hiệu thuốc,0292 3853 978,"Tiệm Thuốc Bắc Vĩnh Hòa Sanh, 175, Đường Lê Lợi, Phường Thốt Nốt, Quận Thốt Nốt, Cái Khế, Ninh Kiều, Cần Thơ","Cái Khế, Ninh Kiều","175, Đường Lê Lợi, Phường Thốt Nốt, Quận Thốt Nốt",Cần Thơ,,"Ninh Kiều, Cần Thơ",VN
291,ChIJFaYT71mJoDEROESeIbCfk4A,Tạp Hoá Hoài An,Cửa hàng tạp phẩm,0939 828 721,"Tạp Hoá Hoài An, 173 Đ. Phạm Ngũ Lão, Thới Bình, Ninh Kiều, Cần Thơ","Thới Bình, Ninh Kiều",173 Đ. Phạm Ngũ Lão,Cần Thơ,,"Ninh Kiều, Cần Thơ",VN
292,ChIJwyGoG--JoDERBKBft3SuoPE,Tiệm hoa hoàn anh,Cửa hàng hoa,0766 977 771,"Tiệm hoa hoàn anh, 107 Đường Trần Minh Sơn, Phường An Khánh, Ninh Kiều, Cần Thơ","Phường An Khánh, Ninh Kiều",107 Đường Trần Minh Sơn,Cần Thơ,,"Ninh Kiều, Cần Thơ",VN
293,ChIJc5HQtBuIoDERpDZbqnnObFQ,Cửa Hàng Bách Hoá Nghĩa,Cửa hàng bách hóa,0292 3890 614,"Cửa Hàng Bách Hoá Nghĩa, 113, Đường Đ. Huỳnh Thúc Kháng, An Nghiệp, Ninh Kiều, Cần Thơ","An Nghiệp, Ninh Kiều","113, Đường Đ. Huỳnh Thúc Kháng",Cần Thơ,,"Ninh Kiều, Cần Thơ",VN
294,ChIJVVDofxOIoDERYZqng_vtOx0,Cơ Sở Hoa Kiểng Tư Bê,Cửa hàng hoa,0939 016 456,"Cơ Sở Hoa Kiểng Tư Bê, 132K5 Đ. Nguyễn Văn Cừ, Phường An Khánh, Ninh Kiều, Cần Thơ","Phường An Khánh, Ninh Kiều",132K5 Đ. Nguyễn Văn Cừ,Cần Thơ,,"Ninh Kiều, Cần Thơ",VN
295,ChIJB_tlFyaHoDEROiTTQB3eugw,TORKI FOOD AN HÒA,Tiệm bánh,0902 361 064,"TORKI FOOD AN HÒA, 12 Đ. Võ Trường Toản, An Hoà, Ninh Kiều, Cần Thơ","An Hoà, Ninh Kiều",12 Đ. Võ Trường Toản,Cần Thơ,,"Ninh Kiều, Cần Thơ",VN
296,ChIJeRTr7X-JoDERiJaYW6AmkNM,Tupperware An Hòa,Cửa hàng đồ gia dụng,0869 303 199,"Tupperware An Hòa, 219 Đ. Nguyễn Văn Cừ, An Hoà, Ninh Kiều, Cần Thơ","An Hoà, Ninh Kiều",219 Đ. Nguyễn Văn Cừ,Cần Thơ,,"Ninh Kiều, Cần Thơ",VN
297,ChIJqVSYCCOJoDERFD016ghtUNM,ICAR Cần Thơ -34 Nguyễn Đệ An Hoà Cần Thơ,Đại lý ô tô,0373 672 779,"ICAR Cần Thơ -34 Nguyễn Đệ An Hoà Cần Thơ, 34 Đ. Nguyễn Đệ, An Hoà, Ninh Kiều, Cần Thơ","An Hoà, Ninh Kiều",34 Đ. Nguyễn Đệ,Cần Thơ,,"Ninh Kiều, Cần Thơ",VN
299,ChIJb7Vu6mqIoDERONi4PwVulb8,Cửa Hàng Hoa Tươi Kỳ Hưng,Cửa hàng hoa,0908 098 742,"2QP4+5R4 Cửa Hàng Hoa Tươi Kỳ Hưng, Nguyễn Văn Cừ Nối Dài, Phường An Khánh, Ninh Kiều, Cần Thơ","Phường An Khánh, Ninh Kiều","2QP4+5R4, Nguyễn Văn Cừ Nối Dài",Cần Thơ,,"Ninh Kiều, Cần Thơ",VN
300,ChIJFZc0i2uIoDER5igt-9NvOx0,Cửa Hàng Tạp Hóa Tư Hòa,Cửa hàng bách hóa,0292 3833 257,"Cửa Hàng Tạp Hóa Tư Hòa, 58 Đ. Tô Hiến Thành, Phường An Khánh, Ninh Kiều, Cần Thơ","Phường An Khánh, Ninh Kiều",58 Đ. Tô Hiến Thành,Cần Thơ,,"Ninh Kiều, Cần Thơ",VN
301,ChIJ7wCjkhKIoDERYniB5S2Fbk8,Cửa Hàng Tạp Hóa Kha,Cửa hàng bách hóa,0919 763 978,"2QV6+783 Cửa Hàng Tạp Hóa Kha, Nguyễn Văn Cừ Nối Dài, Phường An Khánh, Ninh Kiều, Cần Thơ","Phường An Khánh, Ninh Kiều","2QV6+783, Nguyễn Văn Cừ Nối Dài",Cần Thơ,,"Ninh Kiều, Cần Thơ",VN
304,ChIJabXdRFuJoDER47StyW9WcoQ,BÁCH HÓA TRAI YEN,Cửa hàng tạp phẩm,0939 259 515,"2P9Q+245 BÁCH HÓA TRAI YEN, An Bình, Ninh Kiều, Cần Thơ","An Bình, Ninh Kiều",2P9Q+245,Cần Thơ,,"Ninh Kiều, Cần Thơ",VN
305,ChIJwajxXVGIoDERq8e1W3Euuk8,Tạp Hóa Ánh Tuyết,Cửa hàng tạp phẩm,,"2P9V+56C Tạp Hóa Ánh Tuyết, Đ. Hoàng Quốc Việt, An Bình, Ninh Kiều, Cần Thơ","An Bình, Ninh Kiều","2P9V+56C, Đ. Hoàng Quốc Việt",Cần Thơ,,"Ninh Kiều, Cần Thơ",VN
306,ChIJ7RWQObKJoDERDuEG5oBdOEg,Tạp Hóa Hiền,Cửa hàng tạp phẩm,,"2P5X+7HM Tạp Hóa Hiền, An Bình, Ninh Kiều, Cần Thơ","An Bình, Ninh Kiều",2P5X+7HM,Cần Thơ,,"Ninh Kiều, Cần Thơ",VN
307,ChIJvRbkOLKJoDERrYcX1S16ZOc,Cửa Hàng Tạp Hóa Lê Thị Kiều Oanh,Cửa hàng bách hóa,0772 365 225,"Cửa Hàng Tạp Hóa Lê Thị Kiều Oanh, Lô 41, Đường Lộ Vòng Cung, Phường An Bình, Quận Ninh Kiều, An Bình, Ninh Kiều, Cần Thơ","An Bình, Ninh Kiều","Lô 41, Đường Lộ Vòng Cung, Phường An Bình, Quận Ninh Kiều",Cần Thơ,,"Ninh Kiều, Cần Thơ",VN
308,ChIJBdwdlUuIoDERuL44uTFaKWs,Tạp Hóa Nhựt Trân,Cửa hàng bách hóa,,"2Q83+GHC Tạp Hóa Nhựt Trân, Hẻm 12 Đ. 3 Tháng 2, Hưng Lợi, Ninh Kiều, Cần Thơ","Hưng Lợi, Ninh Kiều","2Q83+GHC, Hẻm 12 Đ. 3 Tháng 2",Cần Thơ,,"Ninh Kiều, Cần Thơ",VN
309,ChIJ_8U2wrCJoDERnF1n56WiaUY,Tiệm tạp hoá cô trinh,Cửa hàng tạp phẩm,0772 024 578,"2Q32+8HV Tiệm tạp hoá cô trinh, Nguyễn Trãi, Lê Bình, Cái Răng, Cần Thơ","Lê Bình, Cái Răng","2Q32+8HV, Nguyễn Trãi",Cần Thơ,,"Cái Răng, Cần Thơ",VN
311,ChIJuY70H4eJoDER0tS6ioG6ZH4,Tạp hoá Bích thùy,Cửa hàng tổng hợp,0788 882 862,"Tạp hoá Bích thùy, Hẻm 112 Đ. 3 Tháng 2, Hưng Lợi, Ninh Kiều, Cần Thơ","Hưng Lợi, Ninh Kiều",Hẻm 112 Đ. 3 Tháng 2,Cần Thơ,,"Ninh Kiều, Cần Thơ",VN
313,ChIJyavVV8uJoDERTx_p1pzClnc,Tạp Hóa Thùy Lâm,Cửa hàng bách hóa,0907 234 542,"Tạp Hóa Thùy Lâm, 151/49/2B, Trần Hoàng Na, Phường Hưng Lợi, Quận Ninh Kiều, Thành Phố Cần Thơ, Hưng Lợi, Ninh Kiều, Cần Thơ","Hưng Lợi, Ninh Kiều","151/49/2B, Trần Hoàng Na, Phường Hưng Lợi, Quận Ninh Kiều, Thành Phố Cần Thơ",Cần Thơ,,"Ninh Kiều, Cần Thơ",VN
316,ChIJh-54fbyJoDERi0pa9YE9Qm0,TẠP HÓA SỐ 04,Cửa hàng tạp hóa,0292 3832 690,"2QPF+H84 TẠP HÓA SỐ 04, Nguyễn Cư Trinh, An Phú, Ninh Kiều, Cần Thơ","An Phú, Ninh Kiều","2QPF+H84, Nguyễn Cư Trinh",Cần Thơ,,"Ninh Kiều, Cần Thơ",VN
318,ChIJi_jZXSKIoDERezTWXXZtStE,Cửa Hàng Tạp Hóa 44,Cửa hàng tạp hóa,0292 3830 379,"Cửa Hàng Tạp Hóa 44, 44 Đ. 3 Tháng 2, An Phú, Ninh Kiều, Cần Thơ","An Phú, Ninh Kiều",44 Đ. 3 Tháng 2,Cần Thơ,,"Ninh Kiều, Cần Thơ",VN
319,ChIJewzx2B-IoDERT7D8eTV6CiU,Cửa Hàng Tạp Hóa Quế Vân,Cửa hàng tạp hóa,,"Cửa Hàng Tạp Hóa Quế Vân, 65 Đ. Đề Thám, Tân An, Ninh Kiều, Cần Thơ","Tân An, Ninh Kiều",65 Đ. Đề Thám,Cần Thơ,,"Ninh Kiều, Cần Thơ",VN
320,ChIJj_CJbiCIoDERF1YGBSa25e0,Thái Hòa,Hiệu thuốc,,"2QJJ+9FJ Thái Hòa, An Lạc, Ninh Kiều, Cần Thơ","An Lạc, Ninh Kiều",2QJJ+9FJ,Cần Thơ,,"Ninh Kiều, Cần Thơ",VN
321,ChIJFSh3IaJioDERbTF9nTSaVCw,Cửa Hàng Tạp Hoá Nám,Cửa hàng bách hóa,0292 3828 198,"Cửa Hàng Tạp Hoá Nám, 50 Đường Hai Bà Trưng, Tân An, Ninh Kiều, Cần Thơ","Tân An, Ninh Kiều",50 Đường Hai Bà Trưng,Cần Thơ,,"Ninh Kiều, Cần Thơ",VN
322,ChIJ8TbxWp9ioDERZQ_917yzXCY,Cửa Hàng Tạp Hóa Lý Nhạn Yến,Cửa hàng bách hóa,0764 033 247,"Cửa Hàng Tạp Hóa Lý Nhạn Yến, 56 Phan Bội Châu, Tân An, Ninh Kiều, Cần Thơ","Tân An, Ninh Kiều",56 Phan Bội Châu,Cần Thơ,,"Ninh Kiều, Cần Thơ",VN
323,ChIJeV0rl59ioDER_K1QawqzjXQ,Thuan Food Grocery Store,Siêu thị,0292 3830 934,"Thuan Food Grocery Store, 114 Đường Châu Văn Liêm, Tân An, Ninh Kiều, Cần Thơ","Tân An, Ninh Kiều",114 Đường Châu Văn Liêm,Cần Thơ,,"Ninh Kiều, Cần Thơ",VN
324,ChIJfSFlcfyHoDEROjNG6pQyCQQ,TAP HOA NHANH A8-19 ĐƯờng Số 1 Khu dân cư Hoang Quan,Cửa hàng tạp hóa,,"TAP HOA NHANH A8-19 ĐƯờng Số 1 Khu dân cư Hoang Quan, KDC HOANG QUÂN, 19 Đường số 1, Cái Khế, Ninh Kiều, Cần Thơ","Cái Khế, Ninh Kiều","KDC HOANG QUÂN, 19 Đường số 1",Cần Thơ,,"Ninh Kiều, Cần Thơ",VN
325,ChIJZbaqoROJoDERwGAJRID4NHI,Hoa Tươi Cần Thơ Mật,Cửa hàng,0931 762 667,"Hoa Tươi Cần Thơ Mật, 42 Ngô Thì Nhậm, Phường An Khánh, Ninh Kiều, Cần Thơ","Phường An Khánh, Ninh Kiều",42 Ngô Thì Nhậm,Cần Thơ,,"Ninh Kiều, Cần Thơ",VN
326,ChIJAYmTX9SHoDERZEuDLMM2Jjo,SHOP HOA BIBO,Cửa hàng hoa,,"SHOP HOA BIBO, 386/10 (hẻm Việt Úc), khu vực 3, Đ. Cách Mạng Tháng 8, P, Bình Thủy, Cần Thơ","P, Bình Thủy","386/10 (hẻm Việt Úc), khu vực 3, Đ. Cách Mạng Tháng 8",Cần Thơ,,"Bình Thủy, Cần Thơ",VN
327,ChIJb_6erV9joDERj-DL3H6CsPs,Tiệm hoa Elligarden,Cửa hàng hoa,0972 385 920,"Tiệm hoa Elligarden, 81 Đ. Trương Định, Tân An, Ninh Kiều, Cần Thơ","Tân An, Ninh Kiều",81 Đ. Trương Định,Cần Thơ,,"Ninh Kiều, Cần Thơ",VN
329,ChIJ-cXkqBuIoDERVEPsyAsrcE0,Cửa Hàng Hoa Voan Thiên Hoa,Cửa hàng hoa,0292 3826 368,"Cửa Hàng Hoa Voan Thiên Hoa, 132/42/8, Hùng Vương, Phường Thới Bình, Quận Ninh Kiều, Thành Phố Cần Thơ, An Nghiệp, Ninh Kiều, Cần Thơ","An Nghiệp, Ninh Kiều","132/42/8, Hùng Vương, Phường Thới Bình, Quận Ninh Kiều, Thành Phố Cần Thơ",Cần Thơ,,"Ninh Kiều, Cần Thơ",VN
331,ChIJq6qqqq5ioDERI13VK6A2YNE,Cửa Hàng Tạp Hóa Chúc,Cửa hàng bách hóa,0902 359 342,"Cửa Hàng Tạp Hóa Chúc, Kios 25, Nhà Lồng 3, Trung Tâm Thương Mại Cái Khế, Phường Cái Khế, Quận Ninh Kiều, Thành Phố Cần Thơ, Cái Khế, Ninh Kiều, Cần Thơ","Cái Khế, Ninh Kiều","Kios 25, Nhà Lồng 3, Trung Tâm Thương Mại Cái Khế, Phường Cái Khế, Quận Ninh Kiều, Thành Phố Cần Thơ",Cần Thơ,,"Ninh Kiều, Cần Thơ",VN
340,ChIJR2RVMZeJoDER0kFXi-dG14w,Thanh Flower - Shop Hoa Tươi Cần Thơ,Cửa hàng hoa,0292 3745 169,"Thanh Flower - Shop Hoa Tươi Cần Thơ, 117 Đ. 30 Tháng 4, An Lạc, Ninh Kiều, Cần Thơ","An Lạc, Ninh Kiều",117 Đ. 30 Tháng 4,Cần Thơ,,"Ninh Kiều, Cần Thơ",VN
341,ChIJl9wgnBuIoDERsslJPb2Uc4Y,Tạp Hoá 54,Cửa hàng bách hóa,0292 3835 053,"Tạp Hoá 54, 42/80 Hùng Vương, An Cư, Ninh Kiều, Cần Thơ","An Cư, Ninh Kiều",42/80 Hùng Vương,Cần Thơ,,"Ninh Kiều, Cần Thơ",VN
342,ChIJiy21kRuIoDERzOyWRd_jIOc,Cửa Hàng Tạp Hóa Quang Lê,Cửa hàng bách hóa,0292 3832 639,"Cửa Hàng Tạp Hóa Quang Lê, 63 Đ. Huỳnh Thúc Kháng, An Cư, Ninh Kiều, Cần Thơ","An Cư, Ninh Kiều",63 Đ. Huỳnh Thúc Kháng,Cần Thơ,,"Ninh Kiều, Cần Thơ",VN
343,ChIJfcfWeRyIoDEReutGG5YJgYI,Cửa Hàng Tạp Hóa Xuân Chi,Cửa hàng bách hóa,,"Cửa Hàng Tạp Hóa Xuân Chi, 33 Đ. Huỳnh Thúc Kháng, An Cư, Ninh Kiều, Cần Thơ","An Cư, Ninh Kiều",33 Đ. Huỳnh Thúc Kháng,Cần Thơ,,"Ninh Kiều, Cần Thơ",VN
345,ChIJwyrpEACJoDEReODV0JtXoro,V Flower - Tiệm hoa tươi,Cửa hàng hoa,0976 369 898,"2QQ5+QJ V Flower - Tiệm hoa tươi, Đ. Nguyễn Tri Phương, Phường An Khánh, Ninh Kiều, Cần Thơ","Phường An Khánh, Ninh Kiều","2QQ5+QJ, Đ. Nguyễn Tri Phương",Cần Thơ,,"Ninh Kiều, Cần Thơ",VN
347,ChIJq6qqBw-IoDERYVHcG1DijHU,Cửa Hàng Hoa Kiểng Việt Dũng,Cửa hàng,0914 299 998,"Cửa Hàng Hoa Kiểng Việt Dũng, 94B Đ. Nguyễn Văn Cừ, An Hoà, Ninh Kiều, Cần Thơ","An Hoà, Ninh Kiều",94B Đ. Nguyễn Văn Cừ,Cần Thơ,,"Ninh Kiều, Cần Thơ",VN
348,ChIJbaVCTnyJoDERJMfTGJxWdlY,Cửa hàng vật tư hoa lan cây cảnh Phan Vũ,Cửa hàng hoa,0906 737 717,"Cửa hàng vật tư hoa lan cây cảnh Phan Vũ, 169 Đ. Đồng Văn Cống, An Thới, Bình Thủy, Cần Thơ","An Thới, Bình Thủy",169 Đ. Đồng Văn Cống,Cần Thơ,,"Bình Thủy, Cần Thơ",VN
350,ChIJq6qqBw-IoDERmBqpdMr__Nc,Cửa Hàng Tạp Hoá Minh Nhật,Cửa hàng bách hóa,0903 517 089,"Cửa Hàng Tạp Hoá Minh Nhật, 163G Đ. Nguyễn Văn Cừ, An Hoà, Ninh Kiều, Cần Thơ","An Hoà, Ninh Kiều",163G Đ. Nguyễn Văn Cừ,Cần Thơ,,"Ninh Kiều, Cần Thơ",VN
351,ChIJRZF_NU2JoDERRvXd3LfWOTo,TẠP HOÁ MAI TRINH,Cửa hàng tiện lợi,,"TẠP HOÁ MAI TRINH, 52 Đ. Võ Trường Toản, An Hoà, Ninh Kiều, Cần Thơ","An Hoà, Ninh Kiều",52 Đ. Võ Trường Toản,Cần Thơ,,"Ninh Kiều, Cần Thơ",VN
354,ChIJJ5bitv-JoDERuk-jaug-LDY,Cửa Hàng Thiên Hoa Sen,Cửa hàng tạp phẩm,0939 858 793,"Cửa Hàng Thiên Hoa Sen, 55 Đ. Số 2, KDC Thới Nhựt 1, Ninh Kiều, Cần Thơ","KDC Thới Nhựt 1, Ninh Kiều",55 Đ. Số 2,Cần Thơ,,"Ninh Kiều, Cần Thơ",VN
355,ChIJz_DSUGyIoDERVLyWtv2Wvkg,Công Ty TNHH Hóa Nông Âu Châu,Cửa hàng tổng hợp,0919 636 900,"Công Ty TNHH Hóa Nông Âu Châu, 57, Ngô Thì Nhậm, Phường An Khánh, Quận Ninh Kiều, Thành Phố Cần Thơ, Phường An Khánh, Ninh Kiều, Cần Thơ","Phường An Khánh, Ninh Kiều","57, Ngô Thì Nhậm, Phường An Khánh, Quận Ninh Kiều, Thành Phố Cần Thơ",Cần Thơ,,"Ninh Kiều, Cần Thơ",VN
356,ChIJc0lbduWJoDERUR6GVDxTYrk,tạp hóa Năm Lợi,Cửa hàng tạp hóa,0292 3831 770,"tạp hóa Năm Lợi, 36 Đ. Nguyễn Tri Phương, Phường An Khánh, Ninh Kiều, Cần Thơ","Phường An Khánh, Ninh Kiều",36 Đ. Nguyễn Tri Phương,Cần Thơ,,"Ninh Kiều, Cần Thơ",VN
357,ChIJXdEW9L6JoDERKOggJD0apdM,Tạp Hoá Suka,Cửa hàng tổng hợp,0936 788 730,"Tạp Hoá Suka, 33 Đ.Số 4, Phường An Khánh, Ninh Kiều, Cần Thơ","Phường An Khánh, Ninh Kiều",33 Đ.Số 4,Cần Thơ,,"Ninh Kiều, Cần Thơ",VN
358,ChIJvZwGITWJoDERZdgZzwMvk1E,Nhà Trọ SV TRẦN KIM HOA,Cửa hàng tạp phẩm,0918 062 437,"Nhà Trọ SV TRẦN KIM HOA, số 220 - Đ, Đ. Phan Huy Chú, KDC Thới Nhựt 1, Ninh Kiều, Cần Thơ","KDC Thới Nhựt 1, Ninh Kiều","số 220 - Đ, Đ. Phan Huy Chú",Cần Thơ,,"Ninh Kiều, Cần Thơ",VN
359,ChIJAchnkmuIoDERI0mMIJtHw3g,Cửa Hàng Tạp Hóa Thanh Hiền,Cửa hàng bách hóa,0935 116 201,"Cửa Hàng Tạp Hóa Thanh Hiền, Chợ phường An Khánh, Đường 18, Ninh Kiều, Cần Thơ","Đường 18, Ninh Kiều",Chợ phường An Khánh,Cần Thơ,,"Ninh Kiều, Cần Thơ",VN
360,ChIJQ5SQxzGJoDER-zEMP91pLQo,Tạp Hoá Thành Đạt,Cửa hàng tạp phẩm,,"Tạp Hoá Thành Đạt, 130B/5 Nguyễn Văn Cừ Nối Dài, Phường An Khánh, Ninh Kiều, Cần Thơ 900000","Phường An Khánh, Ninh Kiều",130B/5 Nguyễn Văn Cừ Nối Dài,Cần Thơ,900000.0,"Ninh Kiều, Cần Thơ",VN
361,ChIJA62Je2uIoDERusfokfOq8CY,Cửa Hàng Tạp Hoá Thanh Nga,Cửa hàng bách hóa,0292 3812 577,"Cửa Hàng Tạp Hoá Thanh Nga, 14B, Đường 27, Khu Vực 4, Thới Nhựt, Phường An Khánh, Quận Ninh Kiều, Thành Phố Cần Thơ, Phường An Khánh, Ninh Kiều, Cần Thơ","Phường An Khánh, Ninh Kiều","14B, Đường 27, Khu Vực 4, Thới Nhựt, Phường An Khánh, Quận Ninh Kiều, Thành Phố Cần Thơ",Cần Thơ,,"Ninh Kiều, Cần Thơ",VN
362,ChIJj7EZbWyIoDERwBH2Afd2GX8,Công Ty TNHH MTV Hóa Nông Việt Ấn,Cửa hàng tổng hợp,0292 6299 002,"Công Ty TNHH MTV Hóa Nông Việt Ấn, Khu Dân Cư An Khánh, 61, Đường 16, Phường An Khánh, Quận Ninh Kiều, Thành Phố Cần Thơ, Phường An Khánh, Ninh Kiều, Cần Thơ","Phường An Khánh, Ninh Kiều","Khu Dân Cư An Khánh, 61, Đường 16, Phường An Khánh, Quận Ninh Kiều, Thành Phố Cần Thơ",Cần Thơ,,"Ninh Kiều, Cần Thơ",VN
365,ChIJSXjuNSaJoDERZOujdkHIJug,Tạp hóa Hồng Hạnh,Cửa hàng tạp phẩm,,"2PCR+CPC Tạp hóa Hồng Hạnh, Đ. Hoàng Quốc Việt, An Bình, Ninh Kiều, Cần Thơ","An Bình, Ninh Kiều","2PCR+CPC, Đ. Hoàng Quốc Việt",Cần Thơ,,"Ninh Kiều, Cần Thơ",VN
366,ChIJCToHvVqIoDERq81PCDFL_yo,Tạp Hóa 737,Cửa hàng bách hóa,0937 471 676,"Tạp Hóa 737, 237 Nguyễn Văn Cừ Nối Dài, Phường An Khánh, Ninh Kiều, Cần Thơ","Phường An Khánh, Ninh Kiều",237 Nguyễn Văn Cừ Nối Dài,Cần Thơ,,"Ninh Kiều, Cần Thơ",VN
367,ChIJfTfoNEWIoDERkhrzHFqP6G0,Tạp hóa Anh Thư,Cửa hàng tạp hóa,,"2PGW+2QQ Tạp hóa Anh Thư, Đường số 3, An Bình, Ninh Kiều, Cần Thơ","An Bình, Ninh Kiều","2PGW+2QQ, Đường số 3",Cần Thơ,,"Ninh Kiều, Cần Thơ",VN
368,ChIJ37vC31KIoDERWWtttGbxmIw,Tạp Hoá Minh Quang,Cửa hàng bách hóa,0706 962 686,"Tạp Hoá Minh Quang, 247K, Khu Vực 4, Hoàng Quốc Việt, Phường An Bình, Quận Ninh Kiều, Thành Phố Cần Thơ, An Bình, Ninh Kiều, Cần Thơ","An Bình, Ninh Kiều","247K, Khu Vực 4, Hoàng Quốc Việt, Phường An Bình, Quận Ninh Kiều, Thành Phố Cần Thơ",Cần Thơ,,"Ninh Kiều, Cần Thơ",VN
369,ChIJu5AzJ1OIoDERyGAvXgsvzQw,Tạp Hoá Bảo Trân,Cửa hàng bách hóa,0945 148 260,"Tạp Hoá Bảo Trân, 315D/9, Khu Vực 4, Hoàng Quốc Việt, Phường An Bình, Quận Ninh Kiều, Thành Phố Cần Thơ, An Bình, Ninh Kiều, Cần Thơ","An Bình, Ninh Kiều","315D/9, Khu Vực 4, Hoàng Quốc Việt, Phường An Bình, Quận Ninh Kiều, Thành Phố Cần Thơ",Cần Thơ,,"Ninh Kiều, Cần Thơ",VN
370,ChIJI0uFKzaJoDERz9qEbYvPTi8,Đại lý Bia Hội quán,Cửa hàng bia,0989 577 460,"Đại lý Bia Hội quán, 311AA, Nguyễn Văn Cừ Nối Dài, An Bình, Ninh Kiều, Cần Thơ","An Bình, Ninh Kiều","311AA, Nguyễn Văn Cừ Nối Dài",Cần Thơ,,"Ninh Kiều, Cần Thơ",VN
372,ChIJx4dVV7qJoDERFDfC3FDnJ5I,Shop Hoa Tươi Tường Vy,Cửa hàng hoa,0961 202 433,"Shop Hoa Tươi Tường Vy, 165 QL1A, Lê Bình, Cái Răng, Cần Thơ","Lê Bình, Cái Răng",165 QL1A,Cần Thơ,,"Cái Răng, Cần Thơ",VN
373,ChIJz-C2fruJoDERaeNN7N8-jvM,Cửa Hàng Hoa Tươi Mỹ Trang,Cửa hàng hoa,0292 3887 997,"Cửa Hàng Hoa Tươi Mỹ Trang, 165 Đ. Phạm Hùng, Lê Bình, Cái Răng, Cần Thơ 900000","Lê Bình, Cái Răng",165 Đ. Phạm Hùng,Cần Thơ,900000.0,"Cái Răng, Cần Thơ",VN
375,ChIJkfBUCaGJoDERbB_PEau9mBU,Tạp Hóa Khiêm,Cửa hàng tạp hóa,,"Tạp Hóa Khiêm, 396B/11 Nguyễn Văn Trường, An Bình, Ninh Kiều, Cần Thơ","An Bình, Ninh Kiều",396B/11 Nguyễn Văn Trường,Cần Thơ,,"Ninh Kiều, Cần Thơ",VN
376,ChIJo3ZSP7KJoDERkJyLSBEx_cg,Bách Hóa Hoa Phượng,Cửa hàng tạp hóa,0917 826 693,"Bách Hóa Hoa Phượng, 4 Lộ Vòng Cung, An Bình, Ninh Kiều, Cần Thơ","An Bình, Ninh Kiều",4 Lộ Vòng Cung,Cần Thơ,,"Ninh Kiều, Cần Thơ",VN
380,ChIJayFMprGJoDERljWbpY_E_Lg,Cửa Hàng Tạp Hóa Minh Yên,Cửa hàng bách hóa,0292 2243 264,"Cửa Hàng Tạp Hóa Minh Yên, 126 Võ Tánh, Lê Bình, Cái Răng, Cần Thơ","Lê Bình, Cái Răng",126 Võ Tánh,Cần Thơ,,"Cái Răng, Cần Thơ",VN
381,ChIJdRGa8YCJoDERssvjmU7T-oY,Tạp hóa Trinh,Cửa hàng tạp phẩm,,"Tạp hóa Trinh, 4 Đ. Trần Vĩnh Kiết, An Bình, Ninh Kiều, Cần Thơ","An Bình, Ninh Kiều",4 Đ. Trần Vĩnh Kiết,Cần Thơ,,"Ninh Kiều, Cần Thơ",VN
382,ChIJwV1fXLOJoDERvjN0hJ4NklQ,Cơ Sở Đá Hoa Cương Hoàng Phúc,Cửa hàng vật liệu xây dựng,0942 458 246,"Cơ Sở Đá Hoa Cương Hoàng Phúc, 32 Đ. 3 Tháng 2, An Bình, Ninh Kiều, Cần Thơ","An Bình, Ninh Kiều",32 Đ. 3 Tháng 2,Cần Thơ,,"Ninh Kiều, Cần Thơ",VN
384,ChIJv0ryXFuJoDERDDsFjhLi3YU,"Shop chuyên sỉ Mỹ Phẩm & Nước Hoa "" Nguyễn Xứng""",Cửa hàng mỹ phẩm,0939 222 388,"Shop chuyên sỉ Mỹ Phẩm & Nước Hoa "" Nguyễn Xứng"", 32/1 Đường 3 tháng 2 nối dài, An Bình, Ninh Kiều, Cần Thơ","An Bình, Ninh Kiều",32/1 Đường 3 tháng 2 nối dài,Cần Thơ,,"Ninh Kiều, Cần Thơ",VN
385,ChIJZ3taI7GJoDER42o4tZEM0k0,Trieu Dan Grocery Store,Cửa hàng bách hóa,0292 3846 886,"Trieu Dan Grocery Store, 54/3 Hàm Nghi, Lê Bình, Cái Răng, Cần Thơ","Lê Bình, Cái Răng",54/3 Hàm Nghi,Cần Thơ,,"Cái Răng, Cần Thơ",VN
387,ChIJt69-3juIoDERLL2LKOf5IRo,Shop Hoa Nq House Flower Boutique,Cửa hàng hoa,,"Shop Hoa Nq House Flower Boutique, An Khánh, Ninh Kiều, Cần Thơ","An Khánh, Ninh Kiều",,Cần Thơ,,"Ninh Kiều, Cần Thơ",VN
388,ChIJCSpeOQCJoDERB4q6uYiPp0g,Tạp hóa 68,Cửa hàng tạp phẩm,,"Tạp hóa 68, 44 Đ. Số 2, Khu dân cư Metro, Ninh Kiều, Cần Thơ","Khu dân cư Metro, Ninh Kiều",44 Đ. Số 2,Cần Thơ,,"Ninh Kiều, Cần Thơ",VN
389,ChIJd0F2QziIoDER8xSTgDC7xwU,Công Ty TNHH Thương Mại Dịch Vụ Hoa Phú,Cửa hàng vật liệu xây dựng,0913 252 251,"Công Ty TNHH Thương Mại Dịch Vụ Hoa Phú, 31 Đ. Nguyễn Văn Linh, Hưng Lợi, Ninh Kiều, Cần Thơ","Hưng Lợi, Ninh Kiều",31 Đ. Nguyễn Văn Linh,Cần Thơ,,"Ninh Kiều, Cần Thơ",VN
390,ChIJLyiXKoKJoDERF2fIj0u_gZY,Nhà Trọ Tạp Hoá Trạng Nguyên,Cửa hàng tạp hóa,0947 434 542,"Nhà Trọ Tạp Hoá Trạng Nguyên, 29 Đ. 3 Tháng 2, Hưng Lợi, Ninh Kiều, Cần Thơ","Hưng Lợi, Ninh Kiều",29 Đ. 3 Tháng 2,Cần Thơ,,"Ninh Kiều, Cần Thơ",VN
391,ChIJhWMxfSGJoDERi_YnyF5-G_Q,Tạp hoá Yến Nhi,Cửa hàng tạp hóa,,"Tạp hoá Yến Nhi, 26 Đ. A3, Phường An Khánh, Ninh Kiều, Cần Thơ","Phường An Khánh, Ninh Kiều",26 Đ. A3,Cần Thơ,,"Ninh Kiều, Cần Thơ",VN
392,ChIJWUmr1PaJoDERWvynSKBwGck,Tạp Hóa A Luân,Cửa hàng tạp phẩm,,"2Q95+42G Tạp Hóa A Luân, Hưng Lợi, Ninh Kiều, Cần Thơ","Hưng Lợi, Ninh Kiều",2Q95+42G,Cần Thơ,,"Ninh Kiều, Cần Thơ",VN
393,ChIJkYMS0TWIoDER8gNnv2JvDtM,Cửa Hàng Đá Hoa Cương Phú Tài,Cửa hàng vật liệu xây dựng,0292 3739 598,"Cửa Hàng Đá Hoa Cương Phú Tài, 107 Đ. 3 Tháng 2, Hưng Lợi, Ninh Kiều, Cần Thơ","Hưng Lợi, Ninh Kiều",107 Đ. 3 Tháng 2,Cần Thơ,,"Ninh Kiều, Cần Thơ",VN
394,ChIJAQzMhjaIoDERGCv9Qjb-bgc,Tạp Hóa Trâm,Cửa hàng bách hóa,,"Tạp Hóa Trâm, 127 Đ. 3 Tháng 2, Hưng Lợi, Ninh Kiều, Cần Thơ","Hưng Lợi, Ninh Kiều",127 Đ. 3 Tháng 2,Cần Thơ,,"Ninh Kiều, Cần Thơ",VN
395,ChIJ_3uEtMaJoDERJFtsFeJ8L_Q,Bách Hóa Tổng Hợp Linh,Cửa hàng,0939 998 500,"Bách Hóa Tổng Hợp Linh, 10 Đ. Nguyễn Văn Linh, Phường An Khánh, Ninh Kiều, Cần Thơ","Phường An Khánh, Ninh Kiều",10 Đ. Nguyễn Văn Linh,Cần Thơ,,"Ninh Kiều, Cần Thơ",VN
396,ChIJrbHL5TWIoDERFGBo8T9n4Q0,Tạp Hóa Bạch Nguyệt,Cửa hàng bách hóa,0292 3838 787,"Tạp Hóa Bạch Nguyệt, 102/4 Đ. 3 Tháng 2, Hưng Lợi, Ninh Kiều, Cần Thơ","Hưng Lợi, Ninh Kiều",102/4 Đ. 3 Tháng 2,Cần Thơ,,"Ninh Kiều, Cần Thơ",VN
397,ChIJQ7mKLjCIoDERQl0j8boh6wE,Tiệm Hoa Song Vũ,Cửa hàng hoa,0973 142 938,"Tiệm Hoa Song Vũ, 32 Đ. Trần Ngọc Quế, Xuân Khánh, Ninh Kiều, Cần Thơ","Xuân Khánh, Ninh Kiều",32 Đ. Trần Ngọc Quế,Cần Thơ,,"Ninh Kiều, Cần Thơ",VN
401,ChIJwWG9_DOIoDERHfDb5M787lI,Cửa Hàng Tạp Hóa 186,Cửa hàng tạp hóa,0292 3740 170,"Cửa Hàng Tạp Hóa 186, 186 Đ. 30 Tháng 4, Hưng Lợi, Ninh Kiều, Cần Thơ","Hưng Lợi, Ninh Kiều",186 Đ. 30 Tháng 4,Cần Thơ,,"Ninh Kiều, Cần Thơ",VN
402,ChIJfWBpRbWJoDEREoIM9k_BuhQ,Tiệm Hoa Ngũ Châu,Cửa hàng bán thảm,0292 2463 889,"Tiệm Hoa Ngũ Châu, 290, Quốc Lộ 1A, Quận Cái Răng, Hưng Lợi, Ninh Kiều, Cần Thơ","Hưng Lợi, Ninh Kiều","290, Quốc Lộ 1A, Quận Cái Răng",Cần Thơ,,"Ninh Kiều, Cần Thơ",VN
403,ChIJs0Sk_TSIoDERRabsauW1i2U,Cửa Hàng Tạp Hóa Đặng Thị Ngọc Yến,Cửa hàng bách hóa,0937 892 446,"Cửa Hàng Tạp Hóa Đặng Thị Ngọc Yến, 147, Đường 30 Tháng 4, Phường Hưng Lợi, Quận Ninh Kiều, Hưng Lợi, Ninh Kiều, Cần Thơ","Hưng Lợi, Ninh Kiều","147, Đường 30 Tháng 4, Phường Hưng Lợi, Quận Ninh Kiều",Cần Thơ,,"Ninh Kiều, Cần Thơ",VN
405,ChIJ7yyuo12JoDERvmAkaAe6cgQ,Tạp Hoá Cô Uyên,Cửa hàng quần áo,0907 591 553,"Tạp Hoá Cô Uyên, 117 Hẻm 132 Đ. 3 Tháng 2, Hưng Lợi, Ninh Kiều, Cần Thơ","Hưng Lợi, Ninh Kiều",117 Hẻm 132 Đ. 3 Tháng 2,Cần Thơ,,"Ninh Kiều, Cần Thơ",VN
407,ChIJDf7BlJiJoDERiHSNux5f98U,Công ty TNHH Xuất Nhập Khẩu HOÀ PHÁT 3/2 HP,Đại lý xe gắn máy,0907 101 175,"Công ty TNHH Xuất Nhập Khẩu HOÀ PHÁT 3/2 HP, 3/2, Cần Thơ","Hưng Lợi, Ninh Kiều",3/2,Cần Thơ,,"Ninh Kiều, Cần Thơ",VN
408,ChIJ--HP6kqIoDERVasJpgdKVbE,Cửa Hàng Tạp Hóa Khương Thị Hạnh,Cửa hàng bách hóa,0777 270 818,"Cửa Hàng Tạp Hóa Khương Thị Hạnh, 38/18, Đường 3 Tháng 2, Phường Hưng Lợi, Quận Ninh Kiều, Hưng Lợi, Ninh Kiều, Cần Thơ","Hưng Lợi, Ninh Kiều","38/18, Đường 3 Tháng 2, Phường Hưng Lợi, Quận Ninh Kiều",Cần Thơ,,"Ninh Kiều, Cần Thơ",VN
409,ChIJ8_cKmUqIoDER0BOj9g9h5jU,Cửa Hàng Đá Hoa Cương Kim Thành Phát,Cửa hàng vật liệu xây dựng,0919 099 294,"Cửa Hàng Đá Hoa Cương Kim Thành Phát, 51 Hẻm 132 Đ. 3 Tháng 2, Hưng Lợi, Ninh Kiều, Cần Thơ","Hưng Lợi, Ninh Kiều",51 Hẻm 132 Đ. 3 Tháng 2,Cần Thơ,,"Ninh Kiều, Cần Thơ",VN
410,ChIJURGySTeIoDERC_vZjcJuSuc,Tiệm Tạp Hóa Ngọc Thành,Cửa hàng bách hóa,0292 3782 578,"Tiệm Tạp Hóa Ngọc Thành, 2 Đ. Nguyễn Văn Linh, Hưng Lợi, Ninh Kiều, Cần Thơ","Hưng Lợi, Ninh Kiều",2 Đ. Nguyễn Văn Linh,Cần Thơ,,"Ninh Kiều, Cần Thơ",VN
412,ChIJEe7kT7WJoDERKvDLI3jdJEI,Cửa Hàng Tạp Hoá Toàn Tâm,Cửa hàng bách hóa,0292 3838 192,"Cửa Hàng Tạp Hoá Toàn Tâm, 59A, Đường 30/4, Quận Ninh Kiều, Tp Cần Thơ, Hưng Lợi, Ninh Kiều, Cần Thơ","Hưng Lợi, Ninh Kiều","59A, Đường 30/4, Quận Ninh Kiều, Tp Cần Thơ",Cần Thơ,,"Ninh Kiều, Cần Thơ",VN
413,ChIJI5n2wkqIoDERc858x6-YWZ0,Tiệm Tạp Hóa Thới Hưng,Cửa hàng bách hóa,0292 3781 923,"Tiệm Tạp Hóa Thới Hưng, 36E, Đường 3/2, Quận Ninh Kiều, TP Cần Thơ, Hưng Lợi, Ninh Kiều, Cần Thơ","Hưng Lợi, Ninh Kiều","36E, Đường 3/2, Quận Ninh Kiều, TP Cần Thơ",Cần Thơ,,"Ninh Kiều, Cần Thơ",VN
414,ChIJH3MUrzKIoDERqlLNUmN4M_I,Nhà Trọ - Tạp Hóa Huỳnh Hà,Cửa hàng,0292 3839 422,"Nhà Trọ - Tạp Hóa Huỳnh Hà, 202 Tầm Vu, Hưng Lợi, Ninh Kiều, Cần Thơ","Hưng Lợi, Ninh Kiều",202 Tầm Vu,Cần Thơ,,"Ninh Kiều, Cần Thơ",VN
421,ChIJO8pIAq-JoDERGi1FfM8LiHw,TIỆM TẠP HÓA CÔ HÍ,Cửa hàng quà tặng,0794 315 161,"TIỆM TẠP HÓA CÔ HÍ, 68 Hẻm Lò Mổ, Xuân Khánh, Ninh Kiều, Cần Thơ","Xuân Khánh, Ninh Kiều",68 Hẻm Lò Mổ,Cần Thơ,,"Ninh Kiều, Cần Thơ",VN
422,ChIJRzXjYTuIoDERr5AMgFXK7ac,Tạp Hóa Hoàng Nhanh,Cửa hàng bách hóa,,"Tạp Hóa Hoàng Nhanh, Xuân Khánh, Ninh Kiều, Cần Thơ","Xuân Khánh, Ninh Kiều",,Cần Thơ,,"Ninh Kiều, Cần Thơ",VN
423,ChIJ2Utb4zqIoDER-q76cdeVo6U,Shop Hoa Vải Mỹ Kim,Cửa hàng hoa,0292 3821 380,"Shop Hoa Vải Mỹ Kim, 164 Đ. Trần Ngọc Quế, Xuân Khánh, Ninh Kiều, Cần Thơ","Xuân Khánh, Ninh Kiều",164 Đ. Trần Ngọc Quế,Cần Thơ,,"Ninh Kiều, Cần Thơ",VN
427,ChIJwX6FX6BioDER6Bt7b6ZX9TA,Cửa Hàng Bách Hóa Thảo Lâm,Cửa hàng tạp phẩm,,"Cửa Hàng Bách Hóa Thảo Lâm, 12 Đ. Nguyễn Khuyến, Tân An, Ninh Kiều, Cần Thơ","Tân An, Ninh Kiều",12 Đ. Nguyễn Khuyến,Cần Thơ,,"Ninh Kiều, Cần Thơ",VN
428,ChIJpzyy8CqJoDERgWOAj8-7fNs,TIỆM TẠP HÓA BÁNH BAO NHỎ YÊN,Cửa hàng tổng hợp,0763 823 807,"TIỆM TẠP HÓA BÁNH BAO NHỎ YÊN, 85 Đ. Đề Thám, Tân An, Ninh Kiều, Cần Thơ","Tân An, Ninh Kiều",85 Đ. Đề Thám,Cần Thơ,,"Ninh Kiều, Cần Thơ",VN
430,ChIJxeG9-KFioDERD7mZGRLZ6yY,Cửa Hàng Tạp Hóa Trần Thị Em,Cửa hàng bách hóa,0856 091 011,"Cửa Hàng Tạp Hóa Trần Thị Em, 1 Đ. Tân Trào, Tân An, Ninh Kiều, Cần Thơ","Tân An, Ninh Kiều",1 Đ. Tân Trào,Cần Thơ,,"Ninh Kiều, Cần Thơ",VN
431,ChIJy4xmEqBioDERUZcUNRBCjKQ,Ngoc Hoa Repairs Store,Cửa hàng,0913 706 018,"Ngoc Hoa Repairs Store, 31 Đ. Nguyễn Khuyến, Tân An, Ninh Kiều, Cần Thơ","Tân An, Ninh Kiều",31 Đ. Nguyễn Khuyến,Cần Thơ,,"Ninh Kiều, Cần Thơ",VN
432,ChIJy07l9M6JoDERmUuubdaq1-M,Shop Hoa Tươi Linh Đan Cần Thơ,Cửa hàng,,"3Q3F+Q6J Shop Hoa Tươi Linh Đan Cần Thơ, Hẻm 68 Cách Mạng Tháng Tám, Cái Khế, Ninh Kiều, Cần Thơ","Cái Khế, Ninh Kiều","3Q3F+Q6J, Hẻm 68 Cách Mạng Tháng Tám",Cần Thơ,,"Ninh Kiều, Cần Thơ",VN
433,ChIJ2RYhv6ZioDER17RgJWRbWbo,Shop Hoa Tươi Những Chàng Trai,Cửa hàng hoa,,"Shop Hoa Tươi Những Chàng Trai, 7 Nguyễn Trãi, An Hội, Ninh Kiều, Cần Thơ","An Hội, Ninh Kiều",7 Nguyễn Trãi,Cần Thơ,,"Ninh Kiều, Cần Thơ",VN
434,ChIJg63J_aZioDERfOWvyoqtFKY,Tiệm Hoa Tươi,Cửa hàng hoa,,"Tiệm Hoa Tươi, 77 Nguyễn Trãi, An Hội, Ninh Kiều, Cần Thơ","An Hội, Ninh Kiều",77 Nguyễn Trãi,Cần Thơ,,"Ninh Kiều, Cần Thơ",VN
435,ChIJP7QXwAiIoDERqXTdN3JXMcg,Cửa Hàng Hoa Tươi 29,Cửa hàng hoa,0907 544 255,"Cửa Hàng Hoa Tươi 29, 29 Đ. Nguyễn Đệ, An Hoà, Ninh Kiều, Cần Thơ","An Hoà, Ninh Kiều",29 Đ. Nguyễn Đệ,Cần Thơ,,"Ninh Kiều, Cần Thơ",VN
436,ChIJddI2hAaIoDERRfpoLhGDxwI,Tiệm Hoa Tươi Kim Quyên,Cửa hàng hoa,0942 349 512,"Tiệm Hoa Tươi Kim Quyên, 168 Đ. Trần Việt Châu, An Hoà, Ninh Kiều, Cần Thơ","An Hoà, Ninh Kiều",168 Đ. Trần Việt Châu,Cần Thơ,,"Ninh Kiều, Cần Thơ",VN
437,ChIJ03YeGASIoDER-Vk6psfZduw,Cửa Hàng Hoa Tươi Bích Tuyền,Cửa hàng hoa,0949 041 104,"Cửa Hàng Hoa Tươi Bích Tuyền, 13 Đ. Trần Việt Châu, An Hoà, Ninh Kiều, Cần Thơ","An Hoà, Ninh Kiều",13 Đ. Trần Việt Châu,Cần Thơ,,"Ninh Kiều, Cần Thơ",VN
438,ChIJ23SKYCCIoDER1ILxE06Wwf8,Shop hoa tươi Cần Thơ - Ỷ Lan Hoa,Cửa hàng hoa,0911 015 015,"Shop hoa tươi Cần Thơ - Ỷ Lan Hoa, 31 Đ. 30 Tháng 4, An Lạc, Ninh Kiều, Cần Thơ","An Lạc, Ninh Kiều",31 Đ. 30 Tháng 4,Cần Thơ,,"Ninh Kiều, Cần Thơ",VN
439,ChIJCX76DAOJoDERgZSdtlYx53w,Hoa Chin,Cửa hàng hoa,,"Hoa Chin, 68 Đường số 14, Phường An Khánh, Ninh Kiều, Cần Thơ","Phường An Khánh, Ninh Kiều",68 Đường số 14,Cần Thơ,,"Ninh Kiều, Cần Thơ",VN
440,ChIJd3FsD6aJoDERqNahLwJ1-cI,Hoa Tươi Minh Cần Thơ,Cửa hàng hoa,0916 710 771,"Hoa Tươi Minh Cần Thơ, Phường An Khánh, Ninh Kiều, Cần Thơ","Phường An Khánh, Ninh Kiều",,Cần Thơ,,"Ninh Kiều, Cần Thơ",VN
441,ChIJTSiAvq2JoDERVrulccugXzI,Hoa Tươi Ngọc Diệp,Nhà thiết kế hoa,0969 995 678,"Hoa Tươi Ngọc Diệp, 84 Đ. Lý Tự Trọng, An Cư, Ninh Kiều, Cần Thơ","An Cư, Ninh Kiều",84 Đ. Lý Tự Trọng,Cần Thơ,,"Ninh Kiều, Cần Thơ",VN
442,ChIJqwywwB2JoDERdqfrUtA0wiU,Hoa tươi An,Cửa hàng hoa,,"Hoa tươi An, 49e Đ. Mạc Thiên Tích, Xuân Khánh, Ninh Kiều, Cần Thơ","Xuân Khánh, Ninh Kiều",49e Đ. Mạc Thiên Tích,Cần Thơ,,"Ninh Kiều, Cần Thơ",VN
443,ChIJORrAFy9joDERXotmxXUhixI,Hoa Tươi Huỳnh Thảo,Cửa hàng hoa,,"Hoa Tươi Huỳnh Thảo, Trần Văn Việt, Hưng Phú, Cái Răng, Cần Thơ","Hưng Phú, Cái Răng",Trần Văn Việt,Cần Thơ,,"Cái Răng, Cần Thơ",VN
444,ChIJX4P-Wv-HoDERT3suzxMRvT8,Cửa Hàng Đá Hoa Cương Thành Hải,Cửa hàng vật liệu xây dựng,0939 943 835,"Cửa Hàng Đá Hoa Cương Thành Hải, 295, Nguyễn Văn Cừ, Cồn Khương, Phường Cái Khế, Quận Ninh Kiều, Thành Phố Cần Thơ, Cái Khế, Ninh Kiều, Cần Thơ","Cái Khế, Ninh Kiều","295, Nguyễn Văn Cừ, Cồn Khương, Phường Cái Khế, Quận Ninh Kiều, Thành Phố Cần Thơ",Cần Thơ,,"Ninh Kiều, Cần Thơ",VN
445,ChIJdVxjHv6HoDERTffwsx7BXEA,Tạp Hóa Dũng,Cửa hàng bách hóa,,"Tạp Hóa Dũng, Cái Khế, Ninh Kiều, Cần Thơ","Cái Khế, Ninh Kiều",,Cần Thơ,,"Ninh Kiều, Cần Thơ",VN
446,ChIJBfi9DyqHoDERR3ewLHc8a6c,Tạp hóa bảo tâm,Cửa hàng tạp phẩm,,"3Q3G+XWJ Tạp hóa bảo tâm, Cái Khế, Ninh Kiều, Cần Thơ","Cái Khế, Ninh Kiều",3Q3G+XWJ,Cần Thơ,,"Ninh Kiều, Cần Thơ",VN
447,ChIJkYlXDFmHoDERHMxxWvobLBw,TẠP HOÁ CÔ HÍ,Cửa hàng tổng hợp,,"TẠP HOÁ CÔ HÍ, 22 Đ. Nguyễn Văn Cừ, Cái Khế, Ninh Kiều, Cần Thơ","Cái Khế, Ninh Kiều",22 Đ. Nguyễn Văn Cừ,Cần Thơ,,"Ninh Kiều, Cần Thơ",VN
448,ChIJR1bFGf6HoDERX1vsL73z_gs,Honda Hòa,Đại lý xe Honda,,"Honda Hòa, Cái Khế, Ninh Kiều, Cần Thơ","Cái Khế, Ninh Kiều",,Cần Thơ,,"Ninh Kiều, Cần Thơ",VN
449,ChIJ__-CVReIoDERpY2s4FwDf4o,Công Ty Tnhh Hoa Tươi Kim Hoàng,,,"Công Ty Tnhh Hoa Tươi Kim Hoàng, 95 A, 95a Đ. Mậu Thân, An Nghiệp, Ninh Kiều, Cần Thơ","An Nghiệp, Ninh Kiều","95 A, 95a Đ. Mậu Thân",Cần Thơ,,"Ninh Kiều, Cần Thơ",VN
450,ChIJi5oQQw6IoDERmDCTgJbdZK8,An Hòa,,,"An Hòa, Ninh Kiều, Cần Thơ","An Hòa, Ninh Kiều",,Cần Thơ,,"Ninh Kiều, Cần Thơ",VN
451,ChIJXQuhhgOIoDERK09nZnozsEQ,Shop Hoa tươi Hồ Điệp,Cửa hàng,0939 012 556,"Shop Hoa tươi Hồ Điệp, 206 Đ. Trần Việt Châu, An Hoà, Ninh Kiều, Cần Thơ 920000","An Hoà, Ninh Kiều",206 Đ. Trần Việt Châu,Cần Thơ,920000.0,"Ninh Kiều, Cần Thơ",VN
453,ChIJHYvBXgZjoDERC12Ddq9aMQA,Hoa Tươi Cần Thơ,Cửa hàng hoa,0946 461 515,"Hoa Tươi Cần Thơ, 81 Đ. Trương Định, Tân An, Ninh Kiều, Cần Thơ","Tân An, Ninh Kiều",81 Đ. Trương Định,Cần Thơ,,"Ninh Kiều, Cần Thơ",VN
454,ChIJt69IL6JioDERgIQc6_J-vd0,A Hoa Shop,Cửa hàng tạp phẩm,0901 066 888,"A Hoa Shop, 18 Đ. Thủ Khoa Huân, Tân An, Ninh Kiều, Cần Thơ","Tân An, Ninh Kiều",18 Đ. Thủ Khoa Huân,Cần Thơ,,"Ninh Kiều, Cần Thơ",VN
455,ChIJFZjxdpYSFGARL9uX8e2cqY8,Shop Hoa Tươi Quang Chiến,Cửa hàng hoa,0383 163 037,,,,,,,
457,ChIJ90mWDahioDERip0CitNJ6ls,Shop Hoa Tươi Cỏ Lạ,Cửa hàng hoa,0292 3762 924,"Shop Hoa Tươi Cỏ Lạ, 40 Trần Văn Khéo, An Hội, Ninh Kiều, Cần Thơ","An Hội, Ninh Kiều",40 Trần Văn Khéo,Cần Thơ,,"Ninh Kiều, Cần Thơ",VN
458,ChIJFTCI5QaIoDERpGMa76IG9gg,Shop Hoa Tươi Sen,Cửa hàng hoa,0292 6535 678,"Shop Hoa Tươi Sen, 57 Võ Văn Tần, Tân An, Ninh Kiều, Cần Thơ","Tân An, Ninh Kiều",57 Võ Văn Tần,Cần Thơ,,"Ninh Kiều, Cần Thơ",VN
459,ChIJpxaPQqdioDERt60e38zVdqo,Shop Hoa Tươi Hồng Ngọc,Cửa hàng hoa,0939 209 163,"Shop Hoa Tươi Hồng Ngọc, 55 Đ. Xô Viết Nghệ Tĩnh, An Hội, Ninh Kiều, Cần Thơ 900000","An Hội, Ninh Kiều",55 Đ. Xô Viết Nghệ Tĩnh,Cần Thơ,900000.0,"Ninh Kiều, Cần Thơ",VN
461,ChIJeZXapG-JoDERJ7QE2PYHuzg,Hoa Anh Thảo Flower Shop,Cửa hàng hoa,0799 690 017,"Hoa Anh Thảo Flower Shop, 148 Đường 30/04, P, Ninh Kiều, Cần Thơ 94100","P, Ninh Kiều",148 Đường 30/04,Cần Thơ,94100.0,"Ninh Kiều, Cần Thơ",VN
463,ChIJE7X6kKBioDER4VHoCWP4B5c,Cửa Hàng Hoa Đà Lạt,Cửa hàng hoa,0799 652 269,"Cửa Hàng Hoa Đà Lạt, 8 Hẻm 22 Đ. Mạc Đĩnh Chi, Tân An, Ninh Kiều, Cần Thơ","Tân An, Ninh Kiều",8 Hẻm 22 Đ. Mạc Đĩnh Chi,Cần Thơ,,"Ninh Kiều, Cần Thơ",VN
464,ChIJd_aqxYmJoDER_6hoWmtSRcE,HOA LAN VIỆT HÙNG,Cửa hàng hoa,,"HOA LAN VIỆT HÙNG, 42 Hùng Vương, An Hội, Ninh Kiều, Cần Thơ","An Hội, Ninh Kiều",42 Hùng Vương,Cần Thơ,,"Ninh Kiều, Cần Thơ",VN
466,ChIJJ2fkqgKIoDERAFxzv9d7eVE,Hoa,,,"Hoa, 49 Nguyễn Trãi, Thới Bình, Ninh Kiều, Cần Thơ","Thới Bình, Ninh Kiều",49 Nguyễn Trãi,Cần Thơ,,"Ninh Kiều, Cần Thơ",VN
468,ChIJiwllSZ9ioDEReN4OcA6WIB8,Cam Thi Flower Shop,Cửa hàng hoa,0988 154 164,"Cam Thi Flower Shop, 09 Đ. Phan Chu Trinh, Tân An, Ninh Kiều, Cần Thơ","Tân An, Ninh Kiều",09 Đ. Phan Chu Trinh,Cần Thơ,,"Ninh Kiều, Cần Thơ",VN
470,ChIJq6qqqq5ioDERK8JHHC36rIU,Cửa Hàng Tạp Hóa Nhẫn Thoa,Cửa hàng bách hóa,0292 3763 411,"Cửa Hàng Tạp Hóa Nhẫn Thoa, Kios 123, Nhà Lồng 3, Trung Tâm Thương Mại Cái Khế, Phường Cái Khế, Quận Ninh Kiều, Thành Phố Cần Thơ, Cái Khế, Ninh Kiều, Cần Thơ","Cái Khế, Ninh Kiều","Kios 123, Nhà Lồng 3, Trung Tâm Thương Mại Cái Khế, Phường Cái Khế, Quận Ninh Kiều, Thành Phố Cần Thơ",Cần Thơ,,"Ninh Kiều, Cần Thơ",VN
471,ChIJI_SHLWhjoDERItdRYn-ILlw,Tạp Hoá Hồng Thu,Cửa hàng tạp phẩm,,"Tạp Hoá Hồng Thu, 34 Sông Hậu, Cái Khế, Ninh Kiều, Cần Thơ","Cái Khế, Ninh Kiều",34 Sông Hậu,Cần Thơ,,"Ninh Kiều, Cần Thơ",VN
472,ChIJ8yQzNalioDERerzm3CoTWxg,Nhà Thuốc Hòa Đào,Hiệu thuốc,0292 3851 624,"Nhà Thuốc Hòa Đào, 168, Đường Lê Lợi, Phường Thốt Nốt, Quận Thốt Nốt, Cái Khế, Ninh Kiều, Cần Thơ","Cái Khế, Ninh Kiều","168, Đường Lê Lợi, Phường Thốt Nốt, Quận Thốt Nốt",Cần Thơ,,"Ninh Kiều, Cần Thơ",VN
473,ChIJs0fyRxefMU8RoKJZ4VRQVnY,Cửa Hàng Nước Hoa Charme Hải Hòa,Cửa hàng nước hoa,0918 143 128,,,,,,,
474,ChIJWT4o_aZioDERsyCSizL4XNc,Cửa Hàng Xe Máy Tín Hoà,Đại lý xe mô tô,7103821919,"Cửa Hàng Xe Máy Tín Hoà, 67C Nguyễn Trãi, Tân An, Ninh Kiều, Cần Thơ","Tân An, Ninh Kiều",67C Nguyễn Trãi,Cần Thơ,,"Ninh Kiều, Cần Thơ",VN
489,ChIJW5goC6lioDER55cPYJ3mpYw,Bạch Hoa Ngọc Trinh,Cửa hàng bách hóa,,"2QWP+W3Q Bạch Hoa Ngọc Trinh, Trần Quang Khải, Cái Khế, Ninh Kiều, Cần Thơ","Cái Khế, Ninh Kiều","2QWP+W3Q, Trần Quang Khải",Cần Thơ,,"Ninh Kiều, Cần Thơ",VN
495,ChIJVUO8EqhioDERYyU5YrvyXa0,Cửa Hàng Nước Hoa 168,Cửa hàng mỹ phẩm,0917 234 563,"Cửa Hàng Nước Hoa 168, 37 Trần Văn Khéo, An Hội, Ninh Kiều, Cần Thơ","An Hội, Ninh Kiều",37 Trần Văn Khéo,Cần Thơ,,"Ninh Kiều, Cần Thơ",VN
496,ChIJf70bYwKIoDERp_30y-0CNkg,Cửa Hàng Tạp Hóa 59,Cửa hàng bách hóa,0292 3823 153,"Cửa Hàng Tạp Hóa 59, 59 Trần Phú, Thới Bình, Ninh Kiều, Cần Thơ","Thới Bình, Ninh Kiều",59 Trần Phú,Cần Thơ,,"Ninh Kiều, Cần Thơ",VN
497,ChIJF_kAJqhioDER07t7lIlpqLY,Cửa Hàng Bách Hóa Quốc Tú,Cửa hàng bách hóa,7103813426,"Cửa Hàng Bách Hóa Quốc Tú, 89B1 Đ. Ung Văn Khiêm, An Hội, Ninh Kiều, Cần Thơ","An Hội, Ninh Kiều",89B1 Đ. Ung Văn Khiêm,Cần Thơ,,"Ninh Kiều, Cần Thơ",VN
499,ChIJt2KseIljoDERoInNR7qdbL4,tranh thêu HOA TAY VIET,Cửa hàng,,"tranh thêu HOA TAY VIET, 158 Trần Phú, Cái Khế, Ninh Kiều, Cần Thơ","Cái Khế, Ninh Kiều",158 Trần Phú,Cần Thơ,,"Ninh Kiều, Cần Thơ",VN
515,ChIJiflZFnOJoDERD74Kw2IG2rI,Tiệm hoa Như Ý,Cửa hàng hoa,0368 135 246,"Tiệm hoa Như Ý, 37 Đ. Lý Tự Trọng, An Phú, Ninh Kiều, Cần Thơ","An Phú, Ninh Kiều",37 Đ. Lý Tự Trọng,Cần Thơ,,"Ninh Kiều, Cần Thơ",VN
522,ChIJtwr1s9WJoDERP5J1HToQpdI,Shop Bán Hoa Ninh Kiều - SuSu,Cửa hàng,,"Shop Bán Hoa Ninh Kiều - SuSu, 31 Trần Phú, Thới Bình, Ninh Kiều, Cần Thơ","Thới Bình, Ninh Kiều",31 Trần Phú,Cần Thơ,,"Ninh Kiều, Cần Thơ",VN
525,ChIJbZ4LsB2IoDER_NHiHvwtzEs,Tạp Hoá Ngọc Quyên,Cửa hàng tạp phẩm,,"Tạp Hoá Ngọc Quyên, 111A Hoàng Văn Thụ, An Cư, Ninh Kiều, Cần Thơ","An Cư, Ninh Kiều",111A Hoàng Văn Thụ,Cần Thơ,,"Ninh Kiều, Cần Thơ",VN
545,ChIJac8gixiIoDERFiVixQjTkRE,Hoa Tươi Thủy Trúc,Cửa hàng hoa,0292 6545 485,"Hoa Tươi Thủy Trúc, 22 Đ. Mậu Thân, An Phú, Ninh Kiều, Cần Thơ","An Phú, Ninh Kiều",22 Đ. Mậu Thân,Cần Thơ,,"Ninh Kiều, Cần Thơ",VN
548,ChIJVVUCKiCIoDERpW63tva3Xmk,Công Ty TNHH Hoa Sinh Thái Cần Thơ,Cửa hàng hoa,0913 975 599,"Công Ty TNHH Hoa Sinh Thái Cần Thơ, 56/2A Đ. Lê Lai, An Lạc, Ninh Kiều, Cần Thơ","An Lạc, Ninh Kiều",56/2A Đ. Lê Lai,Cần Thơ,,"Ninh Kiều, Cần Thơ",VN
553,ChIJsc3lROmJoDERW-_njWgFFQo,Cá Kiểng Hòa,Cửa hàng cá cảnh,0788 577 588,"Cá Kiểng Hòa, 38 Đ. Huỳnh Thúc Kháng, An Nghiệp, Ninh Kiều, Cần Thơ 94000","An Nghiệp, Ninh Kiều",38 Đ. Huỳnh Thúc Kháng,Cần Thơ,94000.0,"Ninh Kiều, Cần Thơ",VN
555,ChIJr0gVEriJoDERKQNb6kqhEDE,Tạp hóa Hoàng,Cửa hàng tạp phẩm,,"Tạp hóa Hoàng, 69 Đ. Huỳnh Thúc Kháng, An Cư, Ninh Kiều, Cần Thơ","An Cư, Ninh Kiều",69 Đ. Huỳnh Thúc Kháng,Cần Thơ,,"Ninh Kiều, Cần Thơ",VN
558,ChIJey6-4LljoDER9psKf9w43FQ,NƯỚC HOA CHARME CẦN THƠ,Cửa hàng nước hoa,0979 516 751,"NƯỚC HOA CHARME CẦN THƠ, Đ.Xô Viết Nghệ Tĩnh, An Hội, TP, Cần Thơ 90000","An Hội, TP",Đ.Xô Viết Nghệ Tĩnh,Cần Thơ,90000.0,"TP, Cần Thơ",VN
560,ChIJN-syAByIoDERSZ971z1bDpg,Công Ty Trách Nhiệm Hữu Hạn Những Cánh Hoa Thiên Thần,Cửa hàng tổng hợp,7103734496,"Công Ty Trách Nhiệm Hữu Hạn Những Cánh Hoa Thiên Thần, 67-69 Đ. Trần Hưng Đạo, An Cư, Ninh Kiều, Cần Thơ 900000","An Cư, Ninh Kiều",67-69 Đ. Trần Hưng Đạo,Cần Thơ,900000.0,"Ninh Kiều, Cần Thơ",VN
561,ChIJ851gChyIoDERaArPOn2OBE0,Tạp Hóa 45/18,Cửa hàng bách hóa,,"Tạp Hóa 45/18, An Nghiệp, Ninh Kiều, Cần Thơ","An Nghiệp, Ninh Kiều",,Cần Thơ,,"Ninh Kiều, Cần Thơ",VN
562,ChIJ6fXRiBuIoDERd_9PzoZ8mJ0,Tạp Hóa Diệu Linh,Cửa hàng bách hóa,,"Tạp Hóa Diệu Linh, An Nghiệp, Ninh Kiều, Cần Thơ","An Nghiệp, Ninh Kiều",,Cần Thơ,,"Ninh Kiều, Cần Thơ",VN
563,ChIJd7D8zB-IoDER0PS6S5f2bSo,Shop Hoa Tươi Kim Dung,Cửa hàng hoa,0292 3826 683,"Shop Hoa Tươi Kim Dung, 117 Đ. Đề Thám, Tân An, Ninh Kiều, Cần Thơ","Tân An, Ninh Kiều",117 Đ. Đề Thám,Cần Thơ,,"Ninh Kiều, Cần Thơ",VN
564,ChIJPcMtq6uJoDERG4dwN6NYi3g,Bách hóa tổng hợp Mẫn Mẫn,Cửa hàng bách hóa,0344 618 672,"Bách hóa tổng hợp Mẫn Mẫn, 107/60/46A Hoàng Văn Thụ, An Cư, Ninh Kiều, Cần Thơ 94000","An Cư, Ninh Kiều",107/60/46A Hoàng Văn Thụ,Cần Thơ,94000.0,"Ninh Kiều, Cần Thơ",VN
565,ChIJixj1ShmIoDERzRe8ddGZYYA,Nhà Thuốc Vạn An Hòa,Hiệu thuốc,0292 3731 622,"Nhà Thuốc Vạn An Hòa, 105 Đ. Trần Hưng Đạo, An Phú, Ninh Kiều, Cần Thơ","An Phú, Ninh Kiều",105 Đ. Trần Hưng Đạo,Cần Thơ,,"Ninh Kiều, Cần Thơ",VN
566,ChIJUX4QmKBioDERqy7EGl9Xvds,Cửa Hàng Tạp Hóa Nguyễn Xuân Thủy,Cửa hàng bách hóa,0907 814 770,"Cửa Hàng Tạp Hóa Nguyễn Xuân Thủy, 22/23/47B, Đường Mạc Đĩnh Chi, Phường An Cư, Quận Ninh Kiều, Tân An, Ninh Kiều, Cần Thơ","Tân An, Ninh Kiều","22/23/47B, Đường Mạc Đĩnh Chi, Phường An Cư, Quận Ninh Kiều",Cần Thơ,,"Ninh Kiều, Cần Thơ",VN
567,ChIJh6z6QpuJoDER52YegpKVOa0,Chả Giò Rế Huỳnh Hoa,Cửa hàng bán thực phẩm sạch,0907 500 080,"Chả Giò Rế Huỳnh Hoa, 151/48B Hoàng Văn Thụ, An Cư, Ninh Kiều, Cần Thơ","An Cư, Ninh Kiều",151/48B Hoàng Văn Thụ,Cần Thơ,,"Ninh Kiều, Cần Thơ",VN
570,ChIJn_SVMpOJoDER_TsSyLwCoV8,Tạp hóa Đan Thy,Cửa hàng tạp phẩm,0921 206 959,"Tạp hóa Đan Thy, 17Đ Đ. Huỳnh Thúc Kháng, An Nghiệp, Ninh Kiều, Cần Thơ","An Nghiệp, Ninh Kiều",17Đ Đ. Huỳnh Thúc Kháng,Cần Thơ,,"Ninh Kiều, Cần Thơ",VN
571,ChIJw5YZcwSIoDERkE9wp5XavXI,Cửa Hàng Tạp Hóa Hớn Hưng,Cửa hàng bách hóa,0292 2470 312,"Cửa Hàng Tạp Hóa Hớn Hưng, 24 Đ. Trần Việt Châu, Thới Bình, Ninh Kiều, Cần Thơ","Thới Bình, Ninh Kiều",24 Đ. Trần Việt Châu,Cần Thơ,,"Ninh Kiều, Cần Thơ",VN
572,ChIJVYcwnOeJoDERWL81zNGPjg4,Tạp Hóa Tùng Chi,Cửa hàng tạp phẩm,,"Tạp Hóa Tùng Chi, 23/110 Hẻm 22 Đ. Mạc Đĩnh Chi, An Cư, Ninh Kiều, Cần Thơ","An Cư, Ninh Kiều",23/110 Hẻm 22 Đ. Mạc Đĩnh Chi,Cần Thơ,,"Ninh Kiều, Cần Thơ",VN
573,ChIJhcXJdxuIoDER6DelKseppQ8,Bách Hóa Tổng Hợp Mẹ & Bé Yêu,Cửa hàng trẻ em,,"2QRG+F42 Bách Hóa Tổng Hợp Mẹ & Bé Yêu, Hẻm 132/42, An Cư, Ninh Kiều, Cần Thơ","An Cư, Ninh Kiều","2QRG+F42, Hẻm 132/42",Cần Thơ,,"Ninh Kiều, Cần Thơ",VN
583,ChIJq6qqBw-IoDERBjf0cRQqikE,Công Ty TNHH Vật Liệu Xây Dựng Trang Trí Nội Thất Mai Hoa 2,Cửa hàng vật liệu xây dựng,0292 6291 559,"Công Ty TNHH Vật Liệu Xây Dựng Trang Trí Nội Thất Mai Hoa 2, 163C/7, Đường Nguyễn Văn Cừ, Q. Ninh Kiều, Tp Cần Thơ, An Hoà, Ninh Kiều, Cần Thơ","An Hoà, Ninh Kiều","163C/7, Đường Nguyễn Văn Cừ, Q. Ninh Kiều, Tp Cần Thơ",Cần Thơ,,"Ninh Kiều, Cần Thơ",VN
586,ChIJWd3wbiWJoDERfC7mP6niqr4,"Cửa Hàng Bách Hóa Nhà Bối và Vật Tư Y Tế, Thiên Phúc ""care""",Cửa hàng,0347 926 797,"2QX7+C49 Cửa Hàng Bách Hóa Nhà Bối và Vật Tư Y Tế, Thiên Phúc ""care"", An Thới, Bình Thủy, Cần Thơ","An Thới, Bình Thủy",2QX7+C49,Cần Thơ,,"Bình Thủy, Cần Thơ",VN
587,ChIJ8fvDDA-IoDERfyodUtyj0aA,Cửa Hàng Ẩm Thực Hòa Ký,Cửa hàng bán đồ ăn nấu sẵn,0907 257 925,"Cửa Hàng Ẩm Thực Hòa Ký, 224C Đ. Nguyễn Văn Cừ, An Hoà, Ninh Kiều, Cần Thơ","An Hoà, Ninh Kiều",224C Đ. Nguyễn Văn Cừ,Cần Thơ,,"Ninh Kiều, Cần Thơ",VN
588,ChIJq6qqBw-IoDER3RIXg77nYsE,Tiệm Tạp Hoá Hạnh Đào,Cửa hàng bách hóa,0979 297 534,"Tiệm Tạp Hoá Hạnh Đào, 138k, Đường Nguyễn Văn Cừ, Phường An Hoà, Quận Ninh Kiều, Tp Cần Thơ, An Hoà, Ninh Kiều, Cần Thơ","An Hoà, Ninh Kiều","138k, Đường Nguyễn Văn Cừ, Phường An Hoà, Quận Ninh Kiều, Tp Cần Thơ",Cần Thơ,,"Ninh Kiều, Cần Thơ",VN
589,ChIJq6qqBw-IoDERgRvArKjNfIA,Shop Tạp Hoá Cầu Vồng,Cửa hàng bách hóa,0292 3893 864,"Shop Tạp Hoá Cầu Vồng, 283 Đ. Nguyễn Văn Cừ, An Hoà, Ninh Kiều, Cần Thơ","An Hoà, Ninh Kiều",283 Đ. Nguyễn Văn Cừ,Cần Thơ,,"Ninh Kiều, Cần Thơ",VN
590,ChIJ8WgbZuKJoDERIgMSqd9rMa4,Shop Hoa Tươi Hướng Dương,Cửa hàng,,"Shop Hoa Tươi Hướng Dương, 7e Đ. Nguyễn Văn Linh, Hưng Lợi, Ninh Kiều, Cần Thơ 900000","Hưng Lợi, Ninh Kiều",7e Đ. Nguyễn Văn Linh,Cần Thơ,900000.0,"Ninh Kiều, Cần Thơ",VN
591,ChIJq6qqBw-IoDER3BOqG_jLqbY,Cửa Hàng Cà Phê - Tạp Hoá Lư Quyên,Cửa hàng tạp hóa,0945 050 450,"Cửa Hàng Cà Phê - Tạp Hoá Lư Quyên, Tp, 299B/9, Đ. Nguyễn Văn Cừ, An Hoà, Ninh Kiều, Cần Thơ","An Hoà, Ninh Kiều","Tp, 299B/9, Đ. Nguyễn Văn Cừ",Cần Thơ,,"Ninh Kiều, Cần Thơ",VN
593,ChIJhSOEAgyIoDERYvozPCDaUEI,Bách Hoá Tổng Hợp Bếp Ngon,Cửa hàng bách hóa,0915 786 770,"Bách Hoá Tổng Hợp Bếp Ngon, 64 Đ. Nguyễn Đệ, An Hoà, Bình Thủy, Cần Thơ","An Hoà, Bình Thủy",64 Đ. Nguyễn Đệ,Cần Thơ,,"Bình Thủy, Cần Thơ",VN
594,ChIJq6qqBw-IoDERzXuiuQZ2eL8,Tiệm Tạp Hoá Thanh Trúc,Cửa hàng bách hóa,0292 2224 885,"Tiệm Tạp Hoá Thanh Trúc, 399 B, Đường Nguyễn Văn Cừ, Quận Ninh Kiều, Tp Cần Thơ, An Hoà, Ninh Kiều, Cần Thơ","An Hoà, Ninh Kiều","399 B, Đường Nguyễn Văn Cừ, Quận Ninh Kiều, Tp Cần Thơ",Cần Thơ,,"Ninh Kiều, Cần Thơ",VN
595,ChIJq6qqBw-IoDERSWZkeBeDAZk,Cửa Hàng Tạp Hoá Chi Dô,Cửa hàng tạp hóa,0292 3594 087,"Cửa Hàng Tạp Hoá Chi Dô, 291G/9, Đường Nguyễn Văn Cừ, Quận Ninh Kiều, Tp Cần Thơ, An Hoà, Ninh Kiều, Cần Thơ","An Hoà, Ninh Kiều","291G/9, Đường Nguyễn Văn Cừ, Quận Ninh Kiều, Tp Cần Thơ",Cần Thơ,,"Ninh Kiều, Cần Thơ",VN
597,ChIJkUD06RGIoDERURREPggZEJ4,Cửa Hàng Tạp Hoá Tư Tiệm,Cửa hàng bách hóa,0292 3835 650,"Cửa Hàng Tạp Hoá Tư Tiệm, 1, Mậu Thân, Quận Ninh Kiều, TP Cần Thơ, An Hoà, Ninh Kiều, Cần Thơ","An Hoà, Ninh Kiều","1, Mậu Thân, Quận Ninh Kiều, TP Cần Thơ",Cần Thơ,,"Ninh Kiều, Cần Thơ",VN
598,ChIJ3_-IGbGJoDERF7Ib_kfpm2o,Cửa Hàng Hoa Tươi Mỹ Nhanh,Cửa hàng hoa,0932 660 081,"2Q32+X94 Cửa Hàng Hoa Tươi Mỹ Nhanh, Trần Hưng Đạo, Lê Bình, Cái Răng, Cần Thơ","Lê Bình, Cái Răng","2Q32+X94, Trần Hưng Đạo",Cần Thơ,,"Cái Răng, Cần Thơ",VN
599,ChIJq6qqBw-IoDERJG4_FbI6Oc8,Cơ Sở Hoa Kiểng Thanh Tuyền,Cửa hàng,0908 976 358,"Cơ Sở Hoa Kiểng Thanh Tuyền, 175, Đường Nguyễn Văn Cừ, Phường An Hoà, Quận Ninh Kiều, Tp Cần Thơ, An Hoà, Ninh Kiều, Cần Thơ","An Hoà, Ninh Kiều","175, Đường Nguyễn Văn Cừ, Phường An Hoà, Quận Ninh Kiều, Tp Cần Thơ",Cần Thơ,,"Ninh Kiều, Cần Thơ",VN
600,ChIJbwHSuRKIoDER5N3uPx06988,Tạp Hóa Thành Lợi,Cửa hàng tạp hóa,,"2QV5+9P5 Tạp Hóa Thành Lợi, Phường An Khánh, Ninh Kiều, Cần Thơ","Phường An Khánh, Ninh Kiều",2QV5+9P5,Cần Thơ,,"Ninh Kiều, Cần Thơ",VN
601,ChIJAbUhOxCIoDEROPXj3bbeo_0,Tạp Hóa Bách Phương,Cửa hàng bách hóa,,"Tạp Hóa Bách Phương, An Hòa, Ninh Kiều, Cần Thơ","An Hòa, Ninh Kiều",,Cần Thơ,,"Ninh Kiều, Cần Thơ",VN
602,ChIJt5jafNiJoDERHkGqcATKf1k,TẠP HOÁ THUỲ NGÂN,Cửa hàng tiện lợi,,"TẠP HOÁ THUỲ NGÂN, 36 Đ. Võ Trường Toản, An Hoà, Ninh Kiều, Cần Thơ","An Hoà, Ninh Kiều",36 Đ. Võ Trường Toản,Cần Thơ,,"Ninh Kiều, Cần Thơ",VN
603,ChIJN-KnYCWIoDERG2XMRK-C4pQ,Shop Hoa Tươi Minh Điền,Cửa hàng hoa,0939 563 613,"Shop Hoa Tươi Minh Điền, 31 Hẻm 553, Hưng Lợi, Ninh Kiều, Cần Thơ","Hưng Lợi, Ninh Kiều",31 Hẻm 553,Cần Thơ,,"Ninh Kiều, Cần Thơ",VN
604,ChIJq6qqBw-IoDERD6J78el9kI0,Cửa Hàng Tạp Hóa 134B,Cửa hàng bách hóa,0292 3898 383,"Cửa Hàng Tạp Hóa 134B, 134B Đ. Nguyễn Văn Cừ, An Hoà, Ninh Kiều, Cần Thơ","An Hoà, Ninh Kiều",134B Đ. Nguyễn Văn Cừ,Cần Thơ,,"Ninh Kiều, Cần Thơ",VN
605,ChIJMW4dcH-JoDER_pg66Z-sdiA,Bông House - Tiệm Hoa Cần Thơ,Cửa hàng quà tặng,,"Bông House - Tiệm Hoa Cần Thơ, 35 Đ. Hoàng Quốc Việt, An Bình, Ninh Kiều, Cần Thơ","An Bình, Ninh Kiều",35 Đ. Hoàng Quốc Việt,Cần Thơ,,"Ninh Kiều, Cần Thơ",VN
607,ChIJc2yySkGJoDERYahXBFBU0_E,"Tạp Hóa Kim Cương - ĐL Bia, Nước Ngọt",Cửa hàng tạp phẩm,,"Tạp Hóa Kim Cương - ĐL Bia, Nước Ngọt, 139d Đ. Nguyễn Đệ, An Hoà, Ninh Kiều, Cần Thơ","An Hoà, Ninh Kiều",139d Đ. Nguyễn Đệ,Cần Thơ,,"Ninh Kiều, Cần Thơ",VN
608,ChIJ28J9v7CJoDERLdpRktXewsY,Ohara Flower - Shop Hoa Cần Thơ,Nhà thiết kế hoa,,"Ohara Flower - Shop Hoa Cần Thơ, 162 Ngô Thì Nhậm, Phường An Khánh, Ninh Kiều, Cần Thơ","Phường An Khánh, Ninh Kiều",162 Ngô Thì Nhậm,Cần Thơ,,"Ninh Kiều, Cần Thơ",VN
610,ChIJOWSk9GuIoDERA9O0SVSRjHM,Hoa Tươi Đà Lạt Gia Hân,Cửa hàng hoa,,"Hoa Tươi Đà Lạt Gia Hân, 62 Đ. Tô Hiến Thành, Phường An Khánh, Ninh Kiều, Cần Thơ","Phường An Khánh, Ninh Kiều",62 Đ. Tô Hiến Thành,Cần Thơ,,"Ninh Kiều, Cần Thơ",VN
613,ChIJNYR1zBSIoDERtVdDhw_mbNk,Cơ Sở Hoa Kiểng Hoa Xuân,Cửa hàng hoa,0939 030 004,"Cơ Sở Hoa Kiểng Hoa Xuân, 163 Đ. Nguyễn Văn Cừ, Phường An Khánh, Ninh Kiều, Cần Thơ","Phường An Khánh, Ninh Kiều",163 Đ. Nguyễn Văn Cừ,Cần Thơ,,"Ninh Kiều, Cần Thơ",VN
621,ChIJ4blqzhOIoDERaWnV20P2EvE,Cửa Hàng Tạp Hóa Ngọc Hân,Cửa hàng bách hóa,7103893125,"Cửa Hàng Tạp Hóa Ngọc Hân, 134/6 Đ. Nguyễn Văn Cừ, Phường An Khánh, Ninh Kiều, Cần Thơ","Phường An Khánh, Ninh Kiều",134/6 Đ. Nguyễn Văn Cừ,Cần Thơ,,"Ninh Kiều, Cần Thơ",VN
622,ChIJm39utxOIoDERulKLBzu3HxU,Cơ Sở Đá Hoa Cương Dũng Phát,Cửa hàng vật liệu xây dựng,0979 789 169,"2QR7+C4H Cơ Sở Đá Hoa Cương Dũng Phát, 131 Đ. Nguyễn Văn Cừ, Phường An Khánh, Ninh Kiều, Cần Thơ","Phường An Khánh, Ninh Kiều","2QR7+C4H, 131 Đ. Nguyễn Văn Cừ",Cần Thơ,,"Ninh Kiều, Cần Thơ",VN
623,ChIJJZYqpROIoDERFm1GFMZXEyM,Tạp Hóa Long Châu,Cửa hàng bách hóa,,"Tạp Hóa Long Châu, An Khánh, Ninh Kiều, Cần Thơ","An Khánh, Ninh Kiều",,Cần Thơ,,"Ninh Kiều, Cần Thơ",VN
626,ChIJk3Ei82uIoDERiznnJhNDdos,Cửa Hàng Tạp Hóa Thảo - Chợ An Khánh,Cửa hàng bách hóa,0914 865 478,"Cửa Hàng Tạp Hóa Thảo - Chợ An Khánh, Chợ phường An Khánh, Lô 164, Phường An Khánh, Ninh Kiều, Cần Thơ","Phường An Khánh, Ninh Kiều","Chợ phường An Khánh, Lô 164",Cần Thơ,,"Ninh Kiều, Cần Thơ",VN
627,ChIJrYCsqBSIoDER6gvpECd_xVg,Cửa Hàng Tạp Hóa VPP Thùy Linh,Cửa hàng bách hóa,0907 699 933,"Cửa Hàng Tạp Hóa VPP Thùy Linh, 171A Đ. Nguyễn Văn Cừ, An Hoà, Ninh Kiều, Cần Thơ","An Hoà, Ninh Kiều",171A Đ. Nguyễn Văn Cừ,Cần Thơ,,"Ninh Kiều, Cần Thơ",VN
628,ChIJ0z8E0laJoDERZCRSMICnnkA,Shop Bán Hoa Ninh Kiều - Hoa Ruby,Cửa hàng,,"Shop Bán Hoa Ninh Kiều - Hoa Ruby, 136 Nguyễn Văn Cừ Nối Dài, Phường An Khánh, Ninh Kiều, Cần Thơ","Phường An Khánh, Ninh Kiều",136 Nguyễn Văn Cừ Nối Dài,Cần Thơ,,"Ninh Kiều, Cần Thơ",VN
629,ChIJldBxdmyIoDERCiZ7EPVn0xk,Cửa Hàng Tạp Hóa Thanh Kiều,Cửa hàng bách hóa,0907 270 883,"Cửa Hàng Tạp Hóa Thanh Kiều, 1, KDC, Đường Số 5, Phường An Khánh, Ninh Kiều, Cần Thơ","Phường An Khánh, Ninh Kiều","1, KDC, Đường Số 5",Cần Thơ,,"Ninh Kiều, Cần Thơ",VN
630,ChIJSTfCZBOIoDERBW3BNGnsP-M,Công Ty TNHH Hoá Mỹ Phẩm Mai Linh,Cửa hàng mỹ phẩm,0292 3892 357,"2QQ6+R74 Công Ty TNHH Hoá Mỹ Phẩm Mai Linh, Nguyễn Văn Cừ, Phường An Bình, Quận Ninh Kiều, Thành Phố Cần Thơ, Phường An Khánh, Ninh Kiều, Cần Thơ","Phường An Khánh, Ninh Kiều","2QQ6+R74, Nguyễn Văn Cừ, Phường An Bình, Quận Ninh Kiều, Thành Phố Cần Thơ",Cần Thơ,,"Ninh Kiều, Cần Thơ",VN
631,ChIJTehbP22IoDER1XaSGGEE480,Tạp Hóa Phúc Hậu,Cửa hàng bách hóa,,"Tạp Hóa Phúc Hậu, 30 Đ. Chu Văn An, Phường An Khánh, Ninh Kiều, Cần Thơ","Phường An Khánh, Ninh Kiều",30 Đ. Chu Văn An,Cần Thơ,,"Ninh Kiều, Cần Thơ",VN
632,ChIJYXUF12qIoDER1OkQxNUpJR4,Cửa Hàng Hoa Kiểng Tư Bê 2,Cửa hàng hoa,0919 054 049,"Cửa Hàng Hoa Kiểng Tư Bê 2, 163Z Đ. Nguyễn Văn Cừ, Phường An Khánh, Ninh Kiều, Cần Thơ","Phường An Khánh, Ninh Kiều",163Z Đ. Nguyễn Văn Cừ,Cần Thơ,,"Ninh Kiều, Cần Thơ",VN
633,ChIJh7BYvxqJoDERF-jUxrIqQ4M,Nước Hoa Do Not Rush,Cửa hàng mỹ phẩm,0799 831 915,"Nước Hoa Do Not Rush, 13 Đ. Số 1, Phường An Khánh, Ninh Kiều, Cần Thơ","Phường An Khánh, Ninh Kiều",13 Đ. Số 1,Cần Thơ,,"Ninh Kiều, Cần Thơ",VN
635,ChIJt2Kns8iJoDERHDw0m_UuR-4,SỬA THIẾT BỊ TỰ ĐỘNG HÓA CHO NHÀ MÁY,Cửa hàng thiết bị điện,0366 924 495,"SỬA THIẾT BỊ TỰ ĐỘNG HÓA CHO NHÀ MÁY, Khu Đô Thị Đại Ngân, Phường An Khánh, Ninh Kiều, Cần Thơ 99999","Phường An Khánh, Ninh Kiều",Khu Đô Thị Đại Ngân,Cần Thơ,99999.0,"Ninh Kiều, Cần Thơ",VN
636,ChIJrap5xdmJoDER-wizngbz5yE,Tiệm Tạp Hoá Diễm Thu,Cửa hàng tiện lợi,,"2QR6+9V4 Tiệm Tạp Hoá Diễm Thu, Nguyễn Văn Cừ Nối Dài, Phường An Khánh, Ninh Kiều, Cần Thơ","Phường An Khánh, Ninh Kiều","2QR6+9V4, Nguyễn Văn Cừ Nối Dài",Cần Thơ,,"Ninh Kiều, Cần Thơ",VN
638,ChIJcce7mBOIoDERfp_sog2Sckw,Cửa Hàng Tạp Hóa Thiên Nga,Cửa hàng bách hóa,,"Cửa Hàng Tạp Hóa Thiên Nga, 132 Đ. Nguyễn Văn Cừ, Phường An Khánh, Ninh Kiều, Cần Thơ","Phường An Khánh, Ninh Kiều",132 Đ. Nguyễn Văn Cừ,Cần Thơ,,"Ninh Kiều, Cần Thơ",VN
639,ChIJC62GmBOIoDER_BQbXCsdp0Q,Cửa Hàng Tạp Hóa Thiên Duyên,Cửa hàng bách hóa,0292 6292 077,"Cửa Hàng Tạp Hóa Thiên Duyên, 132 Đ. Nguyễn Văn Cừ, Phường An Khánh, Ninh Kiều, Cần Thơ","Phường An Khánh, Ninh Kiều",132 Đ. Nguyễn Văn Cừ,Cần Thơ,,"Ninh Kiều, Cần Thơ",VN
642,ChIJt-Ug8FCIoDERjJW1T5PNsuo,Vườn Hoa Minh Quang,Cửa hàng hoa,0939 396 500,"Vườn Hoa Minh Quang, 345 KDC Hồng Phát, Nguyễn Văn Cừ Nối Dài, An Bình, Ninh Kiều, Cần Thơ","An Bình, Ninh Kiều","345 KDC Hồng Phát, Nguyễn Văn Cừ Nối Dài",Cần Thơ,,"Ninh Kiều, Cần Thơ",VN
643,ChIJL73YpUmIoDERuaUz790GOfY,Hoa Tươi Phương Thảo,Cửa hàng hoa,,"Hoa Tươi Phương Thảo, Khu dân cư 91B, An Khánh, Ninh Kiều, Cần Thơ","Khu dân cư 91B, An Khánh, Ninh Kiều",,Cần Thơ,,"Ninh Kiều, Cần Thơ",VN
645,ChIJt1b6lfGJoDERBSjMfaW57ho,"Phố Hoa Shop ( Bán hoa kiểng,chậu sứ,chậu nhựa,..Hoa hổng nội,ngoại).",Cửa hàng hoa,0945 824 909,"Phố Hoa Shop ( Bán hoa kiểng,chậu sứ,chậu nhựa,..Hoa hổng nội,ngoại)., 742 Đ. 30 Tháng 4, Hưng Lợi, Ninh Kiều, Cần Thơ","Hưng Lợi, Ninh Kiều",742 Đ. 30 Tháng 4,Cần Thơ,,"Ninh Kiều, Cần Thơ",VN
646,ChIJiXnXZkSIoDERB-LYJMKZF-w,Tiệm Hoa Coba Flower House,Cửa hàng hoa,0944 970 027,"Tiệm Hoa Coba Flower House, 284 Đ. Trần Vĩnh Kiết, Phường An Khánh, Ninh Kiều, Cần Thơ","Phường An Khánh, Ninh Kiều",284 Đ. Trần Vĩnh Kiết,Cần Thơ,,"Ninh Kiều, Cần Thơ",VN
647,ChIJVdir10SIoDERGhW6MI3GVG8,"Thảo Nguyên Cung Cấp Hoa, Cây Kiểng Các Laọi",Cửa hàng hoa,,"2PGW+GXC Thảo Nguyên Cung Cấp Hoa, Cây Kiểng Các Laọi, Đ. Nguyễn Văn Cừ, An Bình, Ninh Kiều, Cần Thơ","An Bình, Ninh Kiều","2PGW+GXC, Đ. Nguyễn Văn Cừ",Cần Thơ,,"Ninh Kiều, Cần Thơ",VN
648,ChIJx81ORriJoDERDfkTvRfozR4,Tiệm Hoa Thái An Nhiên,Cửa hàng hoa,0929 424 417,"Tiệm Hoa Thái An Nhiên, 23b đường 25, KDC, Ninh Kiều, Cần Thơ 900000","KDC, Ninh Kiều",23b đường 25,Cần Thơ,900000.0,"Ninh Kiều, Cần Thơ",VN
650,ChIJ9f90zFqIoDERmYYqGOgrTZI,Hoa Kiểng Tư Bê,Cửa hàng,,"Hoa Kiểng Tư Bê, 132 Nguyễn Văn Cừ Nối Dài, Phường An Khánh, Ninh Kiều, Cần Thơ","Phường An Khánh, Ninh Kiều",132 Nguyễn Văn Cừ Nối Dài,Cần Thơ,,"Ninh Kiều, Cần Thơ",VN
652,ChIJ8xK4ZqGJoDERibooJwyssWs,BÁCH HOÁ XANH,Cửa hàng hoa,,"BÁCH HOÁ XANH, 221 Đ. Hoàng Quốc Việt, An Bình, Ninh Kiều, Cần Thơ","An Bình, Ninh Kiều",221 Đ. Hoàng Quốc Việt,Cần Thơ,,"Ninh Kiều, Cần Thơ",VN
653,ChIJNZ6xsrOJoDER1hQcS3D5Mn8,Shop Hoa Anh Sang,Cửa hàng hoa,,"2P5X+JWP Shop Hoa Anh Sang, ĐT923, An Bình, Ninh Kiều, Cần Thơ","An Bình, Ninh Kiều","2P5X+JWP, ĐT923",Cần Thơ,,"Ninh Kiều, Cần Thơ",VN
654,ChIJ9240VFCIoDERUXIr4VgqJRk,Cửa Hàng Tạp Hóa Phúc Nguyên,Cửa hàng bách hóa,0907 100 327,"Cửa Hàng Tạp Hóa Phúc Nguyên, 297 Đ.Xuân Thủy, An Bình, Ninh Kiều, Cần Thơ","An Bình, Ninh Kiều",297 Đ.Xuân Thủy,Cần Thơ,,"Ninh Kiều, Cần Thơ",VN
655,ChIJq7owQ1GIoDERkfHsnE164Ho,Cửa Hàng Bách Hóa Mỹ Anh,Cửa hàng bách hóa,0359 062 979,"Cửa Hàng Bách Hóa Mỹ Anh, 10 Đ. Hoàng Quốc Việt, An Bình, Ninh Kiều, Cần Thơ","An Bình, Ninh Kiều",10 Đ. Hoàng Quốc Việt,Cần Thơ,,"Ninh Kiều, Cần Thơ",VN
656,ChIJ0R4ZP3aJoDERFElRC-BloZA,NPP Bách Hóa THIÊN ÂN,Cửa hàng tạp phẩm,0966 916 818,"NPP Bách Hóa THIÊN ÂN, 232 Đ.Xuân Thủy, An Bình, Ninh Kiều, Cần Thơ","An Bình, Ninh Kiều",232 Đ.Xuân Thủy,Cần Thơ,,"Ninh Kiều, Cần Thơ",VN
657,ChIJMdV4mp-JoDERtR8OFHPtVpM,Coffee Hoa Sữa,Cửa hàng cà phê,,"Coffee Hoa Sữa, 37 Đ. Xuân Hồng, An Bình, Bình Thủy, Cần Thơ 94000","An Bình, Bình Thủy",37 Đ. Xuân Hồng,Cần Thơ,94000.0,"Bình Thủy, Cần Thơ",VN
662,ChIJ27m4gniJoDERfmFn4Mv6Tjg,Tiệm hoa Gina's Garden 2,Cửa hàng hoa,,"Tiệm hoa Gina's Garden 2, 73 Đường B25, Khu dân cư 91B, Ninh Kiều, Cần Thơ","Khu dân cư 91B, Ninh Kiều",73 Đường B25,Cần Thơ,,"Ninh Kiều, Cần Thơ",VN
663,ChIJ5SwHeVCIoDERQeVOuayj7PE,Công Ty Tnhh Mtv Vlxd & Trang Trí Nội Thất Mai Hoa 2,Cửa hàng,,"Công Ty Tnhh Mtv Vlxd & Trang Trí Nội Thất Mai Hoa 2, 92 Nguyễn Văn Cừ Nối Dài, An Bình, Ninh Kiều, Cần Thơ","An Bình, Ninh Kiều",92 Nguyễn Văn Cừ Nối Dài,Cần Thơ,,"Ninh Kiều, Cần Thơ",VN
664,ChIJd-X97lCIoDERst_OXBINC5k,Hợp Tác Xã Hoa Kiểng Mẫn Thanh,Cửa hàng,,"Hợp Tác Xã Hoa Kiểng Mẫn Thanh, 136B Nguyễn Văn Cừ nối dài, Phường An Khánh, Ninh Kiều, Cần Thơ","Phường An Khánh, Ninh Kiều",136B Nguyễn Văn Cừ nối dài,Cần Thơ,,"Ninh Kiều, Cần Thơ",VN
665,ChIJVVVVVaqJoDER3Fo_dtR2Ev8,Cửa Hàng Hoa Kiểng Tám Hương,Cửa hàng hoa,0909 776 169,"2P6Q+46W Cửa Hàng Hoa Kiểng Tám Hương, Đường Số 5, Khu Dân Cư Hồng Phát, Ninh Kiều, Cần Thơ","Khu Dân Cư Hồng Phát, Ninh Kiều","2P6Q+46W, Đường Số 5",Cần Thơ,,"Ninh Kiều, Cần Thơ",VN
666,ChIJnTKOUkWIoDERQ7UDI18c0dU,Cửa Hàng Gạo Tạp Hóa 130,Cửa hàng bán thực phẩm sạch,0918 865 884,"Cửa Hàng Gạo Tạp Hóa 130, 130AB1 Đ.Xuân Thủy, An Bình, Ninh Kiều, Cần Thơ","An Bình, Ninh Kiều",130AB1 Đ.Xuân Thủy,Cần Thơ,,"Ninh Kiều, Cần Thơ",VN
668,ChIJZWo8bV-JoDERvGPJBa6YIWg,Đồ cũ Xuân Hoa Mai 2,Cửa hàng nội thất,0939 636 509,"Đồ cũ Xuân Hoa Mai 2, 8 Đ. Trần Vĩnh Kiết, An Bình, Ninh Kiều, Cần Thơ","An Bình, Ninh Kiều",8 Đ. Trần Vĩnh Kiết,Cần Thơ,,"Ninh Kiều, Cần Thơ",VN
669,ChIJucR7eVCIoDER_6flxallMAk,Cơ Sở Hoa Kiểng Việt Dũng,Cửa hàng,,"Cơ Sở Hoa Kiểng Việt Dũng, 94 Nguyễn Văn Cừ Nối Dài, An Bình, Ninh Kiều, Cần Thơ","An Bình, Ninh Kiều",94 Nguyễn Văn Cừ Nối Dài,Cần Thơ,,"Ninh Kiều, Cần Thơ",VN
670,ChIJ-_4_tkWIoDERs-7NT7TRt64,Tạp Hóa Phú Thịnh,Cửa hàng bách hóa,,"2QG2+6FF Tạp Hóa Phú Thịnh, Đ. Trần Vĩnh Kiết, Phường An Khánh, Ninh Kiều, Cần Thơ","Phường An Khánh, Ninh Kiều","2QG2+6FF, Đ. Trần Vĩnh Kiết",Cần Thơ,,"Ninh Kiều, Cần Thơ",VN
671,ChIJW1Qb2dGJoDERx2Ur2Xfi8jg,Tạp hóa Mỹ Phương,Cửa hàng tổng hợp,,"Tạp hóa Mỹ Phương, 409a Nguyễn Văn Cừ Nối Dài, An Bình, Ninh Kiều, Cần Thơ","An Bình, Ninh Kiều",409a Nguyễn Văn Cừ Nối Dài,Cần Thơ,,"Ninh Kiều, Cần Thơ",VN
672,ChIJFZ2a9kmJoDERWEjWtxGU0Cg,Tạp Hóa Kiều Trang,Cửa hàng tạp phẩm,,"2P9R+VPC Tạp Hóa Kiều Trang, An Bình, Ninh Kiều, Cần Thơ","An Bình, Ninh Kiều",2P9R+VPC,Cần Thơ,,"Ninh Kiều, Cần Thơ",VN
673,ChIJ2Xt5hbljoDERumQIOaiA1E0,Shop Bán Hoa Cái Răng - Hoa Ruby,Cửa hàng,,"Shop Bán Hoa Cái Răng - Hoa Ruby, 211 Phan Trọng Tuệ, Hưng Phú, Cái Răng, Cần Thơ","Hưng Phú, Cái Răng",211 Phan Trọng Tuệ,Cần Thơ,,"Cái Răng, Cần Thơ",VN
676,ChIJr2bQ9FCIoDERd2w-w8e50VE,Cửa Hàng Hoa Kiểng Tám Hương 319,Cửa hàng hoa,0909 776 169,"Cửa Hàng Hoa Kiểng Tám Hương 319, 319 Nguyễn Văn Cừ Nối Dài, Phường An Khánh, Ninh Kiều, Cần Thơ","Phường An Khánh, Ninh Kiều",319 Nguyễn Văn Cừ Nối Dài,Cần Thơ,,"Ninh Kiều, Cần Thơ",VN
689,ChIJ-aH2Ot6JoDERt8EiVLBj47A,Hoa lan phú hà,Cửa hàng hoa,0907 326 937,"Hoa lan phú hà, 199/6 kv2, Nguyễn Văn Cừ Nối Dài, An Bình, Ninh Kiều, Cần Thơ","An Bình, Ninh Kiều","199/6 kv2, Nguyễn Văn Cừ Nối Dài",Cần Thơ,,"Ninh Kiều, Cần Thơ",VN
690,ChIJI1zgQgCJoDERUodZPzx_bt4,Hoa sáp Kim Dương Cần Thơ,Cửa hàng hoa,0762 946 491,"Hoa sáp Kim Dương Cần Thơ, 126/3 Nguyễn Văn Trường, An Bình, Ninh Kiều, Cần Thơ","An Bình, Ninh Kiều",126/3 Nguyễn Văn Trường,Cần Thơ,,"Ninh Kiều, Cần Thơ",VN
691,ChIJAdEKKAiJoDERPAV-5BJgrjI,Tạp Hóa Phượng,Cửa hàng bách hóa,,"Tạp Hóa Phượng, An Bình, Ninh Kiều, Cần Thơ","An Bình, Ninh Kiều",,Cần Thơ,,"Ninh Kiều, Cần Thơ",VN
701,ChIJyeVP56CJoDERGhPWWfdtCt8,Cửa Hàng Tạp Hóa Bảo Ngọc,Cửa hàng bách hóa,0292 3848 757,"Cửa Hàng Tạp Hóa Bảo Ngọc, 245 Ấp Mỹ Ái, Huyện Phong Điền, An Bình, Ninh Kiều, Cần Thơ","An Bình, Ninh Kiều","245 Ấp Mỹ Ái, Huyện Phong Điền",Cần Thơ,,"Ninh Kiều, Cần Thơ",VN
703,ChIJo9GuAqGJoDER52Q4xQ5lQ9U,Tiệm Tạp Hóa Thành,Cửa hàng bách hóa,0292 3746 704,"Tiệm Tạp Hóa Thành, 35, Đường Lộ Vòng Cung, Quận Ninh Kiều, An Bình, Ninh Kiều, Cần Thơ","An Bình, Ninh Kiều","35, Đường Lộ Vòng Cung, Quận Ninh Kiều",Cần Thơ,,"Ninh Kiều, Cần Thơ",VN
704,ChIJqQGf3a6JoDER8beDXMbTSI8,Tạp Hóa Minh Hoàng,Cửa hàng bách hóa,,"Tạp Hóa Minh Hoàng, An Bình, Ninh Kiều, Cần Thơ","An Bình, Ninh Kiều",,Cần Thơ,,"Ninh Kiều, Cần Thơ",VN
705,ChIJB-VVSqSJoDERehtmM-ZGiic,Cửa Hàng Tạp Hóa,Cửa hàng bách hóa,0917 811 345,"Cửa Hàng Tạp Hóa, 105/2 Lộ Vòng Cung, An Bình, Ninh Kiều, Cần Thơ","An Bình, Ninh Kiều",105/2 Lộ Vòng Cung,Cần Thơ,,"Ninh Kiều, Cần Thơ",VN
707,ChIJ737K9DuJoDER3VjImEuehNY,Trần Hóa Audio,Cửa hàng bán đồ điện tử,0918 613 696,"Trần Hóa Audio, KDC 3A F5, An Bình, Ninh Kiều, Cần Thơ","An Bình, Ninh Kiều",KDC 3A F5,Cần Thơ,,"Ninh Kiều, Cần Thơ",VN
708,ChIJhelP1KCJoDERt4EdJGaMNPo,Tạp Hóa Tám Nhì,Cửa hàng bách hóa,,"XPWQ+J4P Tạp Hóa Tám Nhì, Nguyễn Văn Trường, An Bình, Ninh Kiều, Cần Thơ","An Bình, Ninh Kiều","XPWQ+J4P, Nguyễn Văn Trường",Cần Thơ,,"Ninh Kiều, Cần Thơ",VN
712,ChIJjVN-OQeJoDERj26Ap4-MaAI,Tạp Hóa Ba Thông,Cửa hàng,,"2P4M+R82 Tạp Hóa Ba Thông, Nguyễn Văn Trường, An Bình, Ninh Kiều, Cần Thơ","An Bình, Ninh Kiều","2P4M+R82, Nguyễn Văn Trường",Cần Thơ,,"Ninh Kiều, Cần Thơ",VN
718,ChIJ10TV-NCJoDER1LxvkTak7pk,Tiệm Hoa Tươi - Sỉ/lẻ Sen Cần Thơ,Cửa hàng hoa,0762 895 498,"Tiệm Hoa Tươi - Sỉ/lẻ Sen Cần Thơ, 132/17 Hẻm 132 Đ. 3 Tháng 2, An Binh, Ninh Kiều, Cần Thơ","An Binh, Ninh Kiều",132/17 Hẻm 132 Đ. 3 Tháng 2,Cần Thơ,,"Ninh Kiều, Cần Thơ",VN
724,ChIJmUbpSLOJoDERYkW_wLqwwp8,Tạp Hóa Trung,Cửa hàng bách hóa,0382 025 725,"Tạp Hóa Trung, 116C/3 Đ. 3 Tháng 2, Hưng Lợi, Ninh Kiều, Cần Thơ","Hưng Lợi, Ninh Kiều",116C/3 Đ. 3 Tháng 2,Cần Thơ,,"Ninh Kiều, Cần Thơ",VN
727,ChIJXddRVHmJoDERBq8iyd3267E,Bách hóa Khang Nhi,Cửa hàng tạp phẩm,,"Bách hóa Khang Nhi, 121a/3 Đ. Trần Vĩnh Kiết, An Bình, Ninh Kiều, Cần Thơ","An Bình, Ninh Kiều",121a/3 Đ. Trần Vĩnh Kiết,Cần Thơ,,"Ninh Kiều, Cần Thơ",VN
729,ChIJnbUCuEyIoDERwhB4VwPAg3g,Cửa Hàng Tạp Hóa Cô Mười,Cửa hàng bách hóa,0947 167 268,"Cửa Hàng Tạp Hóa Cô Mười, 4 Đ. Trần Vĩnh Kiết, An Bình, Ninh Kiều, Cần Thơ","An Bình, Ninh Kiều",4 Đ. Trần Vĩnh Kiết,Cần Thơ,,"Ninh Kiều, Cần Thơ",VN
730,ChIJWXqCTLOJoDERXy5AqbHhOoo,Tạp Hoá Vân Anh,Cửa hàng bách hóa,0292 3913 620,"Tạp Hoá Vân Anh, 3 Đ. Trần Vĩnh Kiết, An Bình, Ninh Kiều, Cần Thơ","An Bình, Ninh Kiều",3 Đ. Trần Vĩnh Kiết,Cần Thơ,,"Ninh Kiều, Cần Thơ",VN
732,ChIJXf-dTLKJoDERCOOE0AntsDo,Tạp Hóa Đoan Thùy,Cửa hàng bách hóa,0932 944 964,"Tạp Hóa Đoan Thùy, 134/3 Đ. 3 Tháng 2, An Bình, Ninh Kiều, Cần Thơ","An Bình, Ninh Kiều",134/3 Đ. 3 Tháng 2,Cần Thơ,,"Ninh Kiều, Cần Thơ",VN
733,ChIJtyHYE66JoDERNkeA0zbX2Oc,Cửa Hàng Tạp Hóa Lâm Văn Tùa,Cửa hàng bách hóa,0292 3846 404,"Cửa Hàng Tạp Hóa Lâm Văn Tùa, An Bình, Ninh Kiều, Cần Thơ","An Bình, Ninh Kiều",,Cần Thơ,,"Ninh Kiều, Cần Thơ",VN
734,ChIJdYOaXrOJoDERJmyt6qjOENw,Công Ty TNHH MTV SX TM Đá Hoa Cương Hà Thắng,Cửa hàng vật liệu xây dựng,0386 697 779,"Công Ty TNHH MTV SX TM Đá Hoa Cương Hà Thắng, 105 Đường 3-2, Hưng Lợi, Ninh Kiều, Cần Thơ","Hưng Lợi, Ninh Kiều",105 Đường 3-2,Cần Thơ,,"Ninh Kiều, Cần Thơ",VN
735,ChIJkTv8S7OJoDERqtbwEY2wlxk,Tạp Hóa Quang Bảo Ngọc,Cửa hàng bách hóa,0913 712 708,"Tạp Hóa Quang Bảo Ngọc, 141B/3 Đ. 3 Tháng 2, Hưng Lợi, Ninh Kiều, Cần Thơ","Hưng Lợi, Ninh Kiều",141B/3 Đ. 3 Tháng 2,Cần Thơ,,"Ninh Kiều, Cần Thơ",VN
736,ChIJOXlUQrOJoDER_YOKRBnks9M,Cửa Hàng Tạp Hóa Ngọc Châu,Cửa hàng bách hóa,0292 3847 340,"Cửa Hàng Tạp Hóa Ngọc Châu, 91/2, Đường 3/2 Nối Dài, Phường An Bình, Quận Ninh Kiều, An Bình, Ninh Kiều, Cần Thơ","An Bình, Ninh Kiều","91/2, Đường 3/2 Nối Dài, Phường An Bình, Quận Ninh Kiều",Cần Thơ,,"Ninh Kiều, Cần Thơ",VN
737,ChIJSSHaB66JoDER-GUJxXp1isM,Cửa Hàng Tạp Hóa Tuấn Kiệt,Cửa hàng bách hóa,0292 6280 290,"2P4W+VC9 Cửa Hàng Tạp Hóa Tuấn Kiệt, ĐT923, An Bình, Ninh Kiều, Cần Thơ","An Bình, Ninh Kiều","2P4W+VC9, ĐT923",Cần Thơ,,"Ninh Kiều, Cần Thơ",VN
738,ChIJa-nCl0qIoDER5gvGyt7qbWc,Trung Tâm Đá Hoa Cương Hà Thắng,Cửa hàng vật liệu xây dựng,0292 3838 224,"Trung Tâm Đá Hoa Cương Hà Thắng, 43 Đ. 3 Tháng 2, Hưng Lợi, Ninh Kiều, Cần Thơ","Hưng Lợi, Ninh Kiều",43 Đ. 3 Tháng 2,Cần Thơ,,"Ninh Kiều, Cần Thơ",VN
739,ChIJWeBaDq6JoDERIVwz0tchM-c,Tạp Hóa Cô Bạch,Cửa hàng bách hóa,0789 592 578,"Tạp Hóa Cô Bạch, 5 Lộ Vòng Cung, An Bình, Ninh Kiều, Cần Thơ","An Bình, Ninh Kiều",5 Lộ Vòng Cung,Cần Thơ,,"Ninh Kiều, Cần Thơ",VN
741,ChIJGVgxPrGJoDERdYzSM7dhz5Y,Nhà Thuốc Tú Hoa,Hiệu thuốc,0292 3846 456,"Nhà Thuốc Tú Hoa, 55 Duy Tân, Lê Bình, Cái Răng, Cần Thơ","Lê Bình, Cái Răng",55 Duy Tân,Cần Thơ,,"Cái Răng, Cần Thơ",VN
742,ChIJdfsyqbCJoDER8hR3czqIiC8,Cửa Hàng Hoa Tươi Thuỳ Trang,Cửa hàng hoa,0936 098 495,"2Q22+QW7 Cửa Hàng Hoa Tươi Thuỳ Trang, Trần Hưng Đạo, Lê Bình, Cái Răng, Cần Thơ","Lê Bình, Cái Răng","2Q22+QW7, Trần Hưng Đạo",Cần Thơ,,"Cái Răng, Cần Thơ",VN
743,ChIJrTj4GbGJoDERP692YFFgzP4,Cửa hàng bách hóa Kim Hiền,Cửa hàng bách hóa,0981 776 422,"Cửa hàng bách hóa Kim Hiền, 61 Trần Hưng Đạo, Lê Bình, Cái Răng, Cần Thơ","Lê Bình, Cái Răng",61 Trần Hưng Đạo,Cần Thơ,,"Cái Răng, Cần Thơ",VN
744,ChIJTyt9PrGJoDERNggDeni5OVc,Cửa Hàng Tạp Hóa Tâm Nga,Cửa hàng bách hóa,0292 3912 827,"Cửa Hàng Tạp Hóa Tâm Nga, 53/3 Hàm Nghi, Lê Bình, Cái Răng, Cần Thơ","Lê Bình, Cái Răng",53/3 Hàm Nghi,Cần Thơ,,"Cái Răng, Cần Thơ",VN
745,ChIJOQn6DbKJoDERIaqn742ZapU,Tuan Kiet Grocery Store,Cửa hàng bách hóa,0292 6280 290,"Tuan Kiet Grocery Store, 226C, Lo Vong Cung Street, Ninh Kieu District, Can Tho City, An Bình, Ninh Kiều, Cần Thơ","An Bình, Ninh Kiều","226C, Lo Vong Cung Street, Ninh Kieu District, Can Tho City",Cần Thơ,,"Ninh Kiều, Cần Thơ",VN
746,ChIJsWgeLEuJoDERIMhcDSr2h7I,TẠP HOÁ 1A,Cửa hàng tạp phẩm,,"TẠP HOÁ 1A, 3/2, Cần Thơ","An Bình, Cần Thơ",3/2,Cần Thơ,,Cần Thơ,VN
747,ChIJE0ViFbGJoDERKRmMlnzD9oM,Hieu Chi Flower Shop,Cửa hàng hoa,0977 113 846,"Hieu Chi Flower Shop, City, 59/2 Đinh Tiên Hoàng, Street, Cái Răng, Cần Thơ","Street, Cái Răng","City, 59/2 Đinh Tiên Hoàng",Cần Thơ,,"Cái Răng, Cần Thơ",VN
749,ChIJG3k3q7SJoDERnOgw5OTpz6g,Cửa Hàng Điện Thoại Di Động Minh Hòa,Cửa hàng điện thoại di động,0292 3846 447,"Cửa Hàng Điện Thoại Di Động Minh Hòa, 121A, Đường 3/2 Nối Dài, p. An Bình, Quận Ninh Kiều, Hưng Lợi, Ninh Kiều, Cần Thơ","Hưng Lợi, Ninh Kiều","121A, Đường 3/2 Nối Dài, p. An Bình, Quận Ninh Kiều",Cần Thơ,,"Ninh Kiều, Cần Thơ",VN
750,ChIJE-uHHLGJoDERg5gMemoMMjU,Cửa Hàng Tạp Hóa Zu Zu,Cửa hàng bách hóa,0942 163 861,"Cửa Hàng Tạp Hóa Zu Zu, 1 Đường 3-2, Hưng Lợi, Ninh Kiều, Cần Thơ","Hưng Lợi, Ninh Kiều",1 Đường 3-2,Cần Thơ,,"Ninh Kiều, Cần Thơ",VN
751,ChIJQSRbCEyJoDER0NrM9-zUc2U,Tạp Hóa Trang,Cửa hàng tạp phẩm,,"Tạp Hóa Trang, 564c Duy Tân, Lê Bình, Cái Răng, Cần Thơ","Lê Bình, Cái Răng",564c Duy Tân,Cần Thơ,,"Cái Răng, Cần Thơ",VN
752,ChIJNZmvS7KJoDERJlu7qxe7BX4,Bách Hóa - Mỹ Phẩm Đoan Thùy,Cửa hàng mỹ phẩm,,"2P5X+J5M Bách Hóa - Mỹ Phẩm Đoan Thùy, ĐT923, An Bình, Ninh Kiều, Cần Thơ","An Bình, Ninh Kiều","2P5X+J5M, ĐT923",Cần Thơ,,"Ninh Kiều, Cần Thơ",VN
753,ChIJI3xZQrOJoDERcVDMFtcc0DA,Cửa Hàng Tạp Hóa Thanh Tuấn,Cửa hàng bách hóa,0993 662 877,"Cửa Hàng Tạp Hóa Thanh Tuấn, 90A, Quốc Lộ 1A, P. An Bình, Quận Ninh Kiều, An Bình, Ninh Kiều, Cần Thơ","An Bình, Ninh Kiều","90A, Quốc Lộ 1A, P. An Bình, Quận Ninh Kiều",Cần Thơ,,"Ninh Kiều, Cần Thơ",VN
754,ChIJ4Z7kP7GJoDERz0EN_8o8Rtw,Tiệm Tạp Hóa Kim Tuyến,Cửa hàng bách hóa,0292 3915 483,"Tiệm Tạp Hóa Kim Tuyến, 50/3 Đinh Tiên Hoàng, Lê Bình, Cái Răng, Cần Thơ","Lê Bình, Cái Răng",50/3 Đinh Tiên Hoàng,Cần Thơ,,"Cái Răng, Cần Thơ",VN
755,ChIJPSiYMW-JoDERDRKZr-GT2Wc,Tạp hóa Bảo Ngọc,Cửa hàng tạp hóa,,"Tạp hóa Bảo Ngọc, 165 Đ. Trần Vĩnh Kiết, Hưng Lợi, Ninh Kiều, Cần Thơ","Hưng Lợi, Ninh Kiều",165 Đ. Trần Vĩnh Kiết,Cần Thơ,,"Ninh Kiều, Cần Thơ",VN
757,ChIJPUfVsrOJoDERK6GMOr8ZqqU,Cửa Hàng Đtdđ Minh Hóa,Cửa hàng,0292 3846 447,"Cửa Hàng Đtdđ Minh Hóa, 127 Đ. 3 Tháng 2, An Bình, Ninh Kiều, Cần Thơ","An Bình, Ninh Kiều",127 Đ. 3 Tháng 2,Cần Thơ,,"Ninh Kiều, Cần Thơ",VN
758,ChIJMbQJRa6JoDERhKbkm_kqXR4,Cửa Hàng Tạp Hóa Tuyết,Cửa hàng bách hóa,,"Cửa Hàng Tạp Hóa Tuyết, 157 ĐT923, An Bình, Ninh Kiều, Cần Thơ","An Bình, Ninh Kiều",157 ĐT923,Cần Thơ,,"Ninh Kiều, Cần Thơ",VN
759,ChIJzaRSOrGJoDERe7Kraxeve5E,Cửa Hàng Tạp Hóa Anh Thiện,Cửa hàng bách hóa,,"Cửa Hàng Tạp Hóa Anh Thiện, 18 Ngô Quyền, Lê Bình, Cái Răng, Cần Thơ","Lê Bình, Cái Răng",18 Ngô Quyền,Cần Thơ,,"Cái Răng, Cần Thơ",VN
778,ChIJsdK1wkiIoDERJpdR_xJeCAA,Cửa Hàng Bách Hóa Hiện Đại,Cửa hàng bách hóa,,"Cửa Hàng Bách Hóa Hiện Đại, 230 Đ. Nguyễn Hiền, Hưng Lợi, Ninh Kiều, Cần Thơ","Hưng Lợi, Ninh Kiều",230 Đ. Nguyễn Hiền,Cần Thơ,,"Ninh Kiều, Cần Thơ",VN
779,ChIJx6vefLKJoDERWY2ypgSp-gA,Tiệm hoa của Bibi,Cửa hàng hoa,,"Tiệm hoa của Bibi, 141 Nguyễn Văn Cừ Nối Dài, An Bình, Ninh Kiều, Cần Thơ","An Bình, Ninh Kiều",141 Nguyễn Văn Cừ Nối Dài,Cần Thơ,,"Ninh Kiều, Cần Thơ",VN
780,ChIJU1nz0ySJoDER9ALGmESmqAA,Tiệm tạp hoá Hậu,Cửa hàng,,"Tiệm tạp hoá Hậu, 68/20 Hẻm 132 Đ. 3 Tháng 2, Hưng Lợi, Ninh Kiều, Cần Thơ","Hưng Lợi, Ninh Kiều",68/20 Hẻm 132 Đ. 3 Tháng 2,Cần Thơ,,"Ninh Kiều, Cần Thơ",VN
781,ChIJVy5OaMmJoDERRJgHNwbj8ok,Tạp Hoá Minh Nghĩa,Cửa hàng tạp phẩm,,"2QG5+4RP Tạp Hoá Minh Nghĩa, Hưng Lợi, Ninh Kiều, Cần Thơ","Hưng Lợi, Ninh Kiều",2QG5+4RP,Cần Thơ,,"Ninh Kiều, Cần Thơ",VN
782,ChIJpyA4iuuJoDERnmL_87dZ3qk,Của hàng tạp hóa mỹ yên,Cửa hàng tạp phẩm,,"2Q96+QC4 Của hàng tạp hóa mỹ yên, Hưng Lợi, Ninh Kiều, Cần Thơ","Hưng Lợi, Ninh Kiều",2Q96+QC4,Cần Thơ,,"Ninh Kiều, Cần Thơ",VN
783,ChIJgytuZDiIoDERIXPNIM87UEs,Dntn Đá Hoa Cương Trần Vũ,Cửa hàng vật liệu xây dựng,0292 3740 688,"Dntn Đá Hoa Cương Trần Vũ, 46 Đ. Nguyễn Văn Linh, Hưng Lợi, Ninh Kiều, Cần Thơ","Hưng Lợi, Ninh Kiều",46 Đ. Nguyễn Văn Linh,Cần Thơ,,"Ninh Kiều, Cần Thơ",VN
784,ChIJf1hBPj-JoDEROI1nd5YAp5E,Tạp hóa tuấn phát,Cửa hàng tạp phẩm,,"Tạp hóa tuấn phát, 25/8 Đ. Nguyễn Văn Linh, Hưng Lợi, Ninh Kiều, Cần Thơ","Hưng Lợi, Ninh Kiều",25/8 Đ. Nguyễn Văn Linh,Cần Thơ,,"Ninh Kiều, Cần Thơ",VN
785,ChIJW3uoWDiIoDERvxDqGLBeYXI,Tạp Hóa Như,Cửa hàng bách hóa,0946 160 057,"Tạp Hóa Như, 44B Đ. Nguyễn Văn Linh, Hưng Lợi, Ninh Kiều, Cần Thơ","Hưng Lợi, Ninh Kiều",44B Đ. Nguyễn Văn Linh,Cần Thơ,,"Ninh Kiều, Cần Thơ",VN
786,ChIJ_xWXQjiIoDERVfcccmDm_EY,Tạp Hóa Hoàng Phúc,Cửa hàng bách hóa,0292 3838 307,"Tạp Hóa Hoàng Phúc, 1N4, Nguyễn Văn Linh, Phường Hưng Lợi, Quận Ninh Kiều, Thành Phố Cần Thơ, Hưng Lợi, Ninh Kiều, Cần Thơ","Hưng Lợi, Ninh Kiều","1N4, Nguyễn Văn Linh, Phường Hưng Lợi, Quận Ninh Kiều, Thành Phố Cần Thơ",Cần Thơ,,"Ninh Kiều, Cần Thơ",VN
787,ChIJ7dehZjiIoDERGxwBqv--31c,Tiệm Tạp Hóa Út Thư,Cửa hàng bách hóa,7103888452,"Tiệm Tạp Hóa Út Thư, 363 QL91B, Hưng Lợi, Ninh Kiều, Cần Thơ","Hưng Lợi, Ninh Kiều",363 QL91B,Cần Thơ,,"Ninh Kiều, Cần Thơ",VN
788,ChIJqdwoXf6JoDERr3IsJ-fsfUM,Bách Hóa Heo Nhỏ,Cửa hàng,0949 667 756,"2QG5+57H Bách Hóa Heo Nhỏ, Đ. Nguyễn Hiền, Khu dân cư 91B, Ninh Kiều, Cần Thơ","Khu dân cư 91B, Ninh Kiều","2QG5+57H, Đ. Nguyễn Hiền",Cần Thơ,,"Ninh Kiều, Cần Thơ",VN
789,ChIJF4d2XTaIoDERrO2fhzExSiU,Tạp Hóa Tuấn Minh,Cửa hàng bách hóa,0988 882 344,"Tạp Hóa Tuấn Minh, 132/7 Đ. 3 Tháng 2, Hưng Lợi, Ninh Kiều, Cần Thơ","Hưng Lợi, Ninh Kiều",132/7 Đ. 3 Tháng 2,Cần Thơ,,"Ninh Kiều, Cần Thơ",VN
790,ChIJtejSIk-IoDERhWPg3uz5tvs,Tạp Hóa Vân,Cửa hàng,,"2QC2+FHC Tạp Hóa Vân, Đ. Trần Vĩnh Kiết, Phường An Khánh, Ninh Kiều, Cần Thơ","Phường An Khánh, Ninh Kiều","2QC2+FHC, Đ. Trần Vĩnh Kiết",Cần Thơ,,"Ninh Kiều, Cần Thơ",VN
791,ChIJJ2gjSU-IoDERCPfBEdaYkkM,Tạp Hóa Cô Út,Cửa hàng bách hóa,,"Tạp Hóa Cô Út, An Bình, Ninh Kiều, Cần Thơ","An Bình, Ninh Kiều",,Cần Thơ,,"Ninh Kiều, Cần Thơ",VN
792,ChIJ07Mw2jmIoDER-AKeqcdwVzU,Cửa Hàng Tạp Hóa Phúc Thiện,Cửa hàng bách hóa,0848 099 844,"Cửa Hàng Tạp Hóa Phúc Thiện, 17B Đ. Nguyễn Văn Linh, Hưng Lợi, Ninh Kiều, Cần Thơ","Hưng Lợi, Ninh Kiều",17B Đ. Nguyễn Văn Linh,Cần Thơ,,"Ninh Kiều, Cần Thơ",VN
793,ChIJaa-wOEaIoDERAQVqR6ZIgck,Tiệm Tạp Hóa Thiên Tâm,Cửa hàng bách hóa,0917 361 743,"Tiệm Tạp Hóa Thiên Tâm, 88 Đường B22, Khu dân cư 91B, Ninh Kiều, Cần Thơ","Khu dân cư 91B, Ninh Kiều",88 Đường B22,Cần Thơ,,"Ninh Kiều, Cần Thơ",VN
794,ChIJWc5h7kWIoDERbokKRqx_MnE,Tiệm Tạp Hóa Cô Thu,Cửa hàng bách hóa,0989 952 568,"Tiệm Tạp Hóa Cô Thu, 8 Đ. Trần Vĩnh Kiết, Phường An Khánh, Ninh Kiều, Cần Thơ","Phường An Khánh, Ninh Kiều",8 Đ. Trần Vĩnh Kiết,Cần Thơ,,"Ninh Kiều, Cần Thơ",VN
795,ChIJPQY3jUiIoDERiCj-tYkm1sw,Phụ Kiện Cúc Họa Mi | Cuc Hoa Mi Accessories,Nhà thiết kế đồ trang sức,0907 663 819,"Phụ Kiện Cúc Họa Mi | Cuc Hoa Mi Accessories, 153 Đ. Nguyễn Hiền, Hưng Lợi, Ninh Kiều, Cần Thơ","Hưng Lợi, Ninh Kiều",153 Đ. Nguyễn Hiền,Cần Thơ,,"Ninh Kiều, Cần Thơ",VN
796,ChIJ-UN8ZjiIoDERXxP6ZEXSu54,Cửa Hàng Tạp Hóa Ngọc Xuyến,Cửa hàng tạp hóa,0907 829 430,"Cửa Hàng Tạp Hóa Ngọc Xuyến, Hưng Lợi, Ninh Kiều, Cần Thơ","Hưng Lợi, Ninh Kiều",,Cần Thơ,,"Ninh Kiều, Cần Thơ",VN
797,ChIJI8n-SE-IoDERm8cc7eYSyo8,Cửa Hàng Tạp Hóa Cô Phượng,Cửa hàng bách hóa,0907 567 881,"Cửa Hàng Tạp Hóa Cô Phượng, 262B Đ. Trần Vĩnh Kiết, Hưng Lợi, Ninh Kiều, Cần Thơ","Hưng Lợi, Ninh Kiều",262B Đ. Trần Vĩnh Kiết,Cần Thơ,,"Ninh Kiều, Cần Thơ",VN
798,ChIJD4JejTaIoDEREtE02C2PUI0,Cửa Hàng Tạp Hóa Thới Hưng,Cửa hàng bách hóa,0292 3838 464,"Cửa Hàng Tạp Hóa Thới Hưng, 36G, Ba Tháng Hai, Phường Hưng Lợi, Quận Ninh Kiều, Thành Phố Cần Thơ, Hưng Lợi, Ninh Kiều, Cần Thơ","Hưng Lợi, Ninh Kiều","36G, Ba Tháng Hai, Phường Hưng Lợi, Quận Ninh Kiều, Thành Phố Cần Thơ",Cần Thơ,,"Ninh Kiều, Cần Thơ",VN
799,ChIJA9sa4DmIoDER4rw2cjrrR8g,Cửa Hàng Tạp Hóa Trang,Cửa hàng tạp hóa,0918 033 133,"Cửa Hàng Tạp Hóa Trang, 17 QL91B, Hưng Lợi, Ninh Kiều, Cần Thơ","Hưng Lợi, Ninh Kiều",17 QL91B,Cần Thơ,,"Ninh Kiều, Cần Thơ",VN
800,ChIJ9TE8zcyJoDERpUhlzER4f4Y,Tạp hoá Rau Củ Quả,Cửa hàng tạp phẩm,,"Tạp hoá Rau Củ Quả, 12/28d Hẻm 132 Đ. 3 Tháng 2, An Binh, Ninh Kiều, Cần Thơ","An Binh, Ninh Kiều",12/28d Hẻm 132 Đ. 3 Tháng 2,Cần Thơ,,"Ninh Kiều, Cần Thơ",VN
801,ChIJO9tPl0eIoDERZ7YMIv-oiHQ,Công Ty TNHH Đoàn Hoà Phát,Cửa hàng bán thực phẩm sạch,0939 683 952,"Công Ty TNHH Đoàn Hoà Phát, 2C Đường B2, Khu dân cư 91B, Ninh Kiều, Cần Thơ","Khu dân cư 91B, Ninh Kiều",2C Đường B2,Cần Thơ,,"Ninh Kiều, Cần Thơ",VN
805,ChIJe9NkBWqJoDER70JqOd4lPyw,Hoa tươi Hương Tuyền,Nhà thiết kế hoa,,"Hoa tươi Hương Tuyền, 204 Đ. 30 Tháng 4, Hưng Lợi, Ninh Kiều, Cần Thơ","Hưng Lợi, Ninh Kiều",204 Đ. 30 Tháng 4,Cần Thơ,,"Ninh Kiều, Cần Thơ",VN
810,ChIJve3H_TSIoDERR_cg_bB5nWU,Tạp Hoá Phượng,Cửa hàng bách hóa,0292 3828 159,"Tạp Hoá Phượng, 108/31, Đường 30/04, Quận Ninh Kiều, Tp Cần Thơ, Hưng Lợi, Ninh Kiều, Cần Thơ","Hưng Lợi, Ninh Kiều","108/31, Đường 30/04, Quận Ninh Kiều, Tp Cần Thơ",Cần Thơ,,"Ninh Kiều, Cần Thơ",VN
812,ChIJ8T-IAACJoDERBi92H5q8Jd4,Hoa Sáp Cần Thơ,Cửa hàng hoa,,"Hoa Sáp Cần Thơ, 190 Tầm Vu, Hưng Lợi, Ninh Kiều, Cần Thơ","Hưng Lợi, Ninh Kiều",190 Tầm Vu,Cần Thơ,,"Ninh Kiều, Cần Thơ",VN
815,ChIJ2QekNTiIoDERoAhwHpT_pGQ,Sạp Hoa Tươi Thủy Ngân,Cửa hàng hoa,,"Sạp Hoa Tươi Thủy Ngân, Hưng Lợi, Ninh Kiều, Cần Thơ","Hưng Lợi, Ninh Kiều",,Cần Thơ,,"Ninh Kiều, Cần Thơ",VN
816,ChIJdx5OzDSIoDER_-8NiGJgwdI,Tạp Hóa Thu,Cửa hàng bách hóa,,"2Q66+RXV Tạp Hóa Thu, Hẻm 17, Hưng Lợi, Ninh Kiều, Cần Thơ","Hưng Lợi, Ninh Kiều","2Q66+RXV, Hẻm 17",Cần Thơ,,"Ninh Kiều, Cần Thơ",VN
817,ChIJn52IUVeJoDERk5_zJghBiAw,Tiệm Nước Hoa Chính Hãng - TRUCperfume,Cửa hàng,0962 706 808,"Tiệm Nước Hoa Chính Hãng - TRUCperfume, 12 Hẻm 553, Xuân Khánh, Ninh Kiều, Cần Thơ","Xuân Khánh, Ninh Kiều",12 Hẻm 553,Cần Thơ,,"Ninh Kiều, Cần Thơ",VN
818,ChIJrVZ0XDGIoDER94R5QjRq_Ec,Cửa Hàng Tạp Hóa Shop 180,Cửa hàng tạp hóa,0939 203 962,"Cửa Hàng Tạp Hóa Shop 180, 180/5 Hẻm 558, Hưng Lợi, Ninh Kiều, Cần Thơ","Hưng Lợi, Ninh Kiều",180/5 Hẻm 558,Cần Thơ,,"Ninh Kiều, Cần Thơ",VN
822,ChIJ49be71CJoDER-e-BYGG_4dg,TẠP HÓA THÁI LAN,Cửa hàng,0911 564 449,"2Q86+PJG TẠP HÓA THÁI LAN, Hẻm 107 Đ. 3 Tháng 2, Hưng Lợi, Ninh Kiều, Cần Thơ","Hưng Lợi, Ninh Kiều","2Q86+PJG, Hẻm 107 Đ. 3 Tháng 2",Cần Thơ,,"Ninh Kiều, Cần Thơ",VN
823,ChIJ14oytcqJoDERxItTR3IxzYM,Cửa Hàng Tạp Hóa Ngọc Diễm,Cửa hàng bách hóa,0967 311 481,"Cửa Hàng Tạp Hóa Ngọc Diễm, 557 Đ. 30 Tháng 4, Hưng Lợi, Ninh Kiều, Cần Thơ","Hưng Lợi, Ninh Kiều",557 Đ. 30 Tháng 4,Cần Thơ,,"Ninh Kiều, Cần Thơ",VN
824,ChIJD4JejTaIoDERnheKf1Vq8Ws,Tạp Hóa Ái Vân,Cửa hàng bách hóa,0917 281 707,"Tạp Hóa Ái Vân, 12/13A, Ba Tháng Hai, Phường Hưng Lợi, Quận Ninh Kiều, Thành Phố Cần Thơ, Hưng Lợi, Ninh Kiều, Cần Thơ","Hưng Lợi, Ninh Kiều","12/13A, Ba Tháng Hai, Phường Hưng Lợi, Quận Ninh Kiều, Thành Phố Cần Thơ",Cần Thơ,,"Ninh Kiều, Cần Thơ",VN
827,ChIJD4JejTaIoDERrQJbUFyEdVg,Shop Hoa Phúc Anh,Cửa hàng hoa,0939 968 393,"Shop Hoa Phúc Anh, 36A, Ba Tháng Hai, Phường Hưng Lợi, Quận Ninh Kiều, Thành Phố Cần Thơ, Hưng Lợi, Ninh Kiều, Cần Thơ","Hưng Lợi, Ninh Kiều","36A, Ba Tháng Hai, Phường Hưng Lợi, Quận Ninh Kiều, Thành Phố Cần Thơ",Cần Thơ,,"Ninh Kiều, Cần Thơ",VN
828,ChIJ76W74jKIoDERcL56JpPFPZU,Tạp Hóa Dũng Huệ,Cửa hàng,,"Tạp Hóa Dũng Huệ, Hẻm 216 Tầm Vu, Hưng Lợi, Ninh Kiều, Cần Thơ","Hưng Lợi, Ninh Kiều",Hẻm 216 Tầm Vu,Cần Thơ,,"Ninh Kiều, Cần Thơ",VN
829,ChIJ53chijaIoDERNGILNO222wc,Công Ty TNHH Hóa Chất Long Diệp,Cửa hàng bán thực phẩm sạch,0907 136 257,"Công Ty TNHH Hóa Chất Long Diệp, 132 Hẻm 132 Đ. 3 Tháng 2, Hưng Lợi, Ninh Kiều, Cần Thơ","Hưng Lợi, Ninh Kiều",132 Hẻm 132 Đ. 3 Tháng 2,Cần Thơ,,"Ninh Kiều, Cần Thơ",VN
830,ChIJYzXlGDWIoDERleaKY9rdITA,Cửa Hàng Bách Hoá Thực Phẩm Tân Hưng Phát,Cửa hàng,0292 3838 328,"Cửa Hàng Bách Hoá Thực Phẩm Tân Hưng Phát, 70, Đường 30/4, Quận Ninh Kiều, TP Cần Thơ, Hưng Lợi, Ninh Kiều, Cần Thơ","Hưng Lợi, Ninh Kiều","70, Đường 30/4, Quận Ninh Kiều, TP Cần Thơ",Cần Thơ,,"Ninh Kiều, Cần Thơ",VN
831,ChIJr6vaoNuJoDERjNHYWGtGZPg,Tạp hóa + vật tư cây cảnh Cẩm Tiên,Cửa hàng tổng hợp,,"2Q96+MJW Tạp hóa + vật tư cây cảnh Cẩm Tiên, Khu dân cư 148, Ninh Kiều, Cần Thơ","Khu dân cư 148, Ninh Kiều",2Q96+MJW,Cần Thơ,,"Ninh Kiều, Cần Thơ",VN
833,ChIJ61vwwkqIoDERiJMY_TghfV0,Tiệm Tạp Hóa Lộc,Cửa hàng bách hóa,7103600257,"Tiệm Tạp Hóa Lộc, 36H Đ. 3 Tháng 2, Hưng Lợi, Ninh Kiều, Cần Thơ","Hưng Lợi, Ninh Kiều",36H Đ. 3 Tháng 2,Cần Thơ,,"Ninh Kiều, Cần Thơ",VN
835,ChIJCen300qIoDERh5HEtwu_6aM,Tạp Hóa Lê Linh,Cửa hàng bách hóa,0939 463 733,"Tạp Hóa Lê Linh, 20 Đ. 3 Tháng 2, Hưng Lợi, Ninh Kiều, Cần Thơ","Hưng Lợi, Ninh Kiều",20 Đ. 3 Tháng 2,Cần Thơ,,"Ninh Kiều, Cần Thơ",VN
836,ChIJAebmszCIoDER24dF_X3Voq8,Tạp Hóa Trung,Cửa hàng bách hóa,,"Tạp Hóa Trung, Hưng Lợi, Ninh Kiều, Cần Thơ","Hưng Lợi, Ninh Kiều",,Cần Thơ,,"Ninh Kiều, Cần Thơ",VN
837,ChIJG9MbZ7WJoDER424mV1CSGwk,Tạp Hóa Diễm My,Cửa hàng bách hóa,,"Tạp Hóa Diễm My, Hưng Lợi, Ninh Kiều, Cần Thơ","Hưng Lợi, Ninh Kiều",,Cần Thơ,,"Ninh Kiều, Cần Thơ",VN
842,ChIJI_xO8uOJoDERrwiK8Xo92LM,Shop hoa Mộc Lan Hoa,Cửa hàng hoa,,"Shop hoa Mộc Lan Hoa, 114 Đ. 30 Tháng 4, An Lạc, Ninh Kiều, Cần Thơ","An Lạc, Ninh Kiều",114 Đ. 30 Tháng 4,Cần Thơ,,"Ninh Kiều, Cần Thơ",VN
846,ChIJUyEFpyaIoDERC_JeCsXhenI,Shop Hoa Tươi Minh Nguyên,Cửa hàng hoa,0915 717 671,"Shop Hoa Tươi Minh Nguyên, 9 Đ. 30 Tháng 4, Xuân Khánh, Ninh Kiều, Cần Thơ","Xuân Khánh, Ninh Kiều",9 Đ. 30 Tháng 4,Cần Thơ,,"Ninh Kiều, Cần Thơ",VN
854,ChIJAdIp4oKJoDER0hU_ms6bPVM,Hoa Boutique,Cửa hàng quần áo nữ,0939 148 838,"Hoa Boutique, 51/47/7 Đường 3 tháng 2, Xuân Khánh, Ninh Kiều, Cần Thơ 900000","Xuân Khánh, Ninh Kiều",51/47/7 Đường 3 tháng 2,Cần Thơ,900000.0,"Ninh Kiều, Cần Thơ",VN
855,ChIJz8RdF-CJoDERf2If51pj1BA,Xương rồng sen đá Hoa lá nhà Vy - CS3,Cửa hàng hoa,0939 800 105,"Xương rồng sen đá Hoa lá nhà Vy - CS3, 146 Đ. Trần Văn Hoài, Xuân Khánh, Ninh Kiều, Cần Thơ","Xuân Khánh, Ninh Kiều",146 Đ. Trần Văn Hoài,Cần Thơ,,"Ninh Kiều, Cần Thơ",VN
857,ChIJKZyLU_2JoDER_Ah-5KJ0728,Tinh dầu nước hoa AIS,Cửa hàng nước hoa,0963 646 509,"Tinh dầu nước hoa AIS, 65B1 Bờ Hồ Bún Xáng, Phường An Khánh, Ninh Kiều, Cần Thơ 94000","Phường An Khánh, Ninh Kiều",65B1 Bờ Hồ Bún Xáng,Cần Thơ,94000.0,"Ninh Kiều, Cần Thơ",VN
861,ChIJdw4NqBmIoDER3vMRkmAtek0,Công Ty Tnhh Một Thành Viên Văn Phòng Phẩm Thiên Hoa Sen,Cửa hàng,0909 098 793,"Công Ty Tnhh Một Thành Viên Văn Phòng Phẩm Thiên Hoa Sen, 23 Nguyễn Cư Trinh, An Phú, Ninh Kiều, Cần Thơ","An Phú, Ninh Kiều",23 Nguyễn Cư Trinh,Cần Thơ,,"Ninh Kiều, Cần Thơ",VN
862,ChIJXaRM6hmIoDERQ-ILcbaoHgI,Tạp Hóa 49,Cửa hàng bách hóa,,"Tạp Hóa 49, Xuân Khánh, Ninh Kiều, Cần Thơ","Xuân Khánh, Ninh Kiều",,Cần Thơ,,"Ninh Kiều, Cần Thơ",VN
863,ChIJyTETVRQ7awcRddi6ixRPDyA,Vựa Gạo Hoà Ánh 2,Cửa hàng gạo,0943 490 095,"Vựa Gạo Hoà Ánh 2, 116 Đ. Mậu Thân, An Nghiệp, Ninh Kiều, Cần Thơ","An Nghiệp, Ninh Kiều",116 Đ. Mậu Thân,Cần Thơ,,"Ninh Kiều, Cần Thơ",VN
864,ChIJiaFhfRWIoDERewWnuYOAWNw,Cửa Hàng Tạp Hóa Thúy Loan,Cửa hàng bách hóa,1699 294049,"Cửa Hàng Tạp Hóa Thúy Loan, 381Q1 Đ. Nguyễn Văn Cừ, Phường An Khánh, Ninh Kiều, Cần Thơ","Phường An Khánh, Ninh Kiều",381Q1 Đ. Nguyễn Văn Cừ,Cần Thơ,,"Ninh Kiều, Cần Thơ",VN
865,ChIJSTKElqqJoDERSGF8eKJTGgE,Tạp hoá Phương,Cửa hàng tạp hóa,,"Tạp hoá Phương, 49g Nguyễn Văn Trỗi, Xuân Khánh, Ninh Kiều, Cần Thơ","Xuân Khánh, Ninh Kiều",49g Nguyễn Văn Trỗi,Cần Thơ,,"Ninh Kiều, Cần Thơ",VN
866,ChIJXUnvxD6IoDERgm5zkENBats,Tạp Hóa Cô Liễu,Cửa hàng bách hóa,0783 909 676,"Tạp Hóa Cô Liễu, 256 Đường 3 Tháng 2, Hưng Lợi, Ninh Kiều, Cần Thơ","Hưng Lợi, Ninh Kiều",256 Đường 3 Tháng 2,Cần Thơ,,"Ninh Kiều, Cần Thơ",VN
867,ChIJO4cAUSOIoDERuVaUu2Ip748,Cửa Hàng Trang Sức Mỹ Phẩm Nước Hoa Kim Yến,Cửa hàng mỹ phẩm,0986 453 650,"Cửa Hàng Trang Sức Mỹ Phẩm Nước Hoa Kim Yến, 124/5A, Đường 3/2, Phường Xuân Khánh, Quận Ninh Kiều, Thành Phố Cần Thơ, Xuân Khánh, Ninh Kiều, Cần Thơ","Xuân Khánh, Ninh Kiều","124/5A, Đường 3/2, Phường Xuân Khánh, Quận Ninh Kiều, Thành Phố Cần Thơ",Cần Thơ,,"Ninh Kiều, Cần Thơ",VN
869,ChIJxbG_wuaJoDERynxK9v4C6F0,Tạp hoá Quyển,Cửa hàng tạp hóa,,"Tạp hoá Quyển, 124/11a Đ. 3 Tháng 2, Xuân Khánh, Ninh Kiều, Cần Thơ","Xuân Khánh, Ninh Kiều",124/11a Đ. 3 Tháng 2,Cần Thơ,,"Ninh Kiều, Cần Thơ",VN
873,ChIJt9muCfSJoDERM9V7dOXWJK0,"Số 27/3B, đường Mậu Thân, An Hòa, Ninh Kiều Cần thơ",Cửa hàng,,"Số 27/3B, đường Mậu Thân, An Hòa, Ninh Kiều Cần thơ, 27/3b Đ. Mậu Thân, An Hoà, Ninh Kiều, Cần Thơ","An Hoà, Ninh Kiều",27/3b Đ. Mậu Thân,Cần Thơ,,"Ninh Kiều, Cần Thơ",VN
886,ChIJcQaD8p1ioDERvWWDf9E3dxo,Tiệm Hoa Tươi Anh Thư,Cửa hàng hoa,,"Tiệm Hoa Tươi Anh Thư, An Lạc, Ninh Kiều, Cần Thơ","An Lạc, Ninh Kiều",,Cần Thơ,,"Ninh Kiều, Cần Thơ",VN
892,ChIJcevi0B-IoDERoTM3Nci6NUw,Quán Bia Lạnh Thanh Hòa,Cửa hàng bán đồ ăn nấu sẵn,0949 261 474,"Quán Bia Lạnh Thanh Hòa, 85 Đ. Đề Thám, Tân An, Ninh Kiều, Cần Thơ","Tân An, Ninh Kiều",85 Đ. Đề Thám,Cần Thơ,,"Ninh Kiều, Cần Thơ",VN
893,ChIJbekLF6BioDEROjxNjCznljI,Tạp Hoá Hùng,Cửa hàng bách hóa,,"Tạp Hoá Hùng, An Cư, Ninh Kiều, Cần Thơ","An Cư, Ninh Kiều",,Cần Thơ,,"Ninh Kiều, Cần Thơ",VN
895,ChIJtWuJi6BioDERfCoEuEeHky4,Nhà Thuốc Vĩnh Hòa Đường,Hiệu thuốc,0292 3844 585,"Nhà Thuốc Vĩnh Hòa Đường, 22/3, Đường Ngô Quyền, Quận Cái Răng, Tân An, Ninh Kiều, Cần Thơ","Tân An, Ninh Kiều","22/3, Đường Ngô Quyền, Quận Cái Răng",Cần Thơ,,"Ninh Kiều, Cần Thơ",VN
896,ChIJtylje59ioDER2WtMN6CAGrM,Cửa Hàng Máy Nổ Hoa Mỹ,Cửa hàng,0919 616 668,"Cửa Hàng Máy Nổ Hoa Mỹ, 6 Chợ An Lạc, Đường Điện Biên Phủ, Quận Ninh Kiều, Tp Cần Thơ, Tân An, Ninh Kiều, Cần Thơ","Tân An, Ninh Kiều","6 Chợ An Lạc, Đường Điện Biên Phủ, Quận Ninh Kiều, Tp Cần Thơ",Cần Thơ,,"Ninh Kiều, Cần Thơ",VN
897,ChIJlyx6Z6BioDER_at5Atk9QdM,Cửa Hàng Bách Hóa Soda,Cửa hàng bách hóa,0941 988 511,"Cửa Hàng Bách Hóa Soda, 24 Đ. Nguyễn Khuyến, Tân An, Ninh Kiều, Cần Thơ","Tân An, Ninh Kiều",24 Đ. Nguyễn Khuyến,Cần Thơ,,"Ninh Kiều, Cần Thơ",VN
902,ChIJK8BjFmZjoDER0oeOfyjsRFY,"CÀ PHÊ BÀ NGOẠI, CHÚ DƯƠNG, DÌ HẠNH, DÌ HOA",Quán cà phê,,"2QMQ+R5P CÀ PHÊ BÀ NGOẠI, CHÚ DƯƠNG, DÌ HẠNH, DÌ HOA, Đ. Thủ Khoa Huân, Tân An, Ninh Kiều, Cần Thơ","Tân An, Ninh Kiều","2QMQ+R5P, Đ. Thủ Khoa Huân",Cần Thơ,,"Ninh Kiều, Cần Thơ",VN
903,ChIJ-eK3aWuJoDER5Rvq9zxI2w8,Tiệm hoa Gina's Garden 2,Cửa hàng hoa,,"Tiệm hoa Gina's Garden 2, 53/8 Đ. Lê Lai, An Phú, Ninh Kiều, Cần Thơ","An Phú, Ninh Kiều",53/8 Đ. Lê Lai,Cần Thơ,,"Ninh Kiều, Cần Thơ",VN
904,ChIJoSVIHKJioDERiKYPf9XPCRc,Nhà Thuốc Tân Tế Hòa,Hiệu thuốc,0292 3821 859,"Nhà Thuốc Tân Tế Hòa, 70 Đường Hai Bà Trưng, Tân An, Ninh Kiều, Cần Thơ","Tân An, Ninh Kiều",70 Đường Hai Bà Trưng,Cần Thơ,,"Ninh Kiều, Cần Thơ",VN
905,ChIJfdTJhZ9ioDERTBkM3Gxkf9Y,Shop Nước Hoa Di Li Perfume,Cửa hàng mỹ phẩm,0988 539 456,"Shop Nước Hoa Di Li Perfume, 48 Đ. Nam Kỳ Khởi Nghĩa, Tân An, Ninh Kiều, Cần Thơ 900000","Tân An, Ninh Kiều",48 Đ. Nam Kỳ Khởi Nghĩa,Cần Thơ,900000.0,"Ninh Kiều, Cần Thơ",VN
906,ChIJFyPweZ9ioDER-5Sox1PikmE,Cửa Hàng Đtdđ Phước Hòa,Cửa hàng,,"2QJP+P49 Cửa Hàng Đtdđ Phước Hòa, Đ. Nam Kỳ Khởi Nghĩa, Tân An, Ninh Kiều, Cần Thơ","Tân An, Ninh Kiều","2QJP+P49, Đ. Nam Kỳ Khởi Nghĩa",Cần Thơ,,"Ninh Kiều, Cần Thơ",VN
907,ChIJQ9qpiZ9ioDERPAE7OaBQ1hU,Cửa Hàng Mỹ Phẩm Hồ Quang Hoà,Cửa hàng mỹ phẩm,0934 391 145,"Cửa Hàng Mỹ Phẩm Hồ Quang Hoà, 44/1A, Đường Nam Kỳ Khởi Nghĩa, Phường Tân An, Quận Ninh Kiều, Tân An, Ninh Kiều, Cần Thơ","Tân An, Ninh Kiều","44/1A, Đường Nam Kỳ Khởi Nghĩa, Phường Tân An, Quận Ninh Kiều",Cần Thơ,,"Ninh Kiều, Cần Thơ",VN
908,ChIJAyuRRp9ioDER33Fm0bpEpXA,Cửa Hàng Tạp Hóa Thanh,Cửa hàng bách hóa,0292 3753 832,"Cửa Hàng Tạp Hóa Thanh, 127, Đường Phan Đình Phùng, Quận Ninh Kiều, Tân An, Ninh Kiều, Cần Thơ","Tân An, Ninh Kiều","127, Đường Phan Đình Phùng, Quận Ninh Kiều",Cần Thơ,,"Ninh Kiều, Cần Thơ",VN
910,ChIJ35AQRcdjoDERjCYG4RbAokc,Tạp hoá và đồ chơi trẻ em,Cửa hàng đồ chơi,0939 365 379,"Tạp hoá và đồ chơi trẻ em, 6 Nguyễn Thái Học, Tân An, Ninh Kiều, Cần Thơ","Tân An, Ninh Kiều",6 Nguyễn Thái Học,Cần Thơ,,"Ninh Kiều, Cần Thơ",VN
911,ChIJ4_ZJFh-IoDER7Bn7pHqTql4,Cửa Hàng Tạp Hóa Ngọc Ngân,Cửa hàng bách hóa,0292 3830 793,"Cửa Hàng Tạp Hóa Ngọc Ngân, 81, Trần Bình Trọng, Phường An Phú, Quận Ninh Kiều, TP Cần Thơ, An Phú, Ninh Kiều, Cần Thơ","An Phú, Ninh Kiều","81, Trần Bình Trọng, Phường An Phú, Quận Ninh Kiều, TP Cần Thơ",Cần Thơ,,"Ninh Kiều, Cần Thơ",VN
912,ChIJbVPPlp9ioDERoynqa6_VKwE,Cửa Hàng Văn Hóa Phẩm Phật Giáo,Cửa hàng đồ mới lạ,0292 3810 826,"Cửa Hàng Văn Hóa Phẩm Phật Giáo, 128 Đường Nguyễn An Ninh, Tân An, Ninh Kiều, Cần Thơ","Tân An, Ninh Kiều",128 Đường Nguyễn An Ninh,Cần Thơ,,"Ninh Kiều, Cần Thơ",VN
913,ChIJh5Nkr59ioDERXhq64Ny_lMw,Cửa Hàng Tạp Hoá Chí Thảo,Cửa hàng bách hóa,0939 607 099,"Cửa Hàng Tạp Hoá Chí Thảo, 70 Đ. Đồng Khởi, Tân An, Ninh Kiều, Cần Thơ","Tân An, Ninh Kiều",70 Đ. Đồng Khởi,Cần Thơ,,"Ninh Kiều, Cần Thơ",VN
914,ChIJq6qH-KBioDERtvpii0D_H1w,Công Ty TNHH Sản Xuất Thương Mại Hoa Mẫu Đơn,Cửa hàng đồ gia dụng,0939 888 166,"Công Ty TNHH Sản Xuất Thương Mại Hoa Mẫu Đơn, 71 Đ. Ngô Quyền, Tân An, Ninh Kiều, Cần Thơ 02923","Tân An, Ninh Kiều",71 Đ. Ngô Quyền,Cần Thơ,2923.0,"Ninh Kiều, Cần Thơ",VN
