,place_id,name,main_category,phone,address,address_ward,address_street,address_city,address_postal_code,address_state,address_country_code,coordinates
0,,Winter Spring Homestay,Căn hộ,,,,,,,,,"10.044890403747559,105.78294372558594"
15,,Queenie House - Twin Room,Nhà ở,,,,,,,,,"10.033379554748535,105.77765655517578"
16,,Dan Sinh Homestay - Deluxe Family Room,Nhà ở,,,,,,,,,"9.979809761047363,105.76624298095703"
21,,Orchid Garden Homestay Can Tho,Nhà nghỉ dưỡng cho thuê,,,,,,,,,"10.05543041229248,105.76979064941406"
31,,My Hoa Mekong Homestay,Nhà nghỉ dưỡng cho thuê,,,,,,,,,"10.021245002746582,105.83057403564453"
46,,De Aquar Home Can Tho,Nơi lưu trú,,,,,,,,,"10.047750473022461,105.78265380859375"
61,,Magnolia's Can Tho - Apartment with Balcony,Nhà ở,,,,,,,,,"10.030960083007812,105.78511810302734"
62,,Emerald Boutique Stay - Studio with Balcony,Nhà ở,,,,,,,,,"10.033880233764648,105.78282165527344"
65,,LITTLE DALAT HOMESTAY,Nhà nghỉ dưỡng cho thuê,,,,,,,,,"10.024749755859375,105.75074005126953"
75,,Green Sunshine Can Tho,Nhà ở,,,,,,,,,"10.05085277557373,105.7489013671875"
76,,De Rivé Homestay,Nhà nghỉ dưỡng cho thuê,,,,,,,,,"10.034440040588379,105.78829956054688"
88,,Manh Phat Motel,Nhà nghỉ dưỡng cho thuê,,,,,,,,,"10.043149948120117,105.76545715332031"
103,,Mekong Daniel Resort(Bungalow2),Nhà nghỉ dưỡng cho thuê,,,,,,,,,"10.036060333251953,105.7806396484375"
106,,"Căn hộ 70m2, 2 phòng ngủ",Căn hộ,,,,,,,,,"10.044839859008789,105.76423645019531"
108,,Cu Lao Xanh Homestay Can Tho,Căn hộ,,,,,,,,,"10.061630249023438,105.77639770507812"
109,,My Hoa Mekong Homestay - Bungalow,Căn hộ,,,,,,,,,"10.021240234375,105.83056640625"
110,,ARYE guest house,Nhà nghỉ dưỡng cho thuê,,,,,,,,,"10.006210327148438,105.73985290527344"
123,,Grandma's House 2,Căn hộ,,,,,,,,,"10.001629829406738,105.74474334716797"
147,,B Home B23 - Home away from home,Căn hộ,,,,,,,,,"10.050515174865723,105.77742004394531"
148,,B Home B22 - Where you can feel like home,Căn hộ,,,,,,,,,"10.050569534301758,105.77743530273438"
149,,Fabulous Mekong Homestay,Nhà ở,,,,,,,,,"10.033040046691895,105.77652740478516"
150,,Ni's Homestay,Nhà nghỉ dưỡng cho thuê,,,,,,,,,"10.034284591674805,105.77201080322266"
151,,08 Homestay - Deluxe Double or Twin Room with City View,Nhà ở,,,,,,,,,"10.045470237731934,105.7787094116211"
152,,Can Tho home & apartment,Nhà nghỉ dưỡng cho thuê,,,,,,,,,"10.03390121459961,105.7854995727539"
153,,Homestay demo,Nhà ở,,,,,,,,,"10.038840293884277,105.76325225830078"
154,,Homestay Can Tho Green Sunshine,Nhà bungalow,,,,,,,,,"10.050985336303711,105.74891662597656"
155,,Aluny Boutiquestay,Nhà ở,,,,,,,,,"10.029813766479492,105.78693389892578"
156,,Thịnh's House - King Room with Balcony,Nhà ở,,,,,,,,,"10.046979904174805,105.77401733398438"
157,,Homestay Can Tho Green Sunshine - B room,Nhà nghỉ dưỡng cho thuê,,,,,,,,,"10.05090618133545,105.7486801147461"
158,,DUY'S HOME- Rooms for 4 people with bathroom,Nhà ở,,,,,,,,,"10.045860290527344,105.78703308105469"
159,,LASAOMA HOMESTAY / QUEEN BED / PET FRIENDLY,Căn hộ,,,,,,,,,"10.037070274353027,105.76679992675781"
160,,La'ANh Boutique Stay - Standard Double Room,Căn hộ,,,,,,,,,"10.051810264587402,105.77440643310547"
161,,Rosy 1 studio with balcony on downtown,Nhà nghỉ dưỡng cho thuê,,,,,,,,,"10.034455299377441,105.77664947509766"
162,,Căn hộ trung tâm - chia sẽ,Nhà ở,,,,,,,,,"10.045459747314453,105.78185272216797"
163,,Stay House - Quadruple Room,Nhà ở,,,,,,,,,"10.032620429992676,105.77973937988281"
164,,Mekong Daniel Resort (Bungalow3),Nhà bungalow,,,,,,,,,"10.035633087158203,105.7806625366211"
165,,MIHA Villa - Three-Bedroom Apartment,Nhà ở,,,,,,,,,"10.011969566345215,105.74526977539062"
166,,HO GIA AN Home - Phòng cho nhóm đi du lịch,Nhà nghỉ dưỡng cho thuê,,,,,,,,,"10.006148338317871,105.7398910522461"
167,,Nhu's House,Nhà nghỉ dưỡng cho thuê,,,,,,,,,"10.037798881530762,105.78453063964844"
168,,Ctmedia bed and breakfast,Nhà nghỉ dưỡng cho thuê,,,,,,,,,"10.009037017822266,105.78750610351562"
169,,HO GIA AN Home - Double Room,Nhà ở,,,,,,,,,"10.006190299987793,105.73990631103516"
170,,Can Tho GREEN SUNSHINE with nature ( Lotus R),Nhà nghỉ dưỡng cho thuê,,,,,,,,,"10.050835609436035,105.74880981445312"
171,,Winter Spring Colors House,Nhà ở,,,,,,,,,"10.049039840698242,105.78510284423828"
172,,Mekong Daniel Resort,Nhà bungalow,,,,,,,,,"9.98318862915039,105.72578430175781"
173,,Nhu's House 2 - Two-Bedroom Apartment,Nhà ở,,,,,,,,,"10.027680397033691,105.75221252441406"
174,,Nha Homestay-Family Bungalow (for 6),Nhà bungalow,,,,,,,,,"10.000419616699219,105.71096801757812"
175,,Winter Spring Homestay Center - Family Studio,Nhà ở,,,,,,,,,"10.044890403747559,105.7857894897461"
176,,HO GIA AN Home - Căn hộ ngay chợ nổi,Nhà nghỉ dưỡng cho thuê,,,,,,,,,"10.006192207336426,105.73989868164062"
182,,K2 Homestay  Coffee - Superior Family Room,Nhà ở,,,,,,,,,"10.038649559020996,105.78398895263672"
185,,10 Homestay,Nhà ở,,,,,,,,,"10.034440040588379,105.78858184814453"
186,,LaLa mini house + Balcony - 5min to Ninh Kieu Quay,Nhà nghỉ dưỡng cho thuê,,,,,,,,,"10.0286226272583,105.78504943847656"
188,,Mekong Daniel Resort (Bungalow6),Nhà bungalow,,,,,,,,,"10.035633087158203,105.7806625366211"
189,,54 Homestay - Deluxe King Room,Nhà ở,,,,,,,,,"10.033120155334473,105.78585815429688"
191,,Six Homestay,Nhà ở,,,,,,,,,"10.030449867248535,105.77841186523438"
200,,Thanh Hằng Homestay - Family Room with Balcony,Nhà ở,,,,,,,,,"10.032890319824219,105.78575897216797"
202,,Brown House Resort - Family Bungalow,Nhà ở,,,,,,,,,"10.003560066223145,105.707763671875"
236,,HO GIA AN Home - Căn hộ ngay Trung Tâm,Nhà ở,,,,,,,,,"10.045479774475098,105.78191375732422"
237,,Homestay Cô Gái Việt - Double Room,Nhà ở,,,,,,,,,"10.043379783630371,105.77559661865234"
249,,"Nhà phố nguyên căn ngay trung tâm sầm uất, 7 phòng",Nhà ở,,,,,,,,,"10.044610023498535,105.7859878540039"
302,,Quyen's house - Double Room with Private Bathroom,Nhà ở,,,,,,,,,"10.035149574279785,105.78095245361328"
307,,Manh Phat Guesthouse - Nhà Nghỉ Mạnh Phát - Superior Queen Room,Nhà ở,,,,,,,,,"10.0458402633667,105.76325988769531"
328,,Thiên Lam Homestay - Double Room,Nhà ở,,,,,,,,,"10.03872013092041,105.76331329345703"
352,,HO GIA AN Home - Phòng tình nhân,Nhà ở,,,,,,,,,"10.03777027130127,105.7668228149414"
363,,Ruby Motel,Căn hộ,,,,,,,,,"10.020606994628906,105.7439956665039"
374,,Mekong Farmstay CanTho - C.R Floating Market - Deluxe Double Room,Nhà ở,,,,,,,,,"10.015000343322754,105.72875213623047"
376,,HO GIA AN Home - Phòng chung,Nhà ở,,,,,,,,,"10.006059646606445,105.7397689819336"
380,,Nhà Yên’s Homestays Hotels Retreats Cần Thơ,Nhà ở,,,,,,,,,"10.011489868164062,105.75845336914062"
385,,Bến Đò Xưa Homestay  Coffee - Double Room with Pool View,Căn hộ,,,,,,,,,"9.997659683227539,105.74674987792969"
387,,HO GIA AN Home - Căn hộ yên bình,Biệt thự,,,,,,,,,"10.00214958190918,105.74638366699219"
397,,Cato Homestay - Bungalow with Patio,Nhà ở,,,,,,,,,"10.00037956237793,105.71109008789062"
433,,Grandma House - King Room,Nhà ở,,,,,,,,,"10.001500129699707,105.74507904052734"
490,,NHÀ NGHỈ XUÂN LAN CẦN THƠ - Deluxe Triple Room,Nhà ở,,,,,,,,,"10.018610000610352,105.76660919189453"
576,,Can Tho Home  Apartment,Nhà ở,,,,,,,,,"10.033889770507812,105.7854995727539"
579,,Nhu's house,Nhà ở,,,,,,,,,"10.037739753723145,105.78431701660156"
