,place_id,name,main_category,phone,address,address_ward,address_street,address_city,address_postal_code,address_state,address_country_code
0,ChIJs09sOMiJoDERsnB5dgb86HM,Cỏ Mềm Homelab,Cửa hàng mỹ phẩm,0866 906 099,"Cỏ Mềm Homelab, 99A Đ. 30 Tháng 4, Xuân Khánh, Ninh Kiều, Cần Thơ 900000","Xuân Khánh, Ninh Kiều",99A Đ. 30 Tháng 4,Cần Thơ,900000.0,"Ninh Kiều, Cần Thơ",VN
1,ChIJNVqJ6RyIoDERJvQ_9SazcK4,Kim Phượng Cosmetics,Cửa hàng mỹ phẩm,0987 175 093,"Kim Phượng Cosmetics, 132/42/73 Hùng Vương, An Cư, Ninh Kiều, Cần Thơ","An Cư, Ninh Kiều",132/42/73 Hùng Vương,Cần Thơ,,"Ninh Kiều, Cần Thơ",VN
3,ChIJF8xUHKpioDEROtlsI9Xe9aM,Cửa Hàng Phụ Liệu Tóc Nail Toàn Mỹ,Cửa hàng mỹ phẩm,0292 3769 954,"Cửa Hàng Phụ Liệu Tóc Nail Toàn Mỹ, 07 Đ. Hồ Tùng Mậu, Thới Bình, Ninh Kiều, Cần Thơ","Thới Bình, Ninh Kiều",07 Đ. Hồ Tùng Mậu,Cần Thơ,,"Ninh Kiều, Cần Thơ",VN
6,ChIJt-WIoAKIoDER6N_sUMw2_HY,Mỹ Phẩm Phượng Cần Thơ,Cửa hàng mỹ phẩm,0918 363 774,"Mỹ Phẩm Phượng Cần Thơ, 16 Trần Quang Khải, Cái Khế, Ninh Kiều, Cần Thơ 940000","Cái Khế, Ninh Kiều",16 Trần Quang Khải,Cần Thơ,940000.0,"Ninh Kiều, Cần Thơ",VN
21,ChIJu-TV04UsdTER4U5_-oKBNz4,Mỹ phẩm LAN,Cửa hàng mỹ phẩm,0966 232 349,"Mỹ phẩm LAN, 35 Đ. Võ Văn Vân, Âp 4، Bình Chánh, Thành phố Hồ Chí Minh 700000",Âp 4، Bình Chánh,35 Đ. Võ Văn Vân,Thành phố Hồ Chí Minh,700000.0,"Bình Chánh, Thành phố Hồ Chí Minh",VN
35,ChIJLfuPueGJoDERGsL-TofAE_E,Shop Mỹ Phẩm Thương.cosmetics,Cửa hàng mỹ phẩm,,"Shop Mỹ Phẩm Thương.cosmetics, 291 Nguyễn Văn Cừ Nối Dài, Phường An Khánh, Ninh Kiều, Cần Thơ","Phường An Khánh, Ninh Kiều",291 Nguyễn Văn Cừ Nối Dài,Cần Thơ,,"Ninh Kiều, Cần Thơ",VN
50,ChIJZ-aWYCSIoDERDHyCMeq22Y4,Xinh Xinh Cần Thơ - Chuyên bán mỹ phẩm,Cửa hàng mỹ phẩm,0919 810 112,"Xinh Xinh Cần Thơ - Chuyên bán mỹ phẩm, C74 Đ. Trần Khánh Dư, Xuân Khánh, Ninh Kiều, Cần Thơ","Xuân Khánh, Ninh Kiều",C74 Đ. Trần Khánh Dư,Cần Thơ,,"Ninh Kiều, Cần Thơ",VN
65,ChIJ5ew45kKJoDERvenbRlfggEs,Beauty Garden (Mỹ Phẩm Chính Hãng),Cửa hàng mỹ phẩm,,"Beauty Garden (Mỹ Phẩm Chính Hãng), 462 Đ. Nguyễn Văn Cừ, An Hoà, Ninh Kiều, Cần Thơ","An Hoà, Ninh Kiều",462 Đ. Nguyễn Văn Cừ,Cần Thơ,,"Ninh Kiều, Cần Thơ",VN
71,ChIJ8TIyMkuJoDERBhqxaHW74DU,Mỹ Phẩm Nhật Bản-Thúy Phương,Cửa hàng mỹ phẩm,0939 978 534,"Mỹ Phẩm Nhật Bản-Thúy Phương, 2 Đ. Nguyễn Văn Cừ, Cái Khế, Ninh Kiều, Cần Thơ","Cái Khế, Ninh Kiều",2 Đ. Nguyễn Văn Cừ,Cần Thơ,,"Ninh Kiều, Cần Thơ",VN
72,ChIJ6Zw4cGyIoDERyVZXiF2krgc,Tiệm Mỹ Phẩm Bích Liên,Cửa hàng mỹ phẩm,0774 000 408,"Tiệm Mỹ Phẩm Bích Liên, 7 Đ. Tô Hiến Thành, Phường An Khánh, Ninh Kiều, Cần Thơ","Phường An Khánh, Ninh Kiều",7 Đ. Tô Hiến Thành,Cần Thơ,,"Ninh Kiều, Cần Thơ",VN
73,ChIJT2uDl_cpdTERRVariZS9UPA,Mỹ Phẩm Gò Vấp,Cửa hàng mỹ phẩm,0905 671 828,"Mỹ Phẩm Gò Vấp, 30 Phạm Văn Chiêu, Phường 14, Gò Vấp, Thành phố Hồ Chí Minh 727010","Phường 14, Gò Vấp",30 Phạm Văn Chiêu,Thành phố Hồ Chí Minh,727010.0,"Gò Vấp, Thành phố Hồ Chí Minh",VN
115,ChIJ1Yv2OoCJoDERzyt5Jtn7qi8,2T Home - Dược mỹ phẩm làm đẹp Cần Thơ,Cửa hàng mỹ phẩm,0939 515 050,"2T Home - Dược mỹ phẩm làm đẹp Cần Thơ, Trường Đại Học Y Dược, Số 36 Đường Số 7, khu dân cư phía sau, Ninh Kiều, Cần Thơ","khu dân cư phía sau, Ninh Kiều","Trường Đại Học Y Dược, Số 36 Đường Số 7",Cần Thơ,,"Ninh Kiều, Cần Thơ",VN
116,ChIJe4B6xwqJoDERilJMRM7ySXA,Lục Sắc Store- Mỹ phẩm& Phụ kiện,Cửa hàng mỹ phẩm,0798 791 111,"Lục Sắc Store- Mỹ phẩm& Phụ kiện, 20z Đ. Số 7, khu giảng viên đại học, p, Ninh Kiều, Cần Thơ","khu giảng viên đại học, p, Ninh Kiều",20z Đ. Số 7,Cần Thơ,,"Ninh Kiều, Cần Thơ",VN
138,ChIJT22CAiGJoDERf8Dv7_ncDbI,BÈO COSMETICS,Cửa hàng mỹ phẩm,0946 866 648,"BÈO COSMETICS, 88/33/3 Đ. Cách Mạng Tháng 8, Cái Khế, Ninh Kiều, Cần Thơ 90000","Cái Khế, Ninh Kiều",88/33/3 Đ. Cách Mạng Tháng 8,Cần Thơ,90000.0,"Ninh Kiều, Cần Thơ",VN
145,ChIJc2PmeMeJoDER2MdfZ0RfhsE,Tiệm Mỹ Phẩm Nhà Lee,Cửa hàng mỹ phẩm,0917 817 442,"Tiệm Mỹ Phẩm Nhà Lee, G2 Đinh Công Tráng, An Phú, Ninh Kiều, Cần Thơ 94115","An Phú, Ninh Kiều",G2 Đinh Công Tráng,Cần Thơ,94115.0,"Ninh Kiều, Cần Thơ",VN
146,ChIJzciadqKJoDERkM0tFL8Vhag,Mỹ Phẩm An Phát,Cửa hàng mỹ phẩm,0787 251 777,"Mỹ Phẩm An Phát, 51 D2, 51 Đ. 3/2, Xuân Khánh, Ninh Kiều, Cần Thơ 94000","Xuân Khánh, Ninh Kiều","51 D2, 51 Đ. 3/2",Cần Thơ,94000.0,"Ninh Kiều, Cần Thơ",VN
172,ChIJkYIMkqGJoDER6wWQvnYB964,Shop Mỹ Phẩm Trang Anh,Cửa hàng mỹ phẩm,0973 224 917,"Shop Mỹ Phẩm Trang Anh, 577/91/46A Đ. 30 Tháng 4, Hưng Lợi, Ninh Kiều, Cần Thơ","Hưng Lợi, Ninh Kiều",577/91/46A Đ. 30 Tháng 4,Cần Thơ,,"Ninh Kiều, Cần Thơ",VN
176,ChIJC3-9eBOJoDERN_vMkpgTXpQ,Showroom Hương Thị Cần Thơ,Cửa hàng mỹ phẩm,0913 919 598,"Showroom Hương Thị Cần Thơ, 2A Đ. Phạm Ngũ Lão, Thới Bình, Ninh Kiều, Cần Thơ 900000","Thới Bình, Ninh Kiều",2A Đ. Phạm Ngũ Lão,Cần Thơ,900000.0,"Ninh Kiều, Cần Thơ",VN
188,ChIJu6xXfSOJoDERA1POEWUBNNg,Kim Phượng Cosmetics,Cửa hàng mỹ phẩm,0987 175 093,"Kim Phượng Cosmetics, 16 Đ. Mậu Thân, An Lạc, Ninh Kiều, Cần Thơ 90000","An Lạc, Ninh Kiều",16 Đ. Mậu Thân,Cần Thơ,90000.0,"Ninh Kiều, Cần Thơ",VN
189,ChIJ23BGvFSJoDERhQd4NzB7CG8,Trung tâm mỹ phẩm Trung Sơn,Cửa hàng mỹ phẩm,0292 3747 567,"Trung tâm mỹ phẩm Trung Sơn, 96 Đ. Lý Tự Trọng, P, Ninh Kiều, Cần Thơ 900000","P, Ninh Kiều",96 Đ. Lý Tự Trọng,Cần Thơ,900000.0,"Ninh Kiều, Cần Thơ",VN
197,ChIJwUx1Pa-JoDERD4ydCV5bTSo,The Vuong's Cosmetics,Cửa hàng mỹ phẩm,0908 796 677,"The Vuong's Cosmetics, 315 Đ. Nguyễn Văn Linh, Phường An Khánh, Ninh Kiều, Cần Thơ","Phường An Khánh, Ninh Kiều",315 Đ. Nguyễn Văn Linh,Cần Thơ,,"Ninh Kiều, Cần Thơ",VN
208,ChIJ3Saq5LaJoDERZtAiRYt9ctI,Mỹ phẩm Gia Hân Beauty's,Cửa hàng mỹ phẩm,0907 092 016,"2Q33+XCG Mỹ phẩm Gia Hân Beauty's, Trần Chiên, Lê Bình, Cái Răng, Cần Thơ","Lê Bình, Cái Răng","2Q33+XCG, Trần Chiên",Cần Thơ,,"Cái Răng, Cần Thơ",VN
220,ChIJWR1AaXmJoDER80zoGV-xrvk,Chi nhánh mỹ phẩm Huyền Cò Cần Thơ - Đăng Thư,Cửa hàng mỹ phẩm,0914 708 999,"Chi nhánh mỹ phẩm Huyền Cò Cần Thơ - Đăng Thư, 388z47 KV2, Phường An Khánh, Ninh Kiều, 94100","Phường An Khánh, Ninh Kiều",388z47 KV2,Cần Thơ,94100.0,"Ninh Kiều, Cần Thơ",VN
221,ChIJW-ETCCxhoDERya3aE5s0PwM,Mỹ phẩm cao cấp Như Huỳnh,Cửa hàng mỹ phẩm,0945 348 839,"Mỹ phẩm cao cấp Như Huỳnh, 438 ĐT925B, Phú Hữu A, Châu Thành, Hậu Giang","Phú Hữu A, Châu Thành",438 ĐT925B,Hậu Giang,,"Châu Thành, Hậu Giang",VN
222,ChIJIR0hrdRdoDERKzGZVIm9ubY,MỸ PHẨM CAO CẤP NGUYÊN,Cửa hàng mỹ phẩm,0943 195 000,"RXQ5+88F MỸ PHẨM CAO CẤP NGUYÊN, Thới An Hội, Kế Sách, Sóc Trăng","Thới An Hội, Kế Sách",RXQ5+88F,Sóc Trăng,,"Kế Sách, Sóc Trăng",VN
223,ChIJn4zjxJGJoDERyDGgRhqSMLM,Kim Phượng Cosmetics,Cửa hàng mỹ phẩm,0987 175 093,"Kim Phượng Cosmetics, 16B Đ. Mậu Thân, p, Ninh Kiều, Cần Thơ 900000","p, Ninh Kiều",16B Đ. Mậu Thân,Cần Thơ,900000.0,"Ninh Kiều, Cần Thơ",VN
227,ChIJHWKXxLZjoDERnwAlNpgcBEc,Nhà Phân Phối Mỹ Phẩm Khải Phương,Cửa hàng mỹ phẩm,0939 061 962,"Nhà Phân Phối Mỹ Phẩm Khải Phương, 35 Đ. Hồ Tùng Mậu, Cái Khế, Ninh Kiều, Cần Thơ","Cái Khế, Ninh Kiều",35 Đ. Hồ Tùng Mậu,Cần Thơ,,"Ninh Kiều, Cần Thơ",VN
239,ChIJH9CPHGB9CQARPT6hL0qQMOs,mỹ phẩm Hàn Quốc Cần Thơ,Cửa hàng mỹ phẩm,0859 599 168,,,,,,,
241,ChIJGWWKQB-JoDERfKjTNqtZZmY,Minh Thuỷ - Chuyên Mỹ Phẩm chính hãng,Cửa hàng mỹ phẩm,0949 037 777,"Minh Thuỷ - Chuyên Mỹ Phẩm chính hãng, 329V1/10, 329 Đ. Nguyễn Văn Linh, Hưng Lợi, Ninh Kiều, Cần Thơ 900000","Hưng Lợi, Ninh Kiều","329V1/10, 329 Đ. Nguyễn Văn Linh",Cần Thơ,900000.0,"Ninh Kiều, Cần Thơ",VN
242,ChIJ-WZmI5uJoDERWXsrEzvrB0A,GIẢM CÂN TIẾN HẠNH CHÍNH HÃNG,Cửa hàng mỹ phẩm,0949 668 579,"GIẢM CÂN TIẾN HẠNH CHÍNH HÃNG, 69B/1DC An Gia, Đ. Nguyễn Văn Linh, Long Hòa, Bình Thủy, Cần Thơ","Long Hòa, Bình Thủy","69B/1DC An Gia, Đ. Nguyễn Văn Linh",Cần Thơ,,"Bình Thủy, Cần Thơ",VN
248,ChIJ8-vJ0uCJoDER3YKQSpYTMUc,Kem tẩy lông thảo dược N’store,Cửa hàng mỹ phẩm,0907 721 912,"Kem tẩy lông thảo dược N’store, 13 đường 15, kdc Hoàng Quân, Thường Thạnh, Ninh Kiều, Cần Thơ 90000","Thường Thạnh, Ninh Kiều","13 đường 15, kdc Hoàng Quân",Cần Thơ,90000.0,"Ninh Kiều, Cần Thơ",VN
253,ChIJw3dnXWuIoDER36XMB7uPKzc,Mỹ Phẩm Yến Ngọc - VP Lakia Cần Thơ,Cửa hàng mỹ phẩm,0939 725 454,"Mỹ Phẩm Yến Ngọc - VP Lakia Cần Thơ, 44 Đường số 23, Phường An Khánh, Ninh Kiều, Cần Thơ","Phường An Khánh, Ninh Kiều",44 Đường số 23,Cần Thơ,,"Ninh Kiều, Cần Thơ",VN
255,ChIJLbHPYqOJoDERsz7EjhSvfRo,Nhím's Cosmetic,Cửa hàng mỹ phẩm,0705 969 595,"Nhím's Cosmetic, Đường số 27, Khu Tái định cư, Ninh Kiều, Cần Thơ","Khu Tái định cư, Ninh Kiều",Đường số 27,Cần Thơ,,"Ninh Kiều, Cần Thơ",VN
277,ChIJ4c5TiUiIoDER8XiD7d5sbpY,Công Ty Tnhh Mỹ Phẩm D&C,Cửa hàng,,"Công Ty Tnhh Mỹ Phẩm D&C, 161 Đ. Nguyễn Hiền, Khu dân cư 91B, Ninh Kiều, Cần Thơ","Khu dân cư 91B, Ninh Kiều",161 Đ. Nguyễn Hiền,Cần Thơ,,"Ninh Kiều, Cần Thơ",VN
280,ChIJ3xTj4eyJoDERfVg-6nGLNZs,"Amy Store - Mỹ Phẩm / Makeup cưới, tiệc...",Cửa hàng mỹ phẩm,0988 271 759,"Amy Store - Mỹ Phẩm / Makeup cưới, tiệc..., 388/21 Hẻm 388, Khu Vực I, Ninh Kiều, Cần Thơ","Khu Vực I, Ninh Kiều",388/21 Hẻm 388,Cần Thơ,,"Ninh Kiều, Cần Thơ",VN
281,ChIJ4fzQYDeIoDERKFI4fVl1NRE,Shopdep USA-Mỹ phẩm xách tay từ Mỹ,Cửa hàng tạp phẩm,0763 290 876,"2QC7+X4H Shopdep USA-Mỹ phẩm xách tay từ Mỹ, Hẻm 9, Hưng Lợi, Ninh Kiều, Cần Thơ","Hưng Lợi, Ninh Kiều","2QC7+X4H, Hẻm 9",Cần Thơ,,"Ninh Kiều, Cần Thơ",VN
287,ChIJj1Zbi7eJoDERvGQhxrf4zf4,Showroom Bảo Xinh Ngân Anh,Cửa hàng mỹ phẩm,0858 777 247,"Showroom Bảo Xinh Ngân Anh, 425 Hẻm 553, Hưng Lợi, Ninh Kiều, Cần Thơ","Hưng Lợi, Ninh Kiều",425 Hẻm 553,Cần Thơ,,"Ninh Kiều, Cần Thơ",VN
293,ChIJZemXNfiDoDER3Zuubd_LvKw,Đại Lý Mỹ Phẩm Xịn Sò Thương Hiệu Magic Skin Minh Thư,Cửa hàng mỹ phẩm,0907 695 054,"Đại Lý Mỹ Phẩm Xịn Sò Thương Hiệu Magic Skin Minh Thư, Số 33 khu vực Thới Trinh C, phường, Ô Môn, Cần Thơ 900000","phường, Ô Môn",Số 33 khu vực Thới Trinh C,Cần Thơ,900000.0,"Ô Môn, Cần Thơ",VN
296,ChIJ4TsV-4mJoDERePGthpKnu_Y,Mỹ phẩm thuốc bắc trị mụn Feather,Cửa hàng mỹ phẩm,0925 727 549,"Mỹ phẩm thuốc bắc trị mụn Feather, 49 Đ. 3 Tháng 2, Xuân Khánh, Ninh Kiều, Cần Thơ","Xuân Khánh, Ninh Kiều",49 Đ. 3 Tháng 2,Cần Thơ,,"Ninh Kiều, Cần Thơ",VN
311,ChIJv3SbX1eJoDERVvKU-6FM8AM,Bác Sĩ Ngọc Hà - Da Liễu Thẩm Mỹ,Cơ sở chăm sóc da,0364 599 490,"Bác Sĩ Ngọc Hà - Da Liễu Thẩm Mỹ, 49 Đ. Đinh Tiên Hoàng, An Hội, Ninh Kiều, Cần Thơ","An Hội, Ninh Kiều",49 Đ. Đinh Tiên Hoàng,Cần Thơ,,"Ninh Kiều, Cần Thơ",VN
316,ChIJY8q5qySIoDER-jQRvAgVkkk,MAI Store SON MÔI Quà Tặng MỸ PHẨM CT,Cửa hàng mỹ phẩm,0967 333 357,"MAI Store SON MÔI Quà Tặng MỸ PHẨM CT, Tp, 192 Võ Văn Kiệt, An Hoà, Ninh Kiều, Cần Thơ 900000","An Hoà, Ninh Kiều","Tp, 192 Võ Văn Kiệt",Cần Thơ,900000.0,"Ninh Kiều, Cần Thơ",VN
331,ChIJwbvxBYmJoDERekepZXDWzEw,Mỹ phẩm Tờ i Ti - Hàng Auth ở đây,Cửa hàng mỹ phẩm,0931 779 018,"Mỹ phẩm Tờ i Ti - Hàng Auth ở đây, 93 Đ. Trương Định, Tân An, Ninh Kiều, Cần Thơ 920000","Tân An, Ninh Kiều",93 Đ. Trương Định,Cần Thơ,920000.0,"Ninh Kiều, Cần Thơ",VN
337,ChIJe_sU8KdioDERmqBzkntMu-A,Lynkhouse - Korean Cosmetics Shop,Cửa hàng mỹ phẩm,0766 958 928,"Lynkhouse - Korean Cosmetics Shop, 179 Đ. 3 Tháng 2, Hưng Lợi, Ninh Kiều, Cần Thơ","Hưng Lợi, Ninh Kiều",179 Đ. 3 Tháng 2,Cần Thơ,,"Ninh Kiều, Cần Thơ",VN
343,ChIJD1k-AjqJoDERj5Vtc0BFfOs,Hantie Beauty,Cửa hàng mỹ phẩm,0931 720 820,"Hantie Beauty, 19 Đ. Trần Nam Phú, Phường An Khánh, Ninh Kiều, Cần Thơ 94000","Phường An Khánh, Ninh Kiều",19 Đ. Trần Nam Phú,Cần Thơ,94000.0,"Ninh Kiều, Cần Thơ",VN
358,ChIJZX_PaQiJoDERxl5dAGaB7vs,Mỹ phẩm chenny shop,Cửa hàng mỹ phẩm,,"Mỹ phẩm chenny shop, 58 Đ. Võ Trường Toản, An Hoà, Ninh Kiều, Cần Thơ","An Hoà, Ninh Kiều",58 Đ. Võ Trường Toản,Cần Thơ,,"Ninh Kiều, Cần Thơ",VN
373,ChIJb_7GT76HoDER3bi8xUifTMc,Shop Mỹ Phẩm Ti's Beauty Cosmetics,Trung tâm mua sắm,0931 779 018,"Shop Mỹ Phẩm Ti's Beauty Cosmetics, 286/49a Đ. Cách Mạng Tháng 8, Bùi Hữu Nghĩa, Bình Thủy, Cần Thơ","Bùi Hữu Nghĩa, Bình Thủy",286/49a Đ. Cách Mạng Tháng 8,Cần Thơ,,"Bình Thủy, Cần Thơ",VN
387,ChIJB98n7dWJoDERECO2dE5dimQ,TỪ HẢO COSMETIC,Cửa hàng mỹ phẩm,,"TỪ HẢO COSMETIC, 46 Trần Bạch Đằng, Phường An Khánh, Ninh Kiều, Cần Thơ","Phường An Khánh, Ninh Kiều",46 Trần Bạch Đằng,Cần Thơ,,"Ninh Kiều, Cần Thơ",VN
388,ChIJnd2Yq9WJoDER_CeggUpmkh8,Mỹ Phẩm Hanayuki Cần Thơ - Trà Đá Store,Cửa hàng mỹ phẩm,0899 024 456,"Mỹ Phẩm Hanayuki Cần Thơ - Trà Đá Store, 108D, Chung Cư A4, Khu dân cư 91B, 960000","Khu dân cư 91B, Ninh Kiều","108D, Chung Cư A4",Cần Thơ,960000.0,"Ninh Kiều, Cần Thơ",VN
392,ChIJ703OkL2JoDERwlFgrJHFwqw,Mỹ Phẩm Nàng Thơ,Cửa hàng mỹ phẩm,0292 3664 999,"Mỹ Phẩm Nàng Thơ, 209 Đ. 30 Tháng 4, Xuân Khánh, Ninh Kiều, Cần Thơ","Xuân Khánh, Ninh Kiều",209 Đ. 30 Tháng 4,Cần Thơ,,"Ninh Kiều, Cần Thơ",VN
407,ChIJk90fkjCJoDERJ6R3yiQlLGA,Nu Cosmetics - Mỹ Phẩm Chính Hãng Cần Thơ,Cửa hàng mỹ phẩm,0326 164 070,"Nu Cosmetics - Mỹ Phẩm Chính Hãng Cần Thơ, 132/30A Hẻm 132 Đ. 3 Tháng 2, P, Ninh Kiều, Cần Thơ 900000","P, Ninh Kiều",132/30A Hẻm 132 Đ. 3 Tháng 2,Cần Thơ,900000.0,"Ninh Kiều, Cần Thơ",VN
408,ChIJe93IadCJoDERNQpofDKX8VY,Mỹ phẩm Hợp Nhất,Cửa hàng mỹ phẩm,0939 960 626,"Mỹ phẩm Hợp Nhất, 56-55 Duy Tân, Lê Bình, Cái Răng, Cần Thơ","Lê Bình, Cái Răng",56-55 Duy Tân,Cần Thơ,,"Cái Răng, Cần Thơ",VN
415,ChIJCagU82uIoDERSSb9ZqmII2k,Mỹ Phẩm Nhật Trinh,Cửa hàng mỹ phẩm,0388 882 100,"Mỹ Phẩm Nhật Trinh, 70 Đ. Tô Hiến Thành, Phường An Khánh, Ninh Kiều, Cần Thơ","Phường An Khánh, Ninh Kiều",70 Đ. Tô Hiến Thành,Cần Thơ,,"Ninh Kiều, Cần Thơ",VN
418,ChIJC7oafCGIoDERwZd1Yr_SZuc,Yeulamdep Shop,Cửa hàng mỹ phẩm,0939 901 018,"Yeulamdep Shop, 94/10, Bờ Kè Mậu Thân, phường An Phú, Ninh Kiều, Cần Thơ, Hẻm 4 Mậu Thân, Xuân Khánh, Ninh Kiều, Cần Thơ","Xuân Khánh, Ninh Kiều","94/10, Bờ Kè Mậu Thân, phường An Phú, Ninh Kiều, Cần Thơ, Hẻm 4 Mậu Thân",Cần Thơ,,"Ninh Kiều, Cần Thơ",VN
449,ChIJZdXDS59ioDERCvn4w3NLUVE,Cửa Hàng Mỹ Phẫm Đấu,Cửa hàng mỹ phẩm,0292 3821 602,"Cửa Hàng Mỹ Phẫm Đấu, 05 Đ. Phan Chu Trinh, Tân An, Ninh Kiều, Cần Thơ","Tân An, Ninh Kiều",05 Đ. Phan Chu Trinh,Cần Thơ,,"Ninh Kiều, Cần Thơ",VN
450,ChIJEyiaL6eJoDERcMqkv7OXEjo,Cửa Hàng Mỹ Phẩm Nguyễn Ngọc Kiệt,Cửa hàng mỹ phẩm,0851 175 045,"Cửa Hàng Mỹ Phẩm Nguyễn Ngọc Kiệt, A5/14, Đường Nguyễn Văn Trường, Khu Dân Cư 923, Khu Vực Lợi Dũ B, Phường An Bình, Quận Ninh Kiều, An Bình, Ninh Kiều, Cần Thơ","An Bình, Ninh Kiều","A5/14, Đường Nguyễn Văn Trường, Khu Dân Cư 923, Khu Vực Lợi Dũ B, Phường An Bình, Quận Ninh Kiều",Cần Thơ,,"Ninh Kiều, Cần Thơ",VN
459,ChIJNzgB8V2JoDERXfM43X1zslg,Song Quân Store,Cửa hàng mỹ phẩm,,"Song Quân Store, 57/11 Đ. Võ Trường Toản, An Hoà, Ninh Kiều, Cần Thơ","An Hoà, Ninh Kiều",57/11 Đ. Võ Trường Toản,Cần Thơ,,"Ninh Kiều, Cần Thơ",VN
477,ChIJD_NMUCOIoDERXt413hplDGM,Trang sức Bạc - Mỹ phẩm Kim Yến,Cửa hàng tạp phẩm,0292 6250 777,"Trang sức Bạc - Mỹ phẩm Kim Yến, 124 Đ. 3 Tháng 2, Xuân Khánh, Ninh Kiều, Cần Thơ","Xuân Khánh, Ninh Kiều",124 Đ. 3 Tháng 2,Cần Thơ,,"Ninh Kiều, Cần Thơ",VN
481,ChIJvZO0UjqJoDERHxkZ3nCznoc,Mỹ Phẩm Thanh Trang Hannah Cần Thơ,Cửa hàng mỹ phẩm,0909 575 634,"Mỹ Phẩm Thanh Trang Hannah Cần Thơ, 12/25G Đường 3/2, Xuân Khánh, Ninh Kiều, Cần Thơ","Xuân Khánh, Ninh Kiều",12/25G Đường 3/2,Cần Thơ,,"Ninh Kiều, Cần Thơ",VN
487,ChIJd9L16hKIoDERr7eXQzqFOsw,Shop Anh Ngọc Sỉ Quần Áo =mỹ Phẩm,Cửa hàng quần áo,0377 489 719,"Shop Anh Ngọc Sỉ Quần Áo =mỹ Phẩm, Đ/C 160y/14 hẻm liên tổ 12.đến 20, Phường An Khánh, Ninh Kiều, Cần Thơ","Phường An Khánh, Ninh Kiều",Đ/C 160y/14 hẻm liên tổ 12.đến 20,Cần Thơ,,"Ninh Kiều, Cần Thơ",VN
497,ChIJf7mlhCqJoDERiubWwmpq_a8,MIN Cosmetics,Cửa hàng mỹ phẩm,0939 224 556,"MIN Cosmetics, 38 Đ. Nguyễn Việt Hồng, An Lạc, Ninh Kiều, Cần Thơ","An Lạc, Ninh Kiều",38 Đ. Nguyễn Việt Hồng,Cần Thơ,,"Ninh Kiều, Cần Thơ",VN
499,ChIJUaJYgqBjoDERHgcQ5g4LkWA,Mỹ Phẩm Oanh Nam,Cửa hàng mỹ phẩm,,"Mỹ Phẩm Oanh Nam, 40 Võ Thị Sáu, Tân An, Ninh Kiều, Cần Thơ","Tân An, Ninh Kiều",40 Võ Thị Sáu,Cần Thơ,,"Ninh Kiều, Cần Thơ",VN
500,ChIJg5CyOASJoDERPg8S1XO20gw,Linh store,Cửa hàng mỹ phẩm,0974 567 858,"Linh store, 133 c Đ. Mậu Thân, An Hoà, Ninh Kiều, Cần Thơ","An Hoà, Ninh Kiều",133 c Đ. Mậu Thân,Cần Thơ,,"Ninh Kiều, Cần Thơ",VN
501,ChIJ8ayr4JJjoDER_75D7xjUxUk,Mỹ Phẩm Chính Hãng Nguyễn Đào,Cửa hàng mỹ phẩm,0901 115 466,"Mỹ Phẩm Chính Hãng Nguyễn Đào, 60 Ngô Đức Kế, Tân An, Ninh Kiều, Cần Thơ","Tân An, Ninh Kiều",60 Ngô Đức Kế,Cần Thơ,,"Ninh Kiều, Cần Thơ",VN
502,ChIJBdftD2uIoDERAs7rnWNYKu4,Cửa Hàng Mỹ Phẩm Hoàng Hương,Cửa hàng mỹ phẩm,0292 3834 523,"Cửa Hàng Mỹ Phẩm Hoàng Hương, 171 Đường số 24, Phường An Khánh, Ninh Kiều, Cần Thơ","Phường An Khánh, Ninh Kiều",171 Đường số 24,Cần Thơ,,"Ninh Kiều, Cần Thơ",VN
503,ChIJYYW0_i6JoDERl3BvnPoDZto,Lily Shop Mỹ Phẩm Chính Hãng,Cửa hàng mỹ phẩm,0901 084 271,"Lily Shop Mỹ Phẩm Chính Hãng, 95D Đ. Số 2, Kdc Thới Nhựt 2, Ninh Kiều, Cần Thơ 90000","Kdc Thới Nhựt 2, Ninh Kiều",95D Đ. Số 2,Cần Thơ,90000.0,"Ninh Kiều, Cần Thơ",VN
504,ChIJ71wIf-FjoDER0_NFhGRt1nU,Hóa mỹ phẩm Phụng Yến,Cửa hàng mỹ phẩm,0913 111 103,"Hóa mỹ phẩm Phụng Yến, 200 Đ. A2, KDC, Cái Răng, Cần Thơ 02923","KDC, Cái Răng",200 Đ. A2,Cần Thơ,2923.0,"Cái Răng, Cần Thơ",VN
505,ChIJxaaq-nqJoDERcWRzrws_E64,Cửa Hàng Mỹ Phẩm Chính Hãng Cần Thơ,Cửa hàng mỹ phẩm,0767 607 027,"Cửa Hàng Mỹ Phẩm Chính Hãng Cần Thơ, 3/1A Nguyễn Thị Tạo, Long Hoà, Bình Thủy, Cần Thơ","Long Hoà, Bình Thủy",3/1A Nguyễn Thị Tạo,Cần Thơ,,"Bình Thủy, Cần Thơ",VN
506,ChIJzx7DHiCJoDERQlL8ZJUCm3U,NẠ DIẾP CÁ - NPP MỸ PHẨM MEEA ORGANIC CHÍNH HÃNG TẠI CẦN THƠ,Cửa hàng mỹ phẩm,0964 980 951,"NẠ DIẾP CÁ - NPP MỸ PHẨM MEEA ORGANIC CHÍNH HÃNG TẠI CẦN THƠ, C1-28, đường số 17, KDC Hoàng Quân, P. Thường Thạnh, Q. Cái Răng, Tp, Cần Thơ 903722","Thường Thạnh, Cái Răng","C1-28, đường số 17, KDC Hoàng Quân, P. Thường Thạnh, Q. Cái Răng, Tp",Cần Thơ,903722.0,"Cái Răng, Cần Thơ",VN
536,ChIJW6rhsX-JoDERjbU2CBg-iQ8,Shop Mỹ Phẩm Mqskin Cần Thơ 59 Chu Văn An,Cửa hàng mỹ phẩm,,"Shop Mỹ Phẩm Mqskin Cần Thơ 59 Chu Văn An, 59 Chu Văn An, Phường An Khánh, Ninh Kiều, Cần Thơ","Phường An Khánh, Ninh Kiều",59 Chu Văn An,Cần Thơ,,"Ninh Kiều, Cần Thơ",VN
538,ChIJGzSMB7qJoDERux_AGLyTZpc,Shop Mỹ Phẩm Lam Khương,Cửa hàng bách hóa,0916 456 510,"Shop Mỹ Phẩm Lam Khương, 234D, Khu Vực Yên Trung, Trần Hưng Đạo, Phường Lê Bình, Quận Cái Răng, Thành Phố Cần Thơ, Lê Bình, Cái Răng, Cần Thơ","Lê Bình, Cái Răng","234D, Khu Vực Yên Trung, Trần Hưng Đạo, Phường Lê Bình, Quận Cái Răng, Thành Phố Cần Thơ",Cần Thơ,,"Cái Răng, Cần Thơ",VN
544,ChIJiZnLGZaHoDERdRtlHWruPw0,Mỹ Phẩm Thiên Nhiên Almonds,Cửa hàng mỹ phẩm,0353 887 788,,,,,,,
629,ChIJY2_xqD6JoDERIUf-WeQsy4w,Dcc’Store Cần Thơ ( mỹ phẩm makeup và phụ kiện cưới),Cửa hàng mỹ phẩm,0342 256 879,"Dcc’Store Cần Thơ ( mỹ phẩm makeup và phụ kiện cưới), 69A Đ. Cách Mạng Tháng 8, Tân An, Ninh Kiều, Cần Thơ 900000","Tân An, Ninh Kiều",69A Đ. Cách Mạng Tháng 8,Cần Thơ,900000.0,"Ninh Kiều, Cần Thơ",VN
630,ChIJkafWoCaIoDERU_R1ywr709w,Shop Mỹ Phẩm Kim Chi,Cửa hàng mỹ phẩm,0292 3822 325,"Shop Mỹ Phẩm Kim Chi, 197 Đ. 30 Tháng 4, Xuân Khánh, Ninh Kiều, Cần Thơ","Xuân Khánh, Ninh Kiều",197 Đ. 30 Tháng 4,Cần Thơ,,"Ninh Kiều, Cần Thơ",VN
631,ChIJv0ryXFuJoDERDDsFjhLi3YU,"Shop chuyên sỉ Mỹ Phẩm & Nước Hoa "" Nguyễn Xứng""",Cửa hàng mỹ phẩm,0939 222 388,"Shop chuyên sỉ Mỹ Phẩm & Nước Hoa "" Nguyễn Xứng"", 32/1 Đường 3 tháng 2 nối dài, An Bình, Ninh Kiều, Cần Thơ","An Bình, Ninh Kiều",32/1 Đường 3 tháng 2 nối dài,Cần Thơ,,"Ninh Kiều, Cần Thơ",VN
632,ChIJq-BvZV5ioDERY0_6bWTG37E,Shop Mỹ Phẩm THUỶ TUYỀN,Cửa hàng mỹ phẩm,0901 022 445,"Shop Mỹ Phẩm THUỶ TUYỀN, Lô 12 Đ. Bùi Quang Trinh, Phú Thứ, Cái Răng, Cần Thơ","Phú Thứ, Cái Răng",Lô 12 Đ. Bùi Quang Trinh,Cần Thơ,,"Cái Răng, Cần Thơ",VN
633,ChIJd9bd9DCJoDERDODASAN8kkM,KHO HÀNG CÔNG TY CỔ PHẦN THỰC PHẨM DINH DƯỠNG PHẠM NGUYỄN,Cửa hàng mỹ phẩm,0859 425 959,"2PPF+C9J KHO HÀNG CÔNG TY CỔ PHẦN THỰC PHẨM DINH DƯỠNG PHẠM NGUYỄN, KHU DÂN CƯ THÀNH GIAO, Bình Thủy, Cần Thơ","KHU DÂN CƯ THÀNH GIAO, Bình Thủy",2PPF+C9J,Cần Thơ,,"Bình Thủy, Cần Thơ",VN
634,ChIJK23fIPyPoDERbNrwbmBEcdc,Phân phối mỹ phẩm chính hãng H.M store,Cửa hàng mỹ phẩm,0777 696 234,"2MM9+9XF Phân phối mỹ phẩm chính hãng H.M store, Giai Xuân, Phong Điền, Cần Thơ","Giai Xuân, Phong Điền",2MM9+9XF,Cần Thơ,,"Phong Điền, Cần Thơ",VN
635,ChIJnylhXeidoDERZSfGZjmzPyA,Shop mỹ phẩm,Cửa hàng mỹ phẩm,0929 466 552,"5GCP+QQ8 Shop mỹ phẩm, Tân lợi 2, Thốt Nốt, Cần Thơ","Tân lợi 2, Thốt Nốt",5GCP+QQ8,Cần Thơ,,"Thốt Nốt, Cần Thơ",VN
636,ChIJieFxSQMrdTERX8cZdC714Vw,MỸ PHẨM HANA,Cửa hàng mỹ phẩm,0982 532 167,"MỸ PHẨM HANA, 36 Đ. Trung Mỹ - Tân Xuân, Tân Xuân, Hóc Môn, Thành phố Hồ Chí Minh","Tân Xuân, Hóc Môn",36 Đ. Trung Mỹ - Tân Xuân,Thành phố Hồ Chí Minh,,"Hóc Môn, Thành phố Hồ Chí Minh",VN
665,ChIJUVw9FW2IoDER5ReLg1L-4P0,Shop Mỹ Phẩm Ngân Khánh,Cửa hàng mỹ phẩm,0932 876 333,"Shop Mỹ Phẩm Ngân Khánh, 37, Đường 5A, Khu Dân Cư An Khánh, Phường An Khánh, Quận Ninh Kiều, Thành Phố Cần Thơ, Phường An Khánh, Ninh Kiều, Cần Thơ","Phường An Khánh, Ninh Kiều","37, Đường 5A, Khu Dân Cư An Khánh, Phường An Khánh, Quận Ninh Kiều, Thành Phố Cần Thơ",Cần Thơ,,"Ninh Kiều, Cần Thơ",VN
678,ChIJn7gbNJNjoDERzagAbZVr2Uk,Shop Mỹ Phẩm Du Bi,Cửa hàng mỹ phẩm,0939 057 769,"Shop Mỹ Phẩm Du Bi, 384A Võ Nguyên Giáp, Phú Thứ, Cái Răng, Cần Thơ","Phú Thứ, Cái Răng",384A Võ Nguyên Giáp,Cần Thơ,,"Cái Răng, Cần Thơ",VN
712,ChIJ5RJZTyWIoDERm5Inmh72Fv4,Văn Phòng Tư Vấn Mỹ Phẩm Oriflame T - N,Cửa hàng mỹ phẩm,,"Văn Phòng Tư Vấn Mỹ Phẩm Oriflame T - N, 9 Đ. 30 Tháng 4, Xuân Khánh, Ninh Kiều, Cần Thơ","Xuân Khánh, Ninh Kiều",9 Đ. 30 Tháng 4,Cần Thơ,,"Ninh Kiều, Cần Thơ",VN
737,ChIJjxTMV6lioDERLLjurvHEnCY,Cửa Hàng Mỹ Phẩm Jun Pi,Cửa hàng mỹ phẩm,0934 394 499,"Cửa Hàng Mỹ Phẩm Jun Pi, 36 Lê Lợi, Cái Khế, Ninh Kiều, Cần Thơ","Cái Khế, Ninh Kiều",36 Lê Lợi,Cần Thơ,,"Ninh Kiều, Cần Thơ",VN
738,ChIJiRwkWahioDERmVK7GQ3irzI,Công Ty Tnhh Mỹ Phẩm Sắc Đẹp Hoàn Vũ,Cửa hàng mỹ phẩm,,"Công Ty Tnhh Mỹ Phẩm Sắc Đẹp Hoàn Vũ, 99 Trần Văn Khéo, Cái Khế, Ninh Kiều, Cần Thơ","Cái Khế, Ninh Kiều",99 Trần Văn Khéo,Cần Thơ,,"Ninh Kiều, Cần Thơ",VN
739,ChIJMdim0KlioDERm2kGNd_N_L4,Shop Mỹ Phẩm Tím,Cửa hàng mỹ phẩm,0987 001 707,"Shop Mỹ Phẩm Tím, 7 Đ. Hồ Tùng Mậu, Thới Bình, Ninh Kiều, Cần Thơ","Thới Bình, Ninh Kiều",7 Đ. Hồ Tùng Mậu,Cần Thơ,,"Ninh Kiều, Cần Thơ",VN
740,ChIJ40i4PKhioDERpiaxNHkSpAg,Cửa Hàng Mỹ Phẩm Hàn Quốc Tonymoly,Cửa hàng mỹ phẩm,0907 655 050,"Cửa Hàng Mỹ Phẩm Hàn Quốc Tonymoly, 66B1 Đ. Ung Văn Khiêm, An Hội, Ninh Kiều, Cần Thơ","An Hội, Ninh Kiều",66B1 Đ. Ung Văn Khiêm,Cần Thơ,,"Ninh Kiều, Cần Thơ",VN
741,ChIJEY_NcgSIoDERlqX-WHKbLdI,Showroom Mỹ Phẩm 8 - Nhà Phân Phối Chinh Lê,Hiệu thuốc,0909 051 535,"Showroom Mỹ Phẩm 8 - Nhà Phân Phối Chinh Lê, 62 Đ. Trần Việt Châu, Thới Bình, Ninh Kiều, Cần Thơ","Thới Bình, Ninh Kiều",62 Đ. Trần Việt Châu,Cần Thơ,,"Ninh Kiều, Cần Thơ",VN
742,ChIJXT6QbZaJoDERdmVf_HNUNFA,Chuyên sỉ Mỹ Phẩm và Hàng Gia Dụng,Cửa hàng mỹ phẩm,0777 370 003,"Chuyên sỉ Mỹ Phẩm và Hàng Gia Dụng, 16C1 Đ. Mậu Thân, An Nghiệp, Ninh Kiều, Cần Thơ","An Nghiệp, Ninh Kiều",16C1 Đ. Mậu Thân,Cần Thơ,,"Ninh Kiều, Cần Thơ",VN
743,ChIJhZz37xmIoDER-3dZsgrr0vk,Cửa Hàng Mỹ Phẩm Anh Đào,Cửa hàng mỹ phẩm,0946 409 969,"Cửa Hàng Mỹ Phẩm Anh Đào, 65 Đ. Mậu Thân, An Nghiệp, Ninh Kiều, Cần Thơ","An Nghiệp, Ninh Kiều",65 Đ. Mậu Thân,Cần Thơ,,"Ninh Kiều, Cần Thơ",VN
744,ChIJu127vhKIoDERK2YRC0KQs_A,Cửa Hàng Mỹ Phẩm Nên Võ,Cửa hàng mỹ phẩm,0868 071 616,"Cửa Hàng Mỹ Phẩm Nên Võ, 159X/12, Khu Vực 1, Ninh Kiều, Cần Thơ","Khu Vực 1, Ninh Kiều",159X/12,Cần Thơ,,"Ninh Kiều, Cần Thơ",VN
745,ChIJbcbxw7tjoDERCLICrVIRRms,Mỹ Phẩm Mười Hó Cần Thơ,Cửa hàng mỹ phẩm,0936 234 897,"Mỹ Phẩm Mười Hó Cần Thơ, TTTM, Nhà lồng 1, Nguyễn Hữu Cảnh, Cái Khế, Ninh Kiều, Cần Thơ","Cái Khế, Ninh Kiều","TTTM, Nhà lồng 1, Nguyễn Hữu Cảnh",Cần Thơ,,"Ninh Kiều, Cần Thơ",VN
746,ChIJw5qmPh-IoDERc6OqPcdlA6Q,Cửa Hàng Dược Mỹ Phẩm Trinh Lê Lê,Cửa hàng mỹ phẩm,0704 656 466,"Cửa Hàng Dược Mỹ Phẩm Trinh Lê Lê, 30 Đ. Trần Bình Trọng, An Phú, Ninh Kiều, Cần Thơ","An Phú, Ninh Kiều",30 Đ. Trần Bình Trọng,Cần Thơ,,"Ninh Kiều, Cần Thơ",VN
747,ChIJG58936FioDER8U-rLUXGnXY,Cửa Hàng Mỹ Phẩm Huỳnh Dung,Cửa hàng mỹ phẩm,0292 3825 794,"Cửa Hàng Mỹ Phẩm Huỳnh Dung, 40 Nguyễn Thái Học, Tân An, Ninh Kiều, Cần Thơ","Tân An, Ninh Kiều",40 Nguyễn Thái Học,Cần Thơ,,"Ninh Kiều, Cần Thơ",VN
748,ChIJ_8e7uiGIoDERQyusLnpQCo8,Shop Mỹ Phẩm Thiên Thần Sắc Đẹp,Cửa hàng mỹ phẩm,0916 976 967,"Shop Mỹ Phẩm Thiên Thần Sắc Đẹp, 108 Đ. 30 Tháng 4, An Lạc, Ninh Kiều, Cần Thơ","An Lạc, Ninh Kiều",108 Đ. 30 Tháng 4,Cần Thơ,,"Ninh Kiều, Cần Thơ",VN
749,ChIJSTfCZBOIoDERBW3BNGnsP-M,Công Ty TNHH Hoá Mỹ Phẩm Mai Linh,Cửa hàng mỹ phẩm,0292 3892 357,"2QQ6+R74 Công Ty TNHH Hoá Mỹ Phẩm Mai Linh, Nguyễn Văn Cừ, Phường An Bình, Quận Ninh Kiều, Thành Phố Cần Thơ, Phường An Khánh, Ninh Kiều, Cần Thơ","Phường An Khánh, Ninh Kiều","2QQ6+R74, Nguyễn Văn Cừ, Phường An Bình, Quận Ninh Kiều, Thành Phố Cần Thơ",Cần Thơ,,"Ninh Kiều, Cần Thơ",VN
750,ChIJJ6A2f59ioDERBkpI4G9KK0E,Cửa Hàng Mỹ Phẩm Cosmetics,Cửa hàng mỹ phẩm,0292 3828 413,"Cửa Hàng Mỹ Phẩm Cosmetics, 30 Đ. Nam Kỳ Khởi Nghĩa, Tân An, Ninh Kiều, Cần Thơ","Tân An, Ninh Kiều",30 Đ. Nam Kỳ Khởi Nghĩa,Cần Thơ,,"Ninh Kiều, Cần Thơ",VN
751,ChIJn_lGUe-JoDERv4FzXwFgUKc,Mỹ phẩm My House,Cửa hàng mỹ phẩm,0364 437 125,"Mỹ phẩm My House, An Lạc, Ninh Kiều, Cần Thơ 90000","An Lạc, Ninh Kiều",,Cần Thơ,90000.0,"Ninh Kiều, Cần Thơ",VN
752,ChIJHYe0imuIoDER4uvIGRVk0Wk,Cửa Hàng Mỹ Phẩm Li Mi,Cửa hàng mỹ phẩm,0899 477 797,"Cửa Hàng Mỹ Phẩm Li Mi, 62 Đ. Tô Hiến Thành, Phường An Khánh, Ninh Kiều, Cần Thơ","Phường An Khánh, Ninh Kiều",62 Đ. Tô Hiến Thành,Cần Thơ,,"Ninh Kiều, Cần Thơ",VN
753,ChIJVYKz2SOIoDERF7ECvNpxsrs,Shop Ngọc Beauty,Cửa hàng mỹ phẩm,0919 306 089,"Shop Ngọc Beauty, 6/6, Mậu Thân, Phường Xuân Khánh, Quận Ninh Kiều, Thành Phố Cần Thơ, Xuân Khánh, Ninh Kiều, Cần Thơ","Xuân Khánh, Ninh Kiều","6/6, Mậu Thân, Phường Xuân Khánh, Quận Ninh Kiều, Thành Phố Cần Thơ",Cần Thơ,,"Ninh Kiều, Cần Thơ",VN
754,ChIJn25oQyWJoDER1BjVvBnRmck,Sỉ Mỹ Phẩm Cần Thơ,Cửa hàng mỹ phẩm,,"2QJ5+35X Sỉ Mỹ Phẩm Cần Thơ, Hẻm 11, Phường An Khánh, Ninh Kiều, Cần Thơ","Phường An Khánh, Ninh Kiều","2QJ5+35X, Hẻm 11",Cần Thơ,,"Ninh Kiều, Cần Thơ",VN
755,ChIJkRLwd4SJoDERYT6x-JcUPko,MỸ PHẨM LINH CHI,Cửa hàng mỹ phẩm,0939 789 100,"MỸ PHẨM LINH CHI, 377M6/9, Khu Vực 3, Phường An Khánh, Ninh Kiều, Cần Thơ","Phường An Khánh, Ninh Kiều","377M6/9, Khu Vực 3",Cần Thơ,,"Ninh Kiều, Cần Thơ",VN
756,ChIJMRC6x55ioDERCLIbYws5xvI,Cửa Hàng Mỹ Phẩm Ngọc Phương,Cửa hàng mỹ phẩm,0292 3811 646,"Cửa Hàng Mỹ Phẩm Ngọc Phương, 100 Đường Hai Bà Trưng, Tân An, Ninh Kiều, Cần Thơ","Tân An, Ninh Kiều",100 Đường Hai Bà Trưng,Cần Thơ,,"Ninh Kiều, Cần Thơ",VN
757,ChIJQZ5quiaIoDERmiWpqb6WF1A,Shop Mỹ Phẩm Thảo Xuân,Cửa hàng mỹ phẩm,0939 550 719,"Shop Mỹ Phẩm Thảo Xuân, 60A Đ. Mậu Thân, Xuân Khánh, Ninh Kiều, Cần Thơ","Xuân Khánh, Ninh Kiều",60A Đ. Mậu Thân,Cần Thơ,,"Ninh Kiều, Cần Thơ",VN
758,ChIJuw3CZySIoDERgFuwG_uhl_k,Cửa Hàng Mỹ Phẩm Kỳ Hân',Cửa hàng mỹ phẩm,0932 038 480,"Cửa Hàng Mỹ Phẩm Kỳ Hân', C54B Đ. Trần Khánh Dư, Xuân Khánh, Ninh Kiều, Cần Thơ","Xuân Khánh, Ninh Kiều",C54B Đ. Trần Khánh Dư,Cần Thơ,,"Ninh Kiều, Cần Thơ",VN
759,ChIJE2-MsyGIoDERJ3NuK85fMmY,Cửa Hàng Mỹ Phẩm Kim Quốc,Cửa hàng mỹ phẩm,0292 3732 373,"Cửa Hàng Mỹ Phẩm Kim Quốc, 94 Đ. Nguyễn Việt Hồng, An Lạc, Ninh Kiều, Cần Thơ","An Lạc, Ninh Kiều",94 Đ. Nguyễn Việt Hồng,Cần Thơ,,"Ninh Kiều, Cần Thơ",VN
760,ChIJIf-Uq72JoDEROaUuVt83WOY,Shop Mỹ phẩm đẹp,Cửa hàng mỹ phẩm,0782 829 599,"Shop Mỹ phẩm đẹp, 13 Đường Số 3, khu TĐC ĐHYD, Ninh Kiều, Cần Thơ","khu TĐC ĐHYD, Ninh Kiều",13 Đường Số 3,Cần Thơ,,"Ninh Kiều, Cần Thơ",VN
761,ChIJO4cAUSOIoDERuVaUu2Ip748,Cửa Hàng Trang Sức Mỹ Phẩm Nước Hoa Kim Yến,Cửa hàng mỹ phẩm,0986 453 650,"Cửa Hàng Trang Sức Mỹ Phẩm Nước Hoa Kim Yến, 124/5A, Đường 3/2, Phường Xuân Khánh, Quận Ninh Kiều, Thành Phố Cần Thơ, Xuân Khánh, Ninh Kiều, Cần Thơ","Xuân Khánh, Ninh Kiều","124/5A, Đường 3/2, Phường Xuân Khánh, Quận Ninh Kiều, Thành Phố Cần Thơ",Cần Thơ,,"Ninh Kiều, Cần Thơ",VN
762,ChIJ_bdy1M2JoDERTmJCUKp7SW4,ANTHY Cosmetic- Mỹ Phẩm Chính Hãng,Cửa hàng mỹ phẩm,0854 229 292,"ANTHY Cosmetic- Mỹ Phẩm Chính Hãng, 19 Đ. Nguyễn Hiền, Khu dân cư 91B, Ninh Kiều, Cần Thơ 94000","Khu dân cư 91B, Ninh Kiều",19 Đ. Nguyễn Hiền,Cần Thơ,94000.0,"Ninh Kiều, Cần Thơ",VN
763,ChIJvdT8XVCJoDERYB5pSUA6vio,MOHI Beauty - Mỹ Phẩm và Dược Liệu,Cửa hàng mỹ phẩm,0932 520 709,"MOHI Beauty - Mỹ Phẩm và Dược Liệu, 278 Tầm Vu, Hưng Lợi, Ninh Kiều, Cần Thơ 900000","Hưng Lợi, Ninh Kiều",278 Tầm Vu,Cần Thơ,900000.0,"Ninh Kiều, Cần Thơ",VN
764,ChIJVVVVVUCIoDERdVohExOYazg,Cửa Hàng Mỹ Phẩm Ngọc,Cửa hàng mỹ phẩm,0943 440 157,"Cửa Hàng Mỹ Phẩm Ngọc, 172, Chợ An Khánh, Phường An Khánh, Quận Ninh Kiều, Thành Phố Cần Thơ, Phường An Khánh, Ninh Kiều, Cần Thơ","Phường An Khánh, Ninh Kiều","172, Chợ An Khánh, Phường An Khánh, Quận Ninh Kiều, Thành Phố Cần Thơ",Cần Thơ,,"Ninh Kiều, Cần Thơ",VN
765,ChIJd8VLqSaIoDERyC19XzRAJp0,Cửa Hàng Mỹ Phẩm Lê Thị Ngọc Bích,Cửa hàng mỹ phẩm,0817 078 764,"Cửa Hàng Mỹ Phẩm Lê Thị Ngọc Bích, Lô 24, Chợ Xuân Khánh, Đường Ba Mươi Tháng Tư, Phường Xuân Khánh, Quận Ninh Kiều, 159 Đ. 30 Tháng 4, Xuân Khánh, Ninh Kiều, Cần Thơ","Xuân Khánh, Ninh Kiều","Lô 24, Chợ Xuân Khánh, Đường Ba Mươi Tháng Tư, Phường Xuân Khánh, Quận Ninh Kiều, 159 Đ. 30 Tháng 4",Cần Thơ,,"Ninh Kiều, Cần Thơ",VN
766,ChIJ-ZU0VzqIoDERLbN-R9Y8QtU,Cửa Hàng Mỹ Xuân,Cửa hàng mỹ phẩm,0939 905 564,"Cửa Hàng Mỹ Xuân, 51/12, Đường 3/2, Quận Ninh Kiều, Tp Cần Thơ, Hưng Lợi, Ninh Kiều, Cần Thơ","Hưng Lợi, Ninh Kiều","51/12, Đường 3/2, Quận Ninh Kiều, Tp Cần Thơ",Cần Thơ,,"Ninh Kiều, Cần Thơ",VN
767,ChIJjVEHWzmIoDER5Ap0EwwMgqE,Mỹ Phẩm Giá Sỉ Ct Shop,Cửa hàng mỹ phẩm,,"2QG7+VH6 Mỹ Phẩm Giá Sỉ Ct Shop, Hẻm 51, Xuân Khánh, Ninh Kiều, Cần Thơ","Xuân Khánh, Ninh Kiều","2QG7+VH6, Hẻm 51",Cần Thơ,,"Ninh Kiều, Cần Thơ",VN
768,ChIJkbLgssqJoDER-8lcqsVUX6s,Cửa Hàng Mỹ Phẩm Đẹp,Cửa hàng mỹ phẩm,0292 3838 110,"Cửa Hàng Mỹ Phẩm Đẹp, 36 Đ. 30 Tháng 4, Hưng Lợi, Ninh Kiều, Cần Thơ","Hưng Lợi, Ninh Kiều",36 Đ. 30 Tháng 4,Cần Thơ,,"Ninh Kiều, Cần Thơ",VN
769,ChIJf6AoUTOIoDERgQR2D50chkQ,Cơ Sở Mỹ Phẩm Tùng,Cửa hàng mỹ phẩm,0975 416 323,"Cơ Sở Mỹ Phẩm Tùng, 30, Đường Đ. Trần Hoàng Na, Hưng Lợi, Ninh Kiều, Cần Thơ","Hưng Lợi, Ninh Kiều","30, Đường Đ. Trần Hoàng Na",Cần Thơ,,"Ninh Kiều, Cần Thơ",VN
770,ChIJc6-qYiGIoDERUF86YCrDj8A,Cửa Hàng Mỹ Phẩm Thiên Nhiên,Cửa hàng mỹ phẩm,0906 226 406,"Cửa Hàng Mỹ Phẩm Thiên Nhiên, 99 Quang Trung, Hưng Phú, Cái Răng, Cần Thơ","Hưng Phú, Cái Răng",99 Quang Trung,Cần Thơ,,"Cái Răng, Cần Thơ",VN
771,ChIJJ20gwUyIoDER7vZ0df5dUt4,Cửa Hàng Mỹ Phẩm Thanh Thoảng,Cửa hàng mỹ phẩm,0907 094 450,"Cửa Hàng Mỹ Phẩm Thanh Thoảng, 145/4C Đ. Trần Vĩnh Kiết, An Bình, Ninh Kiều, Cần Thơ","An Bình, Ninh Kiều",145/4C Đ. Trần Vĩnh Kiết,Cần Thơ,,"Ninh Kiều, Cần Thơ",VN
772,ChIJ48ADgGKJoDERVmcighiVUBU,Gia Ngân sỉ mỹ phẩm cần thơ,Cửa hàng mỹ phẩm,0762 024 688,"Gia Ngân sỉ mỹ phẩm cần thơ, 102A Đ. 3 Tháng 2, Hưng Lợi, Ninh Kiều, Cần Thơ","Hưng Lợi, Ninh Kiều",102A Đ. 3 Tháng 2,Cần Thơ,,"Ninh Kiều, Cần Thơ",VN
773,ChIJD4JejTaIoDERK-vPatBLUxE,Cửa Hàng Mỹ Phẩm Kim Lý,Cửa hàng mỹ phẩm,0706 756 768,"Cửa Hàng Mỹ Phẩm Kim Lý, 10, Ba Tháng Hai, Phường Hưng Lợi, Quận Ninh Kiều, Thành Phố Cần Thơ, Hưng Lợi, Ninh Kiều, Cần Thơ","Hưng Lợi, Ninh Kiều","10, Ba Tháng Hai, Phường Hưng Lợi, Quận Ninh Kiều, Thành Phố Cần Thơ",Cần Thơ,,"Ninh Kiều, Cần Thơ",VN
774,ChIJJ9mdZl5ioDERBqW4f9G4XZ8,Shop Mỹ Phẩm Kim Ngân,Cửa hàng mỹ phẩm,0947 456 717,"2R45+462 Shop Mỹ Phẩm Kim Ngân, Đ. Bùi Quang Trinh, Phú Thứ, Cái Răng, Cần Thơ","Phú Thứ, Cái Răng","2R45+462, Đ. Bùi Quang Trinh",Cần Thơ,,"Cái Răng, Cần Thơ",VN
775,ChIJI_WcPrGJoDERubnwIPQLQDE,Shop Mỹ Phẩm Ngọc,Cửa hàng mỹ phẩm,0934 747 210,"Shop Mỹ Phẩm Ngọc, Lô A9, Chợ, Cái Răng, Cần Thơ","Lê Bình, Cái Răng","Lô A9, Chợ",Cần Thơ,,"Cái Răng, Cần Thơ",VN
776,ChIJ66u7xLCJoDERkpzKQls0s68,Shop Mỹ Phẩm Ly Ly,Cửa hàng mỹ phẩm,0817 278 817,"Shop Mỹ Phẩm Ly Ly, 563 Nguyễn Trãi, Lê Bình, Cái Răng, Cần Thơ","Lê Bình, Cái Răng",563 Nguyễn Trãi,Cần Thơ,,"Cái Răng, Cần Thơ",VN
777,ChIJw_syRTeJoDER5EoXo9mp6PA,Makeup Beauty Shop,Cửa hàng mỹ phẩm,0923 897 031,"Makeup Beauty Shop, Đ. Số 22, Thường Thạnh, Cái Răng, Cần Thơ 90000","Thường Thạnh, Cái Răng",Đ. Số 22,Cần Thơ,90000.0,"Cái Răng, Cần Thơ",VN
778,ChIJZc_-1W2JoDERd11fGl1KlR8,Công Ty TNHH Mỹ Phẩm S.O.N Group,Cửa hàng mỹ phẩm,0292 6532 532,"XQF2+8GG Công Ty TNHH Mỹ Phẩm S.O.N Group, Đường Huỳnh Thị Nỡ, Thường Thạnh, Cái Răng, Cần Thơ","Thường Thạnh, Cái Răng","XQF2+8GG, Đường Huỳnh Thị Nỡ",Cần Thơ,,"Cái Răng, Cần Thơ",VN
779,ChIJ3xkG8BCIoDERjNPU_Cha1sI,Pham Nguyen Cosmetic Store,Cửa hàng mỹ phẩm,0292 3890 468,"Pham Nguyen Cosmetic Store, 31/9C Đ. Mậu Thân, An Nghiệp, Ninh Kiều, Cần Thơ","An Nghiệp, Ninh Kiều",31/9C Đ. Mậu Thân,Cần Thơ,,"Ninh Kiều, Cần Thơ",VN
780,ChIJixOmQAOJoDER2f2qI4voQ54,MY PHAM DIEM HUONG,Cửa hàng mỹ phẩm,,"MY PHAM DIEM HUONG, 68 Đường Trần Minh Sơn, Phường An Khánh, Ninh Kiều, Cần Thơ","Phường An Khánh, Ninh Kiều",68 Đường Trần Minh Sơn,Cần Thơ,,"Ninh Kiều, Cần Thơ",VN
781,ChIJ6yFpxmCJoDERGXLvoFVM0OQ,Hapu’s Store,Cửa hàng mỹ phẩm,,"Hapu’s Store, 47 Đường số 9, Phường An Khánh, Ninh Kiều, Cần Thơ","Phường An Khánh, Ninh Kiều",47 Đường số 9,Cần Thơ,,"Ninh Kiều, Cần Thơ",VN
782,ChIJI5yeaDGIoDERYbcRHY7RMcw,Cửa Hàng Mỹ Phẩm Thiên Nhiên Xanh,Cửa hàng mỹ phẩm,,"Cửa Hàng Mỹ Phẩm Thiên Nhiên Xanh, 514 Đ. 30 Tháng 4, Hưng Lợi, Ninh Kiều, Cần Thơ","Hưng Lợi, Ninh Kiều",514 Đ. 30 Tháng 4,Cần Thơ,,"Ninh Kiều, Cần Thơ",VN
783,ChIJX7qrJLGJoDER2P7H7yzrEFc,My Hanh Cosmetic Store,Cửa hàng mỹ phẩm,0292 3847 293,"My Hanh Cosmetic Store, 53/1 Hàm Nghi, Lê Bình, Cái Răng, Cần Thơ","Lê Bình, Cái Răng",53/1 Hàm Nghi,Cần Thơ,,"Cái Răng, Cần Thơ",VN
784,ChIJ9Te8ILGJoDER3FQUCpTPx5U,Mỹ Phẩm Đẹp Khỏe Mỗi Ngày,Cửa hàng mỹ phẩm,0907 079 628,"Mỹ Phẩm Đẹp Khỏe Mỗi Ngày, 1 Lê Thái Tổ, Lê Bình, Cái Răng, Cần Thơ","Lê Bình, Cái Răng",1 Lê Thái Tổ,Cần Thơ,,"Cái Răng, Cần Thơ",VN
785,ChIJESZ2ys2JoDERDbspqw9JE5w,Shop HP,Cửa hàng mỹ phẩm,,"Shop HP, 138B/18, khu vực 1, Ninh Kiều, Cần Thơ","khu vực 1, Ninh Kiều",138B/18,Cần Thơ,,"Ninh Kiều, Cần Thơ",VN
786,ChIJq6qqqm5ioDERGA9rXTtlqNM,Cửa Hàng Hoá Mỹ Phẩm Nghi,Cửa hàng mỹ phẩm,0903 169 798,"Cửa Hàng Hoá Mỹ Phẩm Nghi, B39, Khu Dân Cư 586, Đường Số 57, Phường Phú Thứ, Quận Cái Răng, Thành Phố Cần Thơ, Phú Thứ, Cái Răng, Cần Thơ","Phú Thứ, Cái Răng","B39, Khu Dân Cư 586, Đường Số 57, Phường Phú Thứ, Quận Cái Răng, Thành Phố Cần Thơ",Cần Thơ,,"Cái Răng, Cần Thơ",VN
787,ChIJ3clBN2lfoDERsaTTHzhCYzQ,Shop mỹ phẩm DY Cosmetics,Cửa hàng mỹ phẩm,0862 345 700,"Shop mỹ phẩm DY Cosmetics, 14 Đường Triệu Ẩu, Ngã Bảy, Hậu Giang",Ngã Bảy,14 Đường Triệu Ẩu,Hậu Giang,,"Ngã Bảy, Hậu Giang",VN
788,ChIJh84aRbaHoDERaGWKmElWi_Q,Shop Mỹ Phẩm Thuỷ Cường,Cửa hàng mỹ phẩm,0917 119 988,"Shop Mỹ Phẩm Thuỷ Cường, 147 Lê Hồng Phong, Bình Thuỷ, Bình Thủy, Cần Thơ","Bình Thuỷ, Bình Thủy",147 Lê Hồng Phong,Cần Thơ,,"Bình Thủy, Cần Thơ",VN
789,ChIJQ1ENvVuJoDERazEQxdmeE3Y,Kem Dưỡng Má Hồng - Pink Emulsion,Cửa hàng mỹ phẩm,,"Kem Dưỡng Má Hồng - Pink Emulsion, 722 Đ. 30 Tháng 4, Hưng Lợi, Ninh Kiều, Cần Thơ 90000","Hưng Lợi, Ninh Kiều",722 Đ. 30 Tháng 4,Cần Thơ,90000.0,"Ninh Kiều, Cần Thơ",VN
790,ChIJmW5AnhSIoDERnx3Zf1DDs0o,Mỹ Phẩm - Nước Hoa Nguyên Đào,Cửa hàng mỹ phẩm,,"Mỹ Phẩm - Nước Hoa Nguyên Đào, An Khánh, Ninh Kiều, Cần Thơ","An Khánh, Ninh Kiều",,Cần Thơ,,"Ninh Kiều, Cần Thơ",VN
795,ChIJQ9qpiZ9ioDERPAE7OaBQ1hU,Cửa Hàng Mỹ Phẩm Hồ Quang Hoà,Cửa hàng mỹ phẩm,0934 391 145,"Cửa Hàng Mỹ Phẩm Hồ Quang Hoà, 44/1A, Đường Nam Kỳ Khởi Nghĩa, Phường Tân An, Quận Ninh Kiều, Tân An, Ninh Kiều, Cần Thơ","Tân An, Ninh Kiều","44/1A, Đường Nam Kỳ Khởi Nghĩa, Phường Tân An, Quận Ninh Kiều",Cần Thơ,,"Ninh Kiều, Cần Thơ",VN
798,ChIJU5gHzh-IoDER4uynt5Rf7F0,Shop Mỹ Phẩm Bòn Bon,Cửa hàng mỹ phẩm,,"2QMJ+XGJ Shop Mỹ Phẩm Bòn Bon, Đ. Đề Thám, Tân An, Ninh Kiều, Cần Thơ","Tân An, Ninh Kiều","2QMJ+XGJ, Đ. Đề Thám",Cần Thơ,,"Ninh Kiều, Cần Thơ",VN
807,ChIJG7Wj9WCJoDERgGRIPd2bQzI,Mỹ Thảo Beauty,Cửa hàng mỹ phẩm,0888 299 985,"Mỹ Thảo Beauty, Đ. Trần Việt Châu, An Hoà, Ninh Kiều, Cần Thơ 900000","An Hoà, Ninh Kiều",Đ. Trần Việt Châu,Cần Thơ,900000.0,"Ninh Kiều, Cần Thơ",VN
861,ChIJA3MspyaIoDER9xQrDBlCPtc,Shop Mỹ Phẩm Thủy Hà,Cửa hàng mỹ phẩm,0292 3751 914,"Shop Mỹ Phẩm Thủy Hà, 187 Đ. 30 Tháng 4, Xuân Khánh, Ninh Kiều, Cần Thơ","Xuân Khánh, Ninh Kiều",187 Đ. 30 Tháng 4,Cần Thơ,,"Ninh Kiều, Cần Thơ",VN
967,ChIJ68Z0TBmIoDER00_qG7gvzJ4,Chang Cosmetics Cần Thơ,Cửa hàng mỹ phẩm,,"Chang Cosmetics Cần Thơ, 98/1c Đ. Trần Hưng Đạo, An Phú, Ninh Kiều, Cần Thơ","An Phú, Ninh Kiều",98/1c Đ. Trần Hưng Đạo,Cần Thơ,,"Ninh Kiều, Cần Thơ",VN
980,ChIJXffsgCGIoDERd3ID8XhTVR0,Shop Mỹ Phẩm T&T,Cửa hàng mỹ phẩm,0906 188 468,"Shop Mỹ Phẩm T&T, 159 Đ. Nguyễn Việt Hồng, Xuân Khánh, Ninh Kiều, Cần Thơ","Xuân Khánh, Ninh Kiều",159 Đ. Nguyễn Việt Hồng,Cần Thơ,,"Ninh Kiều, Cần Thơ",VN
984,ChIJ0U6wk7yJoDERuao0Br43rjI,Showroom Mỹ Phẩm YHL - Cần Thơ,Cửa hàng,0365 001 068,"Showroom Mỹ Phẩm YHL - Cần Thơ, 184 Đ. Trần Hưng Đạo, An Phú, Ninh Kiều, Cần Thơ","An Phú, Ninh Kiều",184 Đ. Trần Hưng Đạo,Cần Thơ,,"Ninh Kiều, Cần Thơ",VN
1012,ChIJr9SQ5raJoDERWFVLc6G40oE,Shu Cosmetic & Skincare,Cửa hàng mỹ phẩm,0829 927 265,"2Q33+RQH Shu Cosmetic & Skincare, Trần Chiên, Lê Bình, Cái Răng, Cần Thơ","Lê Bình, Cái Răng","2Q33+RQH, Trần Chiên",Cần Thơ,,"Cái Răng, Cần Thơ",VN
1024,ChIJMTADO9mJoDERqbhvufoh0SI,NPP Mỹ Phẩm Đông Anh,Cửa hàng mỹ phẩm,0909 252 811,"NPP Mỹ Phẩm Đông Anh, 40s6/2, Khu Vực 3, Phường An Khánh, Ninh Kiều, Cần Thơ","Phường An Khánh, Ninh Kiều","40s6/2, Khu Vực 3",Cần Thơ,,"Ninh Kiều, Cần Thơ",VN
1063,ChIJNZmvS7KJoDERJlu7qxe7BX4,Bách Hóa - Mỹ Phẩm Đoan Thùy,Cửa hàng mỹ phẩm,,"2P5X+J5M Bách Hóa - Mỹ Phẩm Đoan Thùy, ĐT923, An Bình, Ninh Kiều, Cần Thơ","An Bình, Ninh Kiều","2P5X+J5M, ĐT923",Cần Thơ,,"Ninh Kiều, Cần Thơ",VN
1070,ChIJnys0NCJfoDERu9hqjb-qdXo,Ngoc Nhieu Cosmetic Shop,Cửa hàng mỹ phẩm,0972 418 189,"Ngoc Nhieu Cosmetic Shop, 1130 Hùng Vương, Ngã Bảy, Hậu Giang",Ngã Bảy,1130 Hùng Vương,Hậu Giang,,"Ngã Bảy, Hậu Giang",VN
1080,ChIJn1_92WiIoDERmSFW13s9Umw,Shop Mỹ Phẩm Quý Thịnh,Cửa hàng mỹ phẩm,,"2PPX+RFP Shop Mỹ Phẩm Quý Thịnh, Đường Số 5, Phường An Khánh, Ninh Kiều, Cần Thơ","Phường An Khánh, Ninh Kiều","2PPX+RFP, Đường Số 5",Cần Thơ,,"Ninh Kiều, Cần Thơ",VN
1083,ChIJMxpGgkGIoDERAb9xoU74AtQ,Công Ty TNHH Một Thành Viên Mỹ Phẩm Đại Khánh,Cửa hàng mỹ phẩm,7103896755,"Công Ty TNHH Một Thành Viên Mỹ Phẩm Đại Khánh, 393 Đ. Nguyễn Văn Cừ, Phường An Khánh, Ninh Kiều, Cần Thơ","Phường An Khánh, Ninh Kiều",393 Đ. Nguyễn Văn Cừ,Cần Thơ,,"Ninh Kiều, Cần Thơ",VN
1113,ChIJcebWRxSJoDERaC1MssGpv0M,Mỹ Phẩm Uyên,Cửa hàng mỹ phẩm,,"XPW8+H48 Mỹ Phẩm Uyên, Bông Vang, Mỹ Khánh, Phong Điền, Cần Thơ","Mỹ Khánh, Phong Điền","XPW8+H48, Bông Vang",Cần Thơ,,"Phong Điền, Cần Thơ",VN
1117,ChIJ7T0-63eJoDER9-VH6c3fnUI,Mỹ Phẩm Nelly.P,Cửa hàng mỹ phẩm,0888 010 414,"Mỹ Phẩm Nelly.P, 184 Đ. Nguyễn Đệ, An Thới, Cần Thơ, 900000","An Thới, Cần Thơ",184 Đ. Nguyễn Đệ,Cần Thơ,900000.0,Cần Thơ,VN
1128,ChIJEVVOSfGJoDERr-kfUJJANKQ,Trinh Beauty ( Sản Phẩm Giảm Cân_Làm Đẹp).,Cửa hàng mỹ phẩm,0929 644 559,"Trinh Beauty ( Sản Phẩm Giảm Cân_Làm Đẹp)., 226 Đ. Hoàng Quốc Việt, An Bình, Ninh Kiều, Cần Thơ 900000","An Bình, Ninh Kiều",226 Đ. Hoàng Quốc Việt,Cần Thơ,900000.0,"Ninh Kiều, Cần Thơ",VN
1138,ChIJv3WEwyqJoDERLeCqJqiW6ak,Mỹ phẩm Omii cosmectics,Cửa hàng mỹ phẩm,,"2QC7+338 Mỹ phẩm Omii cosmectics, Hưng Lợi, Ninh Kiều, Cần Thơ","Hưng Lợi, Ninh Kiều",2QC7+338,Cần Thơ,,"Ninh Kiều, Cần Thơ",VN
1140,ChIJk2sT-PaIoDERcgNQCi7--Ww,Công Ty TNHH Sản Xuất Thương Mại Dịch Vụ Mỹ Phẩm Ngọc Trương,Cửa hàng mỹ phẩm,0934 894 430,"Công Ty TNHH Sản Xuất Thương Mại Dịch Vụ Mỹ Phẩm Ngọc Trương, Khu Dân Cư Quân Báo, 152, Khu Vực Bình Phó B, Bình Thủy, Cần Thơ","Long Tuyền, Bình Thủy","Khu Dân Cư Quân Báo, 152, Khu Vực Bình Phó B",Cần Thơ,,"Bình Thủy, Cần Thơ",VN
1144,ChIJzcRUOrGJoDERFEMSmZC4bUg,Cửa Hàng Phụ Liệu Tóc - Mỹ Phẩm Lam Khương,Cửa hàng mỹ phẩm,0292 2469 966,"Cửa Hàng Phụ Liệu Tóc - Mỹ Phẩm Lam Khương, 19 Ngô Quyền, Lê Bình, Cái Răng, Cần Thơ","Lê Bình, Cái Răng",19 Ngô Quyền,Cần Thơ,,"Cái Răng, Cần Thơ",VN
1169,ChIJ7d1O0UGIoDERAJ3__jPgnL8,"Trung Tâm Kiểm Nghiệm Thuốc, Mỹ Phẩm, Thực Phẩm Thành Phố Cần Thơ",Hiệu thuốc,,"Trung Tâm Kiểm Nghiệm Thuốc, Mỹ Phẩm, Thực Phẩm Thành Phố Cần Thơ, 9 Nguyễn Văn Cừ Nối Dài, An Bình, Ninh Kiều, Cần Thơ","An Bình, Ninh Kiều",9 Nguyễn Văn Cừ Nối Dài,Cần Thơ,,"Ninh Kiều, Cần Thơ",VN
1174,ChIJZ1WDDl5ioDERfya5fxllC8s,Cửa Hàng Mỹ Phẩm Ngọc Hân,Cửa hàng mỹ phẩm,0795 456 172,"Cửa Hàng Mỹ Phẩm Ngọc Hân, Q29 Lê Nhựt Tảo, Phú Thứ, Cái Răng, Cần Thơ","Phú Thứ, Cái Răng",Q29 Lê Nhựt Tảo,Cần Thơ,,"Cái Răng, Cần Thơ",VN
1179,ChIJyfAr8LCJoDERynmLVpNaO6I,Cửa Hàng Thời Trang Mỹ Phẩm Liên Nguyễn,Cửa hàng mỹ phẩm,0907 793 238,"2Q32+95W Cửa Hàng Thời Trang Mỹ Phẩm Liên Nguyễn, QL1A, Lê Bình, Cái Răng, Cần Thơ","Lê Bình, Cái Răng","2Q32+95W, QL1A",Cần Thơ,,"Cái Răng, Cần Thơ",VN
1230,ChIJv7N5OBSJoDERZivNzKiHOB0,Shop Mỹ Phẩm Xuka,Cửa hàng mỹ phẩm,0939 853 675,"Shop Mỹ Phẩm Xuka, Lô A13, Chợ Mỹ Khánh, Xã Mỹ Khánh, Huyện Phong Điền, Thành Phố Cần Thơ, Mỹ Khánh, Phong Điền, Cần Thơ","Mỹ Khánh, Phong Điền","Lô A13, Chợ Mỹ Khánh, Xã Mỹ Khánh, Huyện Phong Điền, Thành Phố Cần Thơ",Cần Thơ,,"Phong Điền, Cần Thơ",VN
1288,ChIJUS42L7GJoDEROY-vNkczZaY,Cửa Hàng Mỹ Phẩm Vy Nhi,Cửa hàng mỹ phẩm,0907 607 200,"2Q32+VR4 Cửa Hàng Mỹ Phẩm Vy Nhi, Ngô Quyền, Lê Bình, Cái Răng, Cần Thơ","Lê Bình, Cái Răng","2Q32+VR4, Ngô Quyền",Cần Thơ,,"Cái Răng, Cần Thơ",VN
1291,ChIJnbs9fb6JoDER1WrXkZbApqg,Cửa Hàng Mỹ Phẩm An Khang,Cửa hàng mỹ phẩm,0988 699 709,"XQV3+885 Cửa Hàng Mỹ Phẩm An Khang, Chợ Cái Răng, Phường Lê Bình, Quận Cái Răng, Thành Phố Cần Thơ, Lê Bình, Cái Răng, Cần Thơ","Lê Bình, Cái Răng","XQV3+885, Chợ Cái Răng, Phường Lê Bình, Quận Cái Răng, Thành Phố Cần Thơ",Cần Thơ,,"Cái Răng, Cần Thơ",VN
1306,ChIJy2CDOjaIoDERZviyt2KA-EE,Cửa Hàng Mỹ Phẩm Nhật Vy,Cửa hàng mỹ phẩm,0978 380 078,"Cửa Hàng Mỹ Phẩm Nhật Vy, 132/25 Đ. 3 Tháng 2, Hưng Lợi, Ninh Kiều, Cần Thơ","Hưng Lợi, Ninh Kiều",132/25 Đ. 3 Tháng 2,Cần Thơ,,"Ninh Kiều, Cần Thơ",VN
1350,ChIJT3yg9beJoDERtekZYoWEDFk,Cửa Hàng Mỹ Phẩm Hợp Nhất,Cửa hàng mỹ phẩm,0949 590 979,"Cửa Hàng Mỹ Phẩm Hợp Nhất, 7, Trần Chiên, Phường Lê Bình, Quận Cái Răng, Thành Phố Cần Thơ, Lê Bình, Cái Răng, Cần Thơ","Lê Bình, Cái Răng","7, Trần Chiên, Phường Lê Bình, Quận Cái Răng, Thành Phố Cần Thơ",Cần Thơ,,"Cái Răng, Cần Thơ",VN
1375,ChIJ90dZusyJoDERbT_96e4RlAk,Queen Mỹ Phẩm Hàn Quốc Huyền Trang,Cửa hàng mỹ phẩm,,"Queen Mỹ Phẩm Hàn Quốc Huyền Trang, Hưng Lợi, Ninh Kiều, Cần Thơ","Hưng Lợi, Ninh Kiều",,Cần Thơ,,"Ninh Kiều, Cần Thơ",VN
1381,ChIJKeiIzzGIoDERXaB80fRsY9M,Mỹ Phẩm Sạch Nhật Bản Nyny Nguyễn,Cửa hàng mỹ phẩm,,"Mỹ Phẩm Sạch Nhật Bản Nyny Nguyễn, Hưng Lợi, Ninh Kiều, Cần Thơ","Hưng Lợi, Ninh Kiều",,Cần Thơ,,"Ninh Kiều, Cần Thơ",VN
1382,ChIJYwpWGc2JoDERqIXyPvBss2w,Doanh Nghiệp Tư Nhân Sản Xuất Mỹ Phẩm Lan Vy,Cửa hàng mỹ phẩm,0907 744 831,"Doanh Nghiệp Tư Nhân Sản Xuất Mỹ Phẩm Lan Vy, 160/40W, Tầm Vu, Hưng Lợi, Ninh Kiều, Cần Thơ 900000","Hưng Lợi, Ninh Kiều","160/40W, Tầm Vu",Cần Thơ,900000.0,"Ninh Kiều, Cần Thơ",VN
1410,ChIJvbJt8C6JoDERBG2HcRZ_4yw,QA+ Grocery - Shop phụ kiên & Mỹ phẩm,Cửa hàng tạp phẩm,,"2QG7+7JC QA+ Grocery - Shop phụ kiên & Mỹ phẩm, Xuân Khánh, Ninh Kiều, Cần Thơ","Xuân Khánh, Ninh Kiều",2QG7+7JC,Cần Thơ,,"Ninh Kiều, Cần Thơ",VN
1412,ChIJY5Oy8N2JoDERiRKXxncW07c,"Shop G-house Mỹ phẩm, nước hoa, cây vật phẩm trang trí văn phòng",Cửa hàng,,"Shop G-house Mỹ phẩm, nước hoa, cây vật phẩm trang trí văn phòng, 26 Hẻm 132 Đ. 3 Tháng 2, Hưng Lợi, Ninh Kiều, Cần Thơ","Hưng Lợi, Ninh Kiều",26 Hẻm 132 Đ. 3 Tháng 2,Cần Thơ,,"Ninh Kiều, Cần Thơ",VN
1482,ChIJuXClmC2IoDERiJv65Tpjz7Y,Công Ty Tnhh Hóa Mỹ Phẩm Mai Linh,Cửa hàng,,"Công Ty Tnhh Hóa Mỹ Phẩm Mai Linh, 179 Tầm Vu, Hưng Lợi, Ninh Kiều, Cần Thơ","Hưng Lợi, Ninh Kiều",179 Tầm Vu,Cần Thơ,,"Ninh Kiều, Cần Thơ",VN
1487,ChIJ58U3sESJoDERc0aB3PuQZWA,SỈ MỸ PHẨM GIÁ RẺ,Cửa hàng mỹ phẩm,,"2Q86+G25 SỈ MỸ PHẨM GIÁ RẺ, Trần Hoàng Na, Hưng Lợi, Ninh Kiều, Cần Thơ","Hưng Lợi, Ninh Kiều","2Q86+G25, Trần Hoàng Na",Cần Thơ,,"Ninh Kiều, Cần Thơ",VN
1510,ChIJlTO62COIoDERwKNs0DukKXI,Yume Japan - Mỹ Phẩm Gia Dụng Nội Địa Nhật,Cửa hàng mỹ phẩm,,"Yume Japan - Mỹ Phẩm Gia Dụng Nội Địa Nhật, Xuân Khánh, Ninh Kiều, Cần Thơ","Xuân Khánh, Ninh Kiều",,Cần Thơ,,"Ninh Kiều, Cần Thơ",VN
1585,ChIJYcI6qB-IoDERa6WBzftOFkw,"Trung Tâm Kiểm Nghiệm Thuốc, Mỹ Phẩm, Thực Phẩm Thành Phố Cần Thơ",Cửa hàng,0292 3831 030,"Trung Tâm Kiểm Nghiệm Thuốc, Mỹ Phẩm, Thực Phẩm Thành Phố Cần Thơ, 60 Đ. Lý Tự Trọng, An Cư, Ninh Kiều, Cần Thơ 900000","An Cư, Ninh Kiều",60 Đ. Lý Tự Trọng,Cần Thơ,900000.0,"Ninh Kiều, Cần Thơ",VN
1599,ChIJ7auhHqJioDEROjCx-MiKngc,Cửa Hàng Bách Hóa Mỹ Phẩm Mỹ Hoàn,Cửa hàng,0292 3820 208,"Cửa Hàng Bách Hóa Mỹ Phẩm Mỹ Hoàn, 64 Đường Hai Bà Trưng, Tân An, Ninh Kiều, Cần Thơ","Tân An, Ninh Kiều",64 Đường Hai Bà Trưng,Cần Thơ,,"Ninh Kiều, Cần Thơ",VN
