,place_id,name,main_category,phone,address,address_ward,address_street,address_city,address_postal_code,address_state,address_country_code,coordinates
0,ChIJkSpgpyaIoDERtDQ7t4DyA7k,IRIS Hotel Can Tho,Khách sạn,0292 3686 969,"IRIS Hotel Can Tho, Tòa Nhà IRIS, 224 Đ. 30 Tháng 4, Xuân Khánh, Ninh Kiều, Cần Thơ","Xuân Khánh, Ninh Kiều","Tòa Nhà IRIS, 224 Đ. 30 Tháng 4",Cần Thơ,,"Ninh Kiều, Cần Thơ",VN,"10.0266209,105.77610759999999"
1,ChIJf8l5zqtioDER394gqY022iE,Nesta Hotel - Can Tho,Khách sạn,0292 3822 216,"Nesta Hotel - Can Tho, 9C Trần Phú, Cái Khế, Ninh Kiều, Cần Thơ","Cái Khế, Ninh Kiều",9C Trần Phú,Cần Thơ,,"Ninh Kiều, Cần Thơ",VN,"10.0520681,105.7893658"
2,ChIJX4MgI499oDERXfU_tJT2iJ4,Vạn Phát Riverside,Khách sạn,0292 3645 645,"Vạn Phát Riverside, 2 Đ. Nguyễn Văn Cừ, Cái Khế, Ninh Kiều, Cần Thơ","Cái Khế, Ninh Kiều",2 Đ. Nguyễn Văn Cừ,Cần Thơ,,"Ninh Kiều, Cần Thơ",VN,"10.0611068,105.78325889999999"
3,ChIJh-Gy76dioDER4wYI666ECkU,Nhà Khách Tây Nam,Khách sạn,0292 3687 779,"Nhà Khách Tây Nam, 2 Cầu Nguyễn Trãi, An Hội, Ninh Kiều, Cần Thơ","An Hội, Ninh Kiều",2 Cầu Nguyễn Trãi,Cần Thơ,,"Ninh Kiều, Cần Thơ",VN,"10.042991599999999,105.7830678"
4,ChIJI22wLBGIoDERDyKs-xeV4v4,Hoa Viên THÀNH ĐẠT,Nhà hàng,0292 3891 484,"Hoa Viên THÀNH ĐẠT, TP, 85C hẻm Lò Mổ, 95/4 Đ. Nguyễn Văn Cừ, KV 2, Ninh Kiều, Cần Thơ","KV 2, Ninh Kiều","TP, 85C hẻm Lò Mổ, 95/4 Đ. Nguyễn Văn Cừ",Cần Thơ,,"Ninh Kiều, Cần Thơ",VN,"10.0386052,105.7669121"
5,ChIJ49Xi_ESIoDERUoup8un_QiU,Anh Dao Mekong 2 Hotel,Khách sạn,0292 3819 901,"Anh Dao Mekong 2 Hotel, 8 Đ.Xuân Thủy, Phường An Khánh, Ninh Kiều, Cần Thơ","Phường An Khánh, Ninh Kiều",8 Đ.Xuân Thủy,Cần Thơ,,"Ninh Kiều, Cần Thơ",VN,"10.0262573,105.74919039999999"
6,ChIJr1Hq8ahioDERxkKCfNPdRhw,Linh Phuong 2 Hotel,Phòng cho thuê,0292 3643 744,"Linh Phuong 2 Hotel, 7 Đ. Trần Đại Nghĩa, Cái Khế, Ninh Kiều, Cần Thơ","Cái Khế, Ninh Kiều",7 Đ. Trần Đại Nghĩa,Cần Thơ,,"Ninh Kiều, Cần Thơ",VN,"10.0450317,105.78588529999999"
8,ChIJxbZeTYBjoDERKUs4kD1UH3o,CT MORNING HOSTEL(Khách sạn ở Cần Thơ),Khách sạn,0338 658 181,"CT MORNING HOSTEL(Khách sạn ở Cần Thơ), 81 Lý Hồng Thanh, Cái Khế, Ninh Kiều, Cần Thơ","Cái Khế, Ninh Kiều",81 Lý Hồng Thanh,Cần Thơ,,"Ninh Kiều, Cần Thơ",VN,"10.0452578,105.7843104"
9,ChIJB4HKFYJioDER0W1F40NGulQ,Khách Sạn An,Khách sạn,0292 3737 469,"2Q8M+W9W Khách Sạn An, Đ. Hoàng Thế Thiện, Hưng Phú, Cái Răng, Cần Thơ","Hưng Phú, Cái Răng","2Q8M+W9W, Đ. Hoàng Thế Thiện",Cần Thơ,,"Cái Răng, Cần Thơ",VN,"10.017355199999999,105.78345039999999"
15,ChIJHYIEO8FjoDERY7UZ6ks0MS8,Mekong 69 Hostel,Khách sạn,0292 3688 768,"Mekong 69 Hostel, 6/9 Đ. Ng. Hữu Hạnh, Tân An, Ninh Kiều, Cần Thơ","Tân An, Ninh Kiều",6/9 Đ. Ng. Hữu Hạnh,Cần Thơ,,"Ninh Kiều, Cần Thơ",VN,"10.0372638,105.7864161"
16,ChIJ27GsoFiJoDERdhgFLaUT4mk,Lavender Hotel Cần Thơ,Khách sạn,0292 6554 666,"Lavender Hotel Cần Thơ, đối diện chợ Bà Bộ, KDC Quân Báo, khu dân cư P2/131 Đ. Nguyễn Văn Linh, Phường An Khánh, Bình Thủy, Cần Thơ","Phường An Khánh, Bình Thủy","đối diện chợ Bà Bộ, KDC Quân Báo, khu dân cư P2/131 Đ. Nguyễn Văn Linh",Cần Thơ,,"Bình Thủy, Cần Thơ",VN,"10.0355856,105.7432905"
20,ChIJEwdarJ9ioDERpusVVl9nIKA,Vạn Lộc Hotel,Khách sạn,0292 3686 876,"Vạn Lộc Hotel, 76 Đ. Đồng Khởi, Tân An, Ninh Kiều, Cần Thơ","Tân An, Ninh Kiều",76 Đ. Đồng Khởi,Cần Thơ,,"Ninh Kiều, Cần Thơ",VN,"10.029675,105.7844423"
24,ChIJN6v9OmRioDERu9uE4VOFUws,Tulip Hotel Can Tho (Khách sạn Tulip Cần Thơ),Khách sạn,0988 848 204,"Tulip Hotel Can Tho (Khách sạn Tulip Cần Thơ), D5/10 + D5/11 Đường số 2 Khu dân cư, Long Thịnh, Cái Răng, Cần Thơ","Long Thịnh, Cái Răng",D5/10 + D5/11 Đường số 2 Khu dân cư,Cần Thơ,,"Cái Răng, Cần Thơ",VN,"10.002633399999999,105.7988477"
27,ChIJy_wMc92JoDERNsJddUyLfuQ,Hometravel Mekong Cần Thơ,Khách sạn,0978 228 242,"Hometravel Mekong Cần Thơ, 178c Ong Tiem Bridge, Thanh My Area, Cái Răng","Thường Thạnh, Cái Răng","178c Ong Tiem Bridge, Thanh My Area",Cần Thơ,,"Cái Răng, Cần Thơ",VN,"9.9794225,105.7644823"
29,ChIJG9i5oQKIoDERR1jyrbqMyH0,Lime Hostel (Ninh Kieu Center),Khách sạn,0931 300 808,"Lime Hostel (Ninh Kieu Center), 20 Trần Quang Khải, An Hội, Ninh Kiều, Cần Thơ","An Hội, Ninh Kiều",20 Trần Quang Khải,Cần Thơ,,"Ninh Kiều, Cần Thơ",VN,"10.0445934,105.7820138"
32,ChIJH3FZt6uHoDERA747pvN6Qv4,Khách Sạn Mekong Rose (Mekong Rose Hotel),Khách sạn,0787 837 568,"Khách Sạn Mekong Rose (Mekong Rose Hotel), 59-61 Lý Hồng Thanh, P, Ninh Kiều, Cần Thơ 900000","P, Ninh Kiều",59-61 Lý Hồng Thanh,Cần Thơ,900000.0,"Ninh Kiều, Cần Thơ",VN,"10.0457343,105.7840088"
34,ChIJNeVrETGIoDER3BeEG8WTHhs,Nhà Nghỉ Xuân Lan Cần Thơ,Nhà nghỉ dưỡng,0292 3783 450,"Nhà Nghỉ Xuân Lan Cần Thơ, 482/17 Đường 30/4, Hưng Lợi, Ninh Kiều, Cần Thơ 94116","Hưng Lợi, Ninh Kiều",482/17 Đường 30/4,Cần Thơ,94116.0,"Ninh Kiều, Cần Thơ",VN,"10.018624599999999,105.7666225"
35,ChIJrwmGrxpjoDERqKZCXHWOqK0,Hoang Son Hotel Can Tho (Khách sạn Hoàng Sơn),Khách sạn,0292 3857 666,"Hoang Son Hotel Can Tho (Khách sạn Hoàng Sơn), 191A Trần Văn Khéo, Cái Khế, Ninh Kiều, Cần Thơ 900000","Cái Khế, Ninh Kiều",191A Trần Văn Khéo,Cần Thơ,900000.0,"Ninh Kiều, Cần Thơ",VN,"10.0469526,105.7882293"
36,ChIJK9y1gPFjoDER-qJqR-sBwgM,MIDMOST Boutique Hostel,Nhà trọ,0292 3661 122,"MIDMOST Boutique Hostel, 12/3 Đại lộ Hoà Bình, Tân An, Ninh Kiều, Cần Thơ","Tân An, Ninh Kiều",12/3 Đại lộ Hoà Bình,Cần Thơ,,"Ninh Kiều, Cần Thơ",VN,"10.0345386,105.7848703"
37,ChIJqS4lrpVjoDERTiAkHJebpUc,Nama Hotel (Ngay TTTM Cái Khế),Khách sạn,0774 456 565,"Nama Hotel (Ngay TTTM Cái Khế), 32 Đ. Trần Đại Nghĩa, p, Ninh Kiều, Cần Thơ 900000","p, Ninh Kiều",32 Đ. Trần Đại Nghĩa,Cần Thơ,900000.0,"Ninh Kiều, Cần Thơ",VN,"10.044514099999999,105.7861174"
41,ChIJqZG8LgdjoDERkT11tOpP7dk,Hotel Tina 2,Khách sạn,0392 317 317,"Hotel Tina 2, 55 Nguyễn Thị Sáu, Phú Thứ, Cái Răng, Cần Thơ 900000","Phú Thứ, Cái Răng",55 Nguyễn Thị Sáu,Cần Thơ,900000.0,"Cái Răng, Cần Thơ",VN,"10.0071432,105.80615879999999"
46,ChIJoUqzNS9joDERzd2PGEiP4jA,Winter Spring Homestay,Khách sạn,0907 040 033,"Winter Spring Homestay, 75 Đ. Ung Văn Khiêm, An Hội, Ninh Kiều, Cần Thơ 900000","An Hội, Ninh Kiều",75 Đ. Ung Văn Khiêm,Cần Thơ,900000.0,"Ninh Kiều, Cần Thơ",VN,"10.0449238,105.782938"
50,ChIJ0-ZdfQFjoDERQuKHL3vLGv4,TK Hotel & Coffee,Quán cà phê,0918 295 285,"TK Hotel & Coffee, 54 Đ. D5, Mỹ Hoà, Bình Minh, Vĩnh Long","Mỹ Hoà, Bình Minh",54 Đ. D5,Vĩnh Long,,"Bình Minh, Vĩnh Long",VN,"10.0424399,105.8257038"
51,ChIJPSHwg76JoDEROppM_S13GME,B Home,Nhà trọ,0939 056 605,"B Home, 16 Đường Tôn Thất Tùng, Cái Khế, Ninh Kiều, Cần Thơ","Cái Khế, Ninh Kiều",16 Đường Tôn Thất Tùng,Cần Thơ,,"Ninh Kiều, Cần Thơ",VN,"10.050638099999999,105.7775497"
52,ChIJ7XMs2C2JoDERim9jQQsrVGU,Adora Central Park,Nhà trọ,0918 946 299,"Adora Central Park, 6/28 Le Lai Can Tho Can Tho City, 94000","An Lạc, Ninh Kiều",6/28 Le Lai Can Tho Can Tho City,Cần Thơ,94000.0,"Ninh Kiều, Cần Thơ",VN,"10.0333539,105.7791134"
53,ChIJRxh7Gs5ncDERM-Fnx1pC81c,Khách sạn Soda House Homestay Cần Thơ,Khách sạn,0982 559 935,"Khách sạn Soda House Homestay Cần Thơ, Khu dân cư Ngân Thuận, Bình Thủy, Cần Thơ","Khu dân cư Ngân Thuận, Bình Thủy",,Cần Thơ,,"Bình Thủy, Cần Thơ",VN,"10.0710831,105.74398459999999"
56,ChIJ8dZEZZGJoDERJ3E84XB8v8k,LION HOTEL,Khách sạn,0292 3777 733,"LION HOTEL, 65 Hùng Vương, P, Ninh Kiều, Cần Thơ 94000","P, Ninh Kiều",65 Hùng Vương,Cần Thơ,94000.0,"Ninh Kiều, Cần Thơ",VN,"10.0435097,105.7787202"
57,ChIJn3vtOAZjoDERnJfUSrUGSkQ,KHÁCH SẠN LINH PHƯƠNG 3,Khách sạn,0939 628 606,"KHÁCH SẠN LINH PHƯƠNG 3, 55-57 Đ. Phạm Ngọc Thạch, Cái Khế, Ninh Kiều, Cần Thơ 94000","Cái Khế, Ninh Kiều",55-57 Đ. Phạm Ngọc Thạch,Cần Thơ,94000.0,"Ninh Kiều, Cần Thơ",VN,"10.0438869,105.7861971"
61,ChIJGS0k1bljoDERydfEnVQUguQ,Khách sạn Ngân Long - Cần Thơ,Khách sạn,0907 803 703,"Khách sạn Ngân Long - Cần Thơ, 147 Trần Văn Khéo, Cái Khế, Ninh Kiều, Cần Thơ 94000","Cái Khế, Ninh Kiều",147 Trần Văn Khéo,Cần Thơ,94000.0,"Ninh Kiều, Cần Thơ",VN,"10.0463658,105.78701749999999"
62,ChIJI9OtlTCJoDERduWJEDF2DU0,Motel 6,Khách sạn,0292 3502 468,"Motel 6, A3, TTVH Tây Đô, Phường Hưng Thạnh, Q, Cái Răng","Hưng Thành, Cái Răng","A3, TTVH Tây Đô, Phường Hưng Thạnh, Q",Cần Thơ,,"Cái Răng, Cần Thơ",VN,"10.0080071,105.7767496"
63,ChIJz1uukKFioDER2xJNxkM1dqM,Madella Hotel,Khách sạn,0292 3832 345,"Madella Hotel, 48 Đ. Ngô Quyền, Tân An, Ninh Kiều, Cần Thơ 94112","Tân An, Ninh Kiều",48 Đ. Ngô Quyền,Cần Thơ,94112.0,"Ninh Kiều, Cần Thơ",VN,"10.0345981,105.7865413"
64,ChIJI85HELSJoDER9iXSJSZuBdo,MIDMOST VILLA,Khách sạn,0779 661 122,"MIDMOST VILLA, 47 Lê Lai Ninh Kieu Can Tho City, 901700","An Lạc, Ninh Kiều",47 Lê Lai Ninh Kieu Can Tho City,Cần Thơ,901700.0,"Ninh Kiều, Cần Thơ",VN,"10.032215599999999,105.7798636"
65,ChIJReLaaDeHoDERiHVw8wIWXm0,Khách sạn Hoàng Mai,Khách sạn,0939 648 171,"Khách sạn Hoàng Mai, 589 Võ Văn Kiệt, Long Hoà, Bình Thủy, Cần Thơ 94212","Long Hoà, Bình Thủy",589 Võ Văn Kiệt,Cần Thơ,94212.0,"Bình Thủy, Cần Thơ",VN,"10.0782232,105.71385649999999"
66,ChIJz_MAuTaIoDERicZW3MbQavQ,Nhà Nghỉ Cần Thơ - Nhà Nghỉ Lâm Anh,Phòng cho thuê,0918 390 009,"Nhà Nghỉ Cần Thơ - Nhà Nghỉ Lâm Anh, Q, A1-57 Mai Chí Thọ, P, KDC 586, Cái Răng, Cần Thơ 94000","KDC 586, Cái Răng","Q, A1-57 Mai Chí Thọ, P",Cần Thơ,94000.0,"Cái Răng, Cần Thơ",VN,"10.0093258,105.8017972"
70,ChIJz8cJjwtjoDERWtIUTQ9lnGc,Tina 5 hotel,Khách sạn,0767 062 062,"Tina 5 hotel, 9 Nguyễn Thị Sáu, Phú Thứ, Cái Răng, Cần Thơ 900000","Phú Thứ, Cái Răng",9 Nguyễn Thị Sáu,Cần Thơ,900000.0,"Cái Răng, Cần Thơ",VN,"10.0074946,105.806872"
74,ChIJwzrDbJ9ioDERsMZiZERcuCs,Nhà Nghỉ Phong Nha,Nhà nghỉ trượt tuyết,0292 3821 615,"Nhà Nghỉ Phong Nha, 70 Đường Nguyễn An Ninh, Tân An, Ninh Kiều, Cần Thơ","Tân An, Ninh Kiều",70 Đường Nguyễn An Ninh,Cần Thơ,,"Ninh Kiều, Cần Thơ",VN,"10.031267,105.7858558"
76,ChIJl6X2-aFioDERSxF7aJsHCjU,Winter Spring Hotel,Khách sạn,0292 3861 111,"Winter Spring Hotel, 22B Đ. Lê Thánh Tôn, Tân An, Ninh Kiều, Cần Thơ","Tân An, Ninh Kiều",22B Đ. Lê Thánh Tôn,Cần Thơ,,"Ninh Kiều, Cần Thơ",VN,"10.0329087,105.7876577"
86,ChIJrbz_WxWJoDER87eKdW_AOzk,HO GIA AN Home,Đại lý cho thuê văn phòng,0939 668 943,"HO GIA AN Home, 15A - G1 KDC, Tổ 3A, P, Ninh Kiều, Cần Thơ 900000","P, Ninh Kiều","15A - G1 KDC, Tổ 3A",Cần Thơ,900000.0,"Ninh Kiều, Cần Thơ",VN,"10.006057,105.73976839999999"
87,ChIJ4T5rgdiJoDERJIwTZ64StjE,Hân Cao Hotel,Khách sạn,0916 039 679,"Hân Cao Hotel, 53B Đường Số 4, khu dân cư, Ninh Kiều, Cần Thơ","khu dân cư, Ninh Kiều",53B Đường Số 4,Cần Thơ,,"Ninh Kiều, Cần Thơ",VN,"10.023386799999999,105.74914109999999"
88,ChIJM0iRhuaPoDERwci6_iFng1c,Nhà Nghỉ Gia bảo tây đô 68 2,Nhà nghỉ trượt tuyết,0826 111 222,"Nhà Nghỉ Gia bảo tây đô 68 2, 151AA Đ. Nguyễn Văn Cừ, An Bình, Ninh Kiều, Cần Thơ","An Bình, Ninh Kiều",151AA Đ. Nguyễn Văn Cừ,Cần Thơ,,"Ninh Kiều, Cần Thơ",VN,"10.0248703,105.74643979999999"
90,ChIJU5VARA6JoDERtTuXvov_a6U,Nhà Nghỉ Phan Anh,Nhà nghỉ trượt tuyết,0943 333 525,"Nhà Nghỉ Phan Anh, 06 Ngô Sĩ Liên, Khu dân cư metro, Ninh Kiều, Cần Thơ","Khu dân cư metro, Ninh Kiều",06 Ngô Sĩ Liên,Cần Thơ,,"Ninh Kiều, Cần Thơ",VN,"10.022226,105.7613956"
93,ChIJr3RJlRSJoDERzqOKgcnPdyM,Rich Hotel,Khách sạn,0365 550 024,"Rich Hotel, 86D Hùng Vương, An Cư, Ninh Kiều, Cần Thơ 90000","An Cư, Ninh Kiều",86D Hùng Vương,Cần Thơ,90000.0,"Ninh Kiều, Cần Thơ",VN,"10.0427471,105.7780643"
98,ChIJrTxCfoBjoDERIyp2UiPJTqY,De Aquar Home Can Tho,Khách sạn,0396 188 008,"De Aquar Home Can Tho, 71 Trần Phú, Cái Khế, Ninh Kiều, Cần Thơ 90000","Cái Khế, Ninh Kiều",71 Trần Phú,Cần Thơ,90000.0,"Ninh Kiều, Cần Thơ",VN,"10.0477393,105.7826575"
100,ChIJ0b4mSfdjoDERK9z29_MUCdk,De RiVé HomeStay,Khách sạn,0789 664 777,"De RiVé HomeStay, 10 Đ. Thủ Khoa Huân, Tân An, Ninh Kiều, Cần Thơ","Tân An, Ninh Kiều",10 Đ. Thủ Khoa Huân,Cần Thơ,,"Ninh Kiều, Cần Thơ",VN,"10.0344362,105.7885968"
101,ChIJBd0Gb06HoDER8WE8N1qV7qU,Khách sạn homestay KV II,Khách sạn,0975 741 761,"Khách sạn homestay KV II, 117 Trần Văn Nghiêm, An Thới, Bình Thủy, Cần Thơ 900000","An Thới, Bình Thủy",117 Trần Văn Nghiêm,Cần Thơ,900000.0,"Bình Thủy, Cần Thơ",VN,"10.0565648,105.7647691"
104,ChIJs77ogrljoDERkRWOKQoyeSU,Hà Phương Hotel,Khách sạn,0975 642 943,"Hà Phương Hotel, 120/10B Trần Phú, Cái Khế, Ninh Kiều, Cần Thơ 94000","Cái Khế, Ninh Kiều",120/10B Trần Phú,Cần Thơ,94000.0,"Ninh Kiều, Cần Thơ",VN,"10.0478329,105.78455509999999"
106,ChIJOZdQXndjoDERq7ziM7plSzE,Winter Spring Homestay Center,Khách sạn,0348 030 303,"Winter Spring Homestay Center, 14 Đ. Trần Đại Nghĩa, Cái Khế, Ninh Kiều, Cần Thơ 900000","Cái Khế, Ninh Kiều",14 Đ. Trần Đại Nghĩa,Cần Thơ,900000.0,"Ninh Kiều, Cần Thơ",VN,"10.0448876,105.785795"
108,ChIJPSOpOwqJoDER_cunxnb_Sqs,Nhà Nghỉ Gia Bảo Tây Đô 68 - 4,Khách sạn,0826 111 222,"Nhà Nghỉ Gia Bảo Tây Đô 68 - 4, Đ. Số 1/46 LÔ 5C, Khu Đô Thị Mới Hồng Loan, Cái Răng, Cần Thơ","Khu Đô Thị Mới Hồng Loan, Cái Răng",Đ. Số 1/46 LÔ 5C,Cần Thơ,,"Cái Răng, Cần Thơ",VN,"10.0046296,105.767517"
109,ChIJlY6DL7ljoDERGELyMYnHJSI,Hotel An Ngọc,Khách sạn,0292 3863 456,"Hotel An Ngọc, 26 Lý Hồng Thanh, Cái Khế, Ninh Kiều, Cần Thơ","Cái Khế, Ninh Kiều",26 Lý Hồng Thanh,Cần Thơ,,"Ninh Kiều, Cần Thơ",VN,"10.0461931,105.78343799999999"
110,ChIJCUrynCeJoDER8wGDavQzk-U,Nhà Nghỉ LỆ TRÂN 2,Khách sạn,0988 991 233,"Nhà Nghỉ LỆ TRÂN 2, TP, 4 Ngô Sĩ Liên, KDC Metro P, Ninh Kiều, Cần Thơ","KDC Metro P, Ninh Kiều","TP, 4 Ngô Sĩ Liên",Cần Thơ,,"Ninh Kiều, Cần Thơ",VN,"10.0222999,105.76142379999999"
111,ChIJW7UgMxFjoDERdijWOFpzNLQ,Nhà nghỉ NAMI,Nhà nghỉ trượt tuyết,0982 499 939,"Nhà nghỉ NAMI, 97/12 Đ. Ngô Quyền, Tân An, Ninh Kiều, Cần Thơ 94000","Tân An, Ninh Kiều",97/12 Đ. Ngô Quyền,Cần Thơ,94000.0,"Ninh Kiều, Cần Thơ",VN,"10.0347571,105.78262959999999"
113,ChIJM2X17t6JoDERBCBiDmDj7EU,Nhà nghỉ Lê Anh 49,Khách sạn nghỉ dưỡng,0292 3898 152,"Nhà nghỉ Lê Anh 49, tp 49 Trần Văn Ơn, P, Ninh Kiều, Cần Thơ 90000","P, Ninh Kiều",tp 49 Trần Văn Ơn,Cần Thơ,90000.0,"Ninh Kiều, Cần Thơ",VN,"10.0503203,105.7697039"
114,ChIJYdIqSKhioDERZ8z-i2Wsi0c,Massage & Hotel Quý Phi Cần Thơ,Khách sạn,0886 079 079,"Massage & Hotel Quý Phi Cần Thơ, 65-67 Đ. Hồ Tùng Mậu, Cái Khế, Ninh Kiều, Cần Thơ 94107","Cái Khế, Ninh Kiều",65-67 Đ. Hồ Tùng Mậu,Cần Thơ,94107.0,"Ninh Kiều, Cần Thơ",VN,"10.0455841,105.7835437"
116,ChIJOxOS26eJoDER01ighJEB-cc,07 LUXSTAY CẦN THƠ,Khách sạn,,"07 LUXSTAY CẦN THƠ, 32 Đ. Trần Hoàng Na, Hưng Lợi, Ninh Kiều, Cần Thơ","Hưng Lợi, Ninh Kiều",32 Đ. Trần Hoàng Na,Cần Thơ,,"Ninh Kiều, Cần Thơ",VN,"10.0125438,105.76444819999999"
117,ChIJtesYjyOIoDER8OvB2AwfH7U,Nhà nghỉ Hương Thùy,Khách sạn tình yêu,0939 199 980,"2QH9+2JC Nhà nghỉ Hương Thùy, Xuân Khánh, Ninh Kiều, Cần Thơ 94115","Xuân Khánh, Ninh Kiều",2QH9+2JC,Cần Thơ,94115.0,"Ninh Kiều, Cần Thơ",VN,"10.0275723,105.7690499"
118,ChIJMVo7oJ9ioDER-Vwj7m1aQlQ,Khách sạn Á Châu,Khách sạn,0886 814 777,"Khách sạn Á Châu, 91 Đường Châu Văn Liêm, Tân An, Ninh Kiều, Cần Thơ","Tân An, Ninh Kiều",91 Đường Châu Văn Liêm,Cần Thơ,,"Ninh Kiều, Cần Thơ",VN,"10.0309867,105.78504459999999"
119,ChIJq6qqqq5ioDERX8Y8fIKI25c,Khách Sạn Aura Cần Thơ,Khách sạn,0292 3750 099,"Khách Sạn Aura Cần Thơ, 79B Đ. Phạm Ngọc Thạch, Cái Khế, Ninh Kiều, Cần Thơ","Cái Khế, Ninh Kiều",79B Đ. Phạm Ngọc Thạch,Cần Thơ,,"Ninh Kiều, Cần Thơ",VN,"10.0436084,105.7868647"
122,ChIJ1S9NLaBioDERnVlW2tDnsyQ,Kim Lân Hotel,Khách sạn,0292 3817 049,"Kim Lân Hotel, 138A Đường Nguyễn An Ninh, Tân An, Ninh Kiều, Cần Thơ","Tân An, Ninh Kiều",138A Đường Nguyễn An Ninh,Cần Thơ,,"Ninh Kiều, Cần Thơ",VN,"10.0315133,105.78390859999999"
126,ChIJqaqqqjWIoDERjPr3ctkf2JE,Khách sạn Apple Cần Thơ,Khách sạn,0292 3881 616,"Khách sạn Apple Cần Thơ, 431 Đ. 30 Tháng 4, Hưng Lợi, Ninh Kiều, Cần Thơ","Hưng Lợi, Ninh Kiều",431 Đ. 30 Tháng 4,Cần Thơ,,"Ninh Kiều, Cần Thơ",VN,"10.014859099999999,105.76330899999999"
127,ChIJ3062JnOHoDERkX-uvQgRw70,Khách Sạn Bita Hotel,Khách sạn,0907 262 577,"Khách Sạn Bita Hotel, 180/5 Đ. Cách Mạng Tháng 8, Cái Khế, Bình Thủy, Cần Thơ","Cái Khế, Bình Thủy",180/5 Đ. Cách Mạng Tháng 8,Cần Thơ,,"Bình Thủy, Cần Thơ",VN,"10.057567299999999,105.7686619"
128,ChIJ85IXR59ioDERoiM-YPDJaYQ,RUBYct HOTEL,Khách sạn,0292 3912 777,"RUBYct HOTEL, 34 Đường Nguyễn An Ninh, Tân An, Ninh Kiều, Cần Thơ","Tân An, Ninh Kiều",34 Đường Nguyễn An Ninh,Cần Thơ,,"Ninh Kiều, Cần Thơ",VN,"10.0310832,105.7870238"
130,ChIJeWGW4GSJoDER6u_aLcMFdis,FIT Hotel Can Tho,Khách sạn,0865 818 008,"FIT Hotel Can Tho, D3-23 Trần Quang Khải, An Hội, Ninh Kiều, Cần Thơ 901014","An Hội, Ninh Kiều",D3-23 Trần Quang Khải,Cần Thơ,901014.0,"Ninh Kiều, Cần Thơ",VN,"10.0481587,105.7855001"
131,ChIJHYKX8gKIoDERkngG58r7mes,Khách sạn Hoa Phượng,Khách sạn,0292 3824 834,"Khách sạn Hoa Phượng, 12-14-16 Trần Phú, Thới Bình, Ninh Kiều, Cần Thơ","Thới Bình, Ninh Kiều",12-14-16 Trần Phú,Cần Thơ,,"Ninh Kiều, Cần Thơ",VN,"10.0461042,105.7808003"
133,ChIJ0XaN6A6IoDER1MF2lADDiYc,Nhà Nghỉ ÂU DƯƠNG 8 Cần Thơ,Khách sạn,0947 777 774,"Nhà Nghỉ ÂU DƯƠNG 8 Cần Thơ, a11 tập thể Công An - 40 Võ Trường Toản - An Hòa, An Hoà, Ninh Kiều, Cần Thơ","An Hoà, Ninh Kiều",a11 tập thể Công An - 40 Võ Trường Toản - An Hòa,Cần Thơ,,"Ninh Kiều, Cần Thơ",VN,"10.0482848,105.76681649999999"
136,ChIJSd3RLkuIoDERblfIyP0EinA,Spring Hotel,Khách sạn,0292 3839 723,"Spring Hotel, Số 22 Khu Dân Cư Số 9, Đ. 30 Tháng 4, Xuân Khánh, Ninh Kiều, Cần Thơ","Xuân Khánh, Ninh Kiều","Số 22 Khu Dân Cư Số 9, Đ. 30 Tháng 4",Cần Thơ,,"Ninh Kiều, Cần Thơ",VN,"10.0237447,105.7713014"
137,ChIJIVCHa_-HoDERw_mP6HTTXQw,Nhà Nghỉ ÂU DƯƠNG 6 Cần Thơ,Nhà nghỉ trượt tuyết,0947 777 774,"Nhà Nghỉ ÂU DƯƠNG 6 Cần Thơ, 12/2 Đ. Nguyễn Văn Cừ, Cồn Khương, Ninh Kiều, Cần Thơ","Cồn Khương, Ninh Kiều",12/2 Đ. Nguyễn Văn Cừ,Cần Thơ,,"Ninh Kiều, Cần Thơ",VN,"10.058090199999999,105.78107449999999"
139,ChIJffptYf6HoDER9udZX2iY8x0,Kim Phụng Ngân Hotel,Khách sạn,0292 3769 486,"Kim Phụng Ngân Hotel, 126 Phạm Công Trứ, Cái Khế, Ninh Kiều, Cần Thơ","Cái Khế, Ninh Kiều",126 Phạm Công Trứ,Cần Thơ,,"Ninh Kiều, Cần Thơ",VN,"10.0569354,105.7772871"
140,ChIJPawcD51joDERCGjdbCWD2HQ,Khách Sạn Hoàng Hải Đăng 1,Khách sạn,0939 462 357,"Khách Sạn Hoàng Hải Đăng 1, 60 Đường Nguyễn An Ninh, Tân An, Ninh Kiều, Cần Thơ 90000","Tân An, Ninh Kiều",60 Đường Nguyễn An Ninh,Cần Thơ,90000.0,"Ninh Kiều, Cần Thơ",VN,"10.0312427,105.78603629999999"
141,ChIJJz8CNxiIoDERyj5gc4Mqv5g,Can Tho Riverside Hostel,Phòng cho thuê,0934 188 687,"Can Tho Riverside Hostel, 454B Đinh Công Chánh, Long Hoà, Bình Thủy, Cần Thơ","Long Hoà, Bình Thủy",454B Đinh Công Chánh,Cần Thơ,,"Bình Thủy, Cần Thơ",VN,"10.0623548,105.74152029999999"
145,ChIJ7SupMeSHoDER7-3ntNavbW4,Nhà Nghỉ Ngọc Cường,Khách sạn,0907 262 577,"Nhà Nghỉ Ngọc Cường, 300/19, Cách Mạng Tháng Tám, Phường Bùi Hữu Nghĩa, Quận Bình Thủy, Thành Phố Cần Thơ, Bùi Hữu Nghĩa, Bình Thủy, Cần Thơ","Bùi Hữu Nghĩa, Bình Thủy","300/19, Cách Mạng Tháng Tám, Phường Bùi Hữu Nghĩa, Quận Bình Thủy, Thành Phố Cần Thơ",Cần Thơ,,"Bình Thủy, Cần Thơ",VN,"10.0621201,105.7653241"
146,ChIJtSHKMQtjoDERDInkq6I3-Uc,LION 3 HOTEL,Khách sạn,0292 3777 766,"LION 3 HOTEL, 14-16 Đ. Phạm Ngọc Thạch, Cái Khế, Ninh Kiều, Cần Thơ 94000","Cái Khế, Ninh Kiều",14-16 Đ. Phạm Ngọc Thạch,Cần Thơ,94000.0,"Ninh Kiều, Cần Thơ",VN,"10.044619599999999,105.785249"
149,ChIJbRfuCV9joDER4ucEDMGav8w,Thanh Hằng homestay,Nhà nghỉ trượt tuyết,0948 331 990,"Thanh Hằng homestay, 54/3 Nguyễn Thái Học, Tân An, Ninh Kiều, Cần Thơ","Tân An, Ninh Kiều",54/3 Nguyễn Thái Học,Cần Thơ,,"Ninh Kiều, Cần Thơ",VN,"10.0329699,105.7858692"
150,ChIJGz3zXiGIoDERFdlq5Sw-cSk,Hồng Đào 2 Hotel,Khách sạn,0292 3779 789,"Hồng Đào 2 Hotel, 95/4 Đ. Mậu Thân, An Phú, Ninh Kiều, Cần Thơ","An Phú, Ninh Kiều",95/4 Đ. Mậu Thân,Cần Thơ,,"Ninh Kiều, Cần Thơ",VN,"10.031284099999999,105.7746672"
152,ChIJJ6hLEwBjoDER_P7GNeR7eww,Hotel Phúc Long 2,Khách sạn,0901 051 717,"Hotel Phúc Long 2, 17 Đ. Điện Biên Phủ, Tân An, Ninh Kiều, Cần Thơ","Tân An, Ninh Kiều",17 Đ. Điện Biên Phủ,Cần Thơ,,"Ninh Kiều, Cần Thơ",VN,"10.030589599999999,105.7857631"
162,ChIJHxuq1v2HoDERhMH0E1efvjQ,Nhà Nghỉ - Khách Sạn ÂU DƯƠNG 4 Cần Thơ,Khách sạn,0947 777 774,"Nhà Nghỉ - Khách Sạn ÂU DƯƠNG 4 Cần Thơ, 74 Đ. Số 19, khu dân cư Vạn Phát, Ninh Kiều, Cần Thơ","khu dân cư Vạn Phát, Ninh Kiều",74 Đ. Số 19,Cần Thơ,,"Ninh Kiều, Cần Thơ",VN,"10.058039599999999,105.7778307"
163,ChIJDYvG1h-IoDERDreBfUBtqbc,Hoàng Sơn's Home,Khách sạn,0965 816 876,"Hoàng Sơn's Home, 88/2 Đ. Đề Thám, An Cư, Ninh Kiều, Cần Thơ 90000","An Cư, Ninh Kiều",88/2 Đ. Đề Thám,Cần Thơ,90000.0,"Ninh Kiều, Cần Thơ",VN,"10.0348379,105.7818496"
165,ChIJm0l_me2JoDERJwr0VfxnN3w,Nhà Nghỉ Gia Khang,Khách sạn,0931 079 979,"Nhà Nghỉ Gia Khang, 127 2H Đường, Võ Văn Kiệt, An Hoà, Ninh Kiều, Cần Thơ","An Hoà, Ninh Kiều","127 2H Đường, Võ Văn Kiệt",Cần Thơ,,"Ninh Kiều, Cần Thơ",VN,"10.045157399999999,105.7623711"
174,ChIJpy6nWShjoDERYsD7sATyImg,K2 Homestay & Coffee,Khách sạn,0902 969 798,"K2 Homestay & Coffee, 60 Đ. Xô Viết Nghệ Tĩnh, Tân An, Ninh Kiều, Cần Thơ","Tân An, Ninh Kiều",60 Đ. Xô Viết Nghệ Tĩnh,Cần Thơ,,"Ninh Kiều, Cần Thơ",VN,"10.038574299999999,105.7837864"
176,ChIJ5-C_8ppjoDERY9mvmgYEwZo,54 Homestay,Khách sạn,0292 3525 454,"54 Homestay, 54/7A Nguyễn Thái Học, Tân An, Ninh Kiều, Cần Thơ 900000","Tân An, Ninh Kiều",54/7A Nguyễn Thái Học,Cần Thơ,900000.0,"Ninh Kiều, Cần Thơ",VN,"10.0331121,105.7858868"
177,ChIJp3MKUKNjoDERsK0cxy5KRVI,Hotel Linh Phương 5,Khách sạn,0292 3863 399,"Hotel Linh Phương 5, 31-33 Trần Quang Khải, Cái Khế, Ninh Kiều, Cần Thơ 900000","Cái Khế, Ninh Kiều",31-33 Trần Quang Khải,Cần Thơ,900000.0,"Ninh Kiều, Cần Thơ",VN,"10.0481757,105.78631709999999"
178,ChIJlz7Aa-uJoDERqLY_PzxFK48,Nhà Nghỉ Ngọc Ngân House,Khách sạn,0829 493 493,"Nhà Nghỉ Ngọc Ngân House, 390 Đ. Trần Nam Phú, Xuân Khánh, Ninh Kiều, Cần Thơ","Xuân Khánh, Ninh Kiều",390 Đ. Trần Nam Phú,Cần Thơ,,"Ninh Kiều, Cần Thơ",VN,"10.0348095,105.75855469999999"
179,ChIJkf9BDE9joDER1IKRgETXRXI,Phuong Thuy Hotel,Khách sạn,0906 693 377,"Phuong Thuy Hotel, 118/14 Trần Phú, Cái Khế, Ninh Kiều, Cần Thơ","Cái Khế, Ninh Kiều",118/14 Trần Phú,Cần Thơ,,"Ninh Kiều, Cần Thơ",VN,"10.047477299999999,105.7845694"
180,ChIJT0T9D-VjoDERt4B331ALPHc,Riverside Boutique Hotel Cần Thơ,Khách sạn,0292 3653 838,"Riverside Boutique Hotel Cần Thơ, 38 Lê Lợi, Cái Khế, Ninh Kiều, Cần Thơ 900000","Cái Khế, Ninh Kiều",38 Lê Lợi,Cần Thơ,900000.0,"Ninh Kiều, Cần Thơ",VN,"10.0484875,105.7877367"
183,ChIJL5zVPYuHoDERgcOS2-t2L9A,Nhà Nghỉ PHƯƠNG AN,Chỗ trọ trong nhà,0931 008 218,"Nhà Nghỉ PHƯƠNG AN, 28 Phạm Công Trứ, Cái Khế, Ninh Kiều, Cần Thơ","Cái Khế, Ninh Kiều",28 Phạm Công Trứ,Cần Thơ,,"Ninh Kiều, Cần Thơ",VN,"10.058754,105.77929379999999"
185,ChIJTc01V99joDERufkTEKOICVk,Tina 3 hotel,Khách sạn,0797 062 062,"Tina 3 hotel, 62 Đ. Số 03, khu dân cư diệu hiền, khu vực, Cái Răng, Cần Thơ 900000","khu dân cư diệu hiền, khu vực, Cái Răng",62 Đ. Số 03,Cần Thơ,900000.0,"Cái Răng, Cần Thơ",VN,"10.0042779,105.79371689999999"
186,ChIJk51BT76JoDERdBGwMwcVDlA,WELKOM INN,Nhà trọ,0932 889 224,"WELKOM INN, 8 Nguyễn Văn Trỗi, Xuân Khánh, Ninh Kiều, Cần Thơ","Xuân Khánh, Ninh Kiều",8 Nguyễn Văn Trỗi,Cần Thơ,,"Ninh Kiều, Cần Thơ",VN,"10.03734,105.770298"
188,ChIJgfyai59ioDERw6wjDuxIOTw,DNTN Khách sạn Nam Đô 2,Khách sạn,0292 3817 883,"DNTN Khách sạn Nam Đô 2, 71 Đ. Nam Kỳ Khởi Nghĩa, P, Ninh Kiều, Cần Thơ","P, Ninh Kiều",71 Đ. Nam Kỳ Khởi Nghĩa,Cần Thơ,,"Ninh Kiều, Cần Thơ",VN,"10.0320562,105.7840318"
193,ChIJqddUNp9ioDERNP5n2b-kJik,Hotel 17,Khách sạn,0292 3811 717,"Hotel 17, 17 Đường Nguyễn An Ninh, Tân An, Ninh Kiều, Cần Thơ","Tân An, Ninh Kiều",17 Đường Nguyễn An Ninh,Cần Thơ,,"Ninh Kiều, Cần Thơ",VN,"10.0303953,105.78574839999999"
194,ChIJkR43RxWJoDERsdVdMn0XHjk,LION 6 HOTEL,Khách sạn,0292 3797 733,"LION 6 HOTEL, 180/9 Hẻm 558, Hưng Lợi, Ninh Kiều, Cần Thơ 900000","Hưng Lợi, Ninh Kiều",180/9 Hẻm 558,Cần Thơ,900000.0,"Ninh Kiều, Cần Thơ",VN,"10.0170368,105.76402739999999"
196,ChIJ2U8Et4-JoDERIWsYakN6tyA,KHÁCH SẠN LINH PHƯƠNG 6,Khách sạn,0292 3736 688,"KHÁCH SẠN LINH PHƯƠNG 6, 167/3 Đ. Phạm Hùng, P, Cái Răng, Cần Thơ 92000","P, Cái Răng",167/3 Đ. Phạm Hùng,Cần Thơ,92000.0,"Cái Răng, Cần Thơ",VN,"9.9975396,105.7496389"
200,ChIJaTmcLACJoDERt133-6rJ710,Nhà nghỉ Hạnh Phát 9,Khách sạn,0799 034 879,"Nhà nghỉ Hạnh Phát 9, 167-203, ĐT923, Mỹ Khánh, Phong Điền, Cần Thơ","Mỹ Khánh, Phong Điền","167-203, ĐT923",Cần Thơ,,"Phong Điền, Cần Thơ",VN,"9.991736399999999,105.7144582"
201,ChIJUzZ8lzeIoDERprzsMQxk73o,Nhà Nghỉ An Trúc - An Truc Guesthouse,Nhà nghỉ trượt tuyết,0292 3781 595,"Nhà Nghỉ An Trúc - An Truc Guesthouse, 25-27 Khu Dân Cư Metro, Quốc Lộ 91B, Quận Ninh Kiều, Tp Cần Thơ, Hưng Lợi, Ninh Kiều, Cần Thơ","Hưng Lợi, Ninh Kiều","25-27 Khu Dân Cư Metro, Quốc Lộ 91B, Quận Ninh Kiều, Tp Cần Thơ",Cần Thơ,,"Ninh Kiều, Cần Thơ",VN,"10.0215028,105.7606064"
202,ChIJS5OlAaBjoDER1brvDbzbDeY,Nhà nghỉ Sunny House Cần Thơ,Khách sạn,0939 360 299,"Nhà nghỉ Sunny House Cần Thơ, K2 Đ. Số 2, Khu dân cư Nông Thổ Sản, Cái Răng, Cần Thơ","Khu dân cư Nông Thổ Sản, Cái Răng",K2 Đ. Số 2,Cần Thơ,,"Cái Răng, Cần Thơ",VN,"10.0045015,105.7951425"
203,ChIJQSnAXXRjoDEROjXbozw_Us4,LINH PHUONG 8 HOTEL,Khách sạn,0292 3769 494,"LINH PHUONG 8 HOTEL, 97Đ Đ. Phạm Ngọc Thạch, Cái Khế, Ninh Kiều, Cần Thơ 900000","Cái Khế, Ninh Kiều",97Đ Đ. Phạm Ngọc Thạch,Cần Thơ,900000.0,"Ninh Kiều, Cần Thơ",VN,"10.0434006,105.7872932"
207,ChIJS-TvcDCIoDERXmJRkH0SZyA,Nhà Nghỉ Sơn Hà,Phòng cho thuê,0292 3839 965,"Nhà Nghỉ Sơn Hà, 172 Đ. Lê Bình, Hưng Lợi, Ninh Kiều, Cần Thơ","Hưng Lợi, Ninh Kiều",172 Đ. Lê Bình,Cần Thơ,,"Ninh Kiều, Cần Thơ",VN,"10.022057499999999,105.7683074"
209,ChIJ71Z0cEmJoDER2vlhI3TG8QU,Little Đà Lạt,Quán cà phê,0907 211 668,"2QF2+W6W Little Đà Lạt, Phường An Khánh, Ninh Kiều, Cần Thơ","Phường An Khánh, Ninh Kiều",2QF2+W6W,Cần Thơ,,"Ninh Kiều, Cần Thơ",VN,"10.024865199999999,105.7505918"
211,ChIJzSp7zreJoDEREPe5J0wJbjE,Nhà nghỉ Huỳnh Hân,Khách sạn,0919 449 774,"2QF5+3M3 Nhà nghỉ Huỳnh Hân, Đ. Số 7, KDC Metro, Ninh Kiều, Cần Thơ","KDC Metro, Ninh Kiều","2QF5+3M3, Đ. Số 7",Cần Thơ,,"Ninh Kiều, Cần Thơ",VN,"10.0226329,105.75917079999999"
212,ChIJ3drhkkuJoDERRzLPPpFwHww,Nhà Nghỉ Hạnh Phát ( Khách sạn Mini ),Nhà nghỉ trượt tuyết,0932 186 500,"2QC2+VVR Nhà Nghỉ Hạnh Phát ( Khách sạn Mini ), Đ. Trần Vĩnh Kiết, Phường An Khánh, Ninh Kiều, Cần Thơ","Phường An Khánh, Ninh Kiều","2QC2+VVR, Đ. Trần Vĩnh Kiết",Cần Thơ,,"Ninh Kiều, Cần Thơ",VN,"10.0222365,105.75214419999999"
213,ChIJK8392RKJoDERsofifaeQYl4,Nhà nghỉ THANH BÌNH,Khách sạn,0939 987 266,"Nhà nghỉ THANH BÌNH, KDC Quân đội C1, Yên Hạ, Thường Thạnh, Cái Răng, Cần Thơ 94908","Thường Thạnh, Cái Răng","KDC Quân đội C1, Yên Hạ",Cần Thơ,94908.0,"Cái Răng, Cần Thơ",VN,"9.9808893,105.7470316"
215,ChIJVeWcaiGIoDEREEFCJgyVk3o,Nhà Nghỉ Phương Vy,Nhà nghỉ trượt tuyết,,"Nhà Nghỉ Phương Vy, 160 Đ. 30 Tháng 4, Xuân Khánh, Ninh Kiều, Cần Thơ","Xuân Khánh, Ninh Kiều",160 Đ. 30 Tháng 4,Cần Thơ,,"Ninh Kiều, Cần Thơ",VN,"10.0162227,105.76358669999999"
216,ChIJM8PMvwJjoDERHMPiRiSJEp8,Khách sạn Diễm Minh,Khách sạn,0292 2233 399,"Khách sạn Diễm Minh, 22 Đ. Trần Đại Nghĩa, Cái Khế, Ninh Kiều, Cần Thơ 900000","Cái Khế, Ninh Kiều",22 Đ. Trần Đại Nghĩa,Cần Thơ,900000.0,"Ninh Kiều, Cần Thơ",VN,"10.0446715,105.785966"
219,ChIJ96CYwzCJoDER9L5RtL8uOek,Nhà Nghỉ Ngọc Yến 79,Nhà nghỉ trượt tuyết,0979 005 511,"Nhà Nghỉ Ngọc Yến 79, Can Tho City, Nguyễn Việt Dũng, Lê Bình, Cái Răng, Cần Thơ 903670","Lê Bình, Cái Răng","Can Tho City, Nguyễn Việt Dũng",Cần Thơ,903670.0,"Cái Răng, Cần Thơ",VN,"9.9968714,105.7478778"
220,ChIJ0QmPX1SJoDERMRsUeLpf7BA,Nhà Nghỉ NGÔ ĐĂNG,Nhà nghỉ trượt tuyết,0292 3629 668,"Nhà Nghỉ NGÔ ĐĂNG, 15 Đường số 1, Hưng Lợi, Ninh Kiều, Cần Thơ","Hưng Lợi, Ninh Kiều",15 Đường số 1,Cần Thơ,,"Ninh Kiều, Cần Thơ",VN,"10.0221599,105.7605282"
222,ChIJY46IgjeIoDERatl20vJHvo0,Nhà Nghỉ Thi Thơ,Khách sạn,0915 839 079,"Nhà Nghỉ Thi Thơ, 02 Ngô Sĩ Liên, KDC Metro, Ninh Kiều, Cần Thơ","KDC Metro, Ninh Kiều",02 Ngô Sĩ Liên,Cần Thơ,,"Ninh Kiều, Cần Thơ",VN,"10.022363799999999,105.7614401"
223,ChIJgX7wXjOJoDERSzINsXyNCA4,Khách sạn HOÀNG LỘC PHÁT,Khách sạn,0292 3645 599,"Khách sạn HOÀNG LỘC PHÁT, 12 Đ. Phạm Hùng, Ba Láng, Cái Răng, Cần Thơ","Ba Láng, Cái Răng",12 Đ. Phạm Hùng,Cần Thơ,,"Cái Răng, Cần Thơ",VN,"9.9900445,105.7478256"
224,ChIJK29eLzeIoDERP7F4_xt37Bs,Nhà Nghỉ 184,Nhà nghỉ trượt tuyết,0292 6548 737,"Nhà Nghỉ 184, 184B Đ. 3 Tháng 2, Hưng Lợi, Ninh Kiều, Cần Thơ","Hưng Lợi, Ninh Kiều",184B Đ. 3 Tháng 2,Cần Thơ,,"Ninh Kiều, Cần Thơ",VN,"10.020062,105.763612"
225,ChIJl40fjZmJoDERgdcCXfEkvQI,Moony hostel,Khách sạn,0948 106 123,"Moony hostel, 25 Đường số 3, Khu nhà ở GVĐHCT, Ninh Kiều, Cần Thơ","Khu nhà ở GVĐHCT, Ninh Kiều",25 Đường số 3,Cần Thơ,,"Ninh Kiều, Cần Thơ",VN,"10.0287273,105.7574928"
226,ChIJbaNM9nSJoDERf-ZLLR4saSQ,Nhà nghỉ 126 - Cần Thơ 126 Motel,Nhà nghỉ trượt tuyết,0365 226 126,"Nhà nghỉ 126 - Cần Thơ 126 Motel, 126 Đ. Nguyễn Đệ, An Hoà, Bình Thủy, Cần Thơ 900000","An Hoà, Bình Thủy",126 Đ. Nguyễn Đệ,Cần Thơ,900000.0,"Bình Thủy, Cần Thơ",VN,"10.048468699999999,105.76271609999999"
228,ChIJacdW1B6JoDEReGsGIwbvfRU,Nhà Nghỉ Hải Đăng,Khách sạn,0939 304 909,"Nhà Nghỉ Hải Đăng, 172/7F Đ. Lê Bình, Hưng Lợi, Ninh Kiều, Cần Thơ","Hưng Lợi, Ninh Kiều",172/7F Đ. Lê Bình,Cần Thơ,,"Ninh Kiều, Cần Thơ",VN,"10.0226169,105.767983"
229,ChIJky5QOuJjoDEROSztHTidNak,Thu Nguyễn Hotel,Khách sạn,0292 2210 926,"Thu Nguyễn Hotel, 10 Đ. Tân Trào, Tân An, Ninh Kiều, Cần Thơ 94000","Tân An, Ninh Kiều",10 Đ. Tân Trào,Cần Thơ,94000.0,"Ninh Kiều, Cần Thơ",VN,"10.0333437,105.78784429999999"
230,ChIJQYkZN_mJoDERJfF8sAgkU_I,Nhà Nghỉ 1989,Khách sạn,0356 619 091,"Nhà Nghỉ 1989, 24 Nguyễn Việt Dũng, Lê Bình, Cái Răng, Cần Thơ","Lê Bình, Cái Răng",24 Nguyễn Việt Dũng,Cần Thơ,,"Cái Răng, Cần Thơ",VN,"9.997681,105.74666979999999"
233,ChIJ0XSkcjGIoDERADKcKrnUbeM,Nhà Nghỉ Tân Minh Hải,Khách sạn,0338 274 607,"Nhà Nghỉ Tân Minh Hải, 232/10A, Đường 30/4, Phường Hưng Lợi, Quận Ninh Kiều, Thành Phố Cần Thơ, Hưng Lợi, Ninh Kiều, Cần Thơ","Hưng Lợi, Ninh Kiều","232/10A, Đường 30/4, Phường Hưng Lợi, Quận Ninh Kiều, Thành Phố Cần Thơ",Cần Thơ,,"Ninh Kiều, Cần Thơ",VN,"10.0188533,105.7663431"
234,ChIJravwYahioDERC_bP1WjceFo,Khách Sạn Ngọc Mai 2,Khách sạn,0292 3769 567,"Khách Sạn Ngọc Mai 2, 9 Lý Hồng Thanh, Cái Khế, Ninh Kiều, Cần Thơ","Cái Khế, Ninh Kiều",9 Lý Hồng Thanh,Cần Thơ,,"Ninh Kiều, Cần Thơ",VN,"10.0443526,105.78495559999999"
235,ChIJYxvwoAJjoDERD1LxEsybfFg,Lion 8 Hotel,Khách sạn,0292 3750 099,"Lion 8 Hotel, 79B Đ. Phạm Ngọc Thạch, Cái Khế, Ninh Kiều, Cần Thơ 900000","Cái Khế, Ninh Kiều",79B Đ. Phạm Ngọc Thạch,Cần Thơ,900000.0,"Ninh Kiều, Cần Thơ",VN,"10.043619999999999,105.7868493"
238,ChIJT7JGEtOJoDERICw2jcz6rC8,Nhà Nghỉ Kim Thoa 8,Nhà nghỉ trượt tuyết,0764 449 990,"Nhà Nghỉ Kim Thoa 8, TP, 8 Đường số 1, KDC Metro, Ninh Kiều, Cần Thơ 900000","KDC Metro, Ninh Kiều","TP, 8 Đường số 1",Cần Thơ,900000.0,"Ninh Kiều, Cần Thơ",VN,"10.021898799999999,105.76058909999999"
240,ChIJ3SXyQHCJoDERxrV7A9Uydx8,Stay house,Nhà trọ,,"Stay house, 1 Đ. Lê Lai, An Lạc, Ninh Kiều, Cần Thơ","An Lạc, Ninh Kiều",1 Đ. Lê Lai,Cần Thơ,,"Ninh Kiều, Cần Thơ",VN,"10.0326142,105.7799184"
246,ChIJ9aVaer-JoDER-AND57Wg_QY,Đại Quang Hotel,Khách sạn,0939 333 366,"Đại Quang Hotel, 10B Đường số 3, Khu Dân Cư, Ninh Kiều, Cần Thơ","Khu Dân Cư, Ninh Kiều",10B Đường số 3,Cần Thơ,,"Ninh Kiều, Cần Thơ",VN,"10.0259255,105.74699179999999"
248,ChIJR-NO79mJoDERO6ViGxP_1XE,Nhà nghỉ Phương Nguyên,Khách sạn,0292 3751 179,"Nhà nghỉ Phương Nguyên, 49/1 Đ. Mậu Thân, An Nghiệp, Ninh Kiều, Cần Thơ","An Nghiệp, Ninh Kiều",49/1 Đ. Mậu Thân,Cần Thơ,,"Ninh Kiều, Cần Thơ",VN,"10.042325199999999,105.7660444"
251,ChIJdQRotX-JoDER6tiBELSsl9U,Nhà Nghỉ Sugar,Khách sạn,0901 079 286,"Nhà Nghỉ Sugar, 5 Đ. Trần Bình Trọng, An Phú, Ninh Kiều, Cần Thơ","An Phú, Ninh Kiều",5 Đ. Trần Bình Trọng,Cần Thơ,,"Ninh Kiều, Cần Thơ",VN,"10.0341148,105.7760845"
253,ChIJG_MZ78GJoDERt0bcWntyAg8,Phúc Long Hotel,Khách sạn,,"Phúc Long Hotel, 28 Đ. B19, Khu dân cư 91B, Ninh Kiều, Cần Thơ","Khu dân cư 91B, Ninh Kiều",28 Đ. B19,Cần Thơ,,"Ninh Kiều, Cần Thơ",VN,"10.0256788,105.75646689999999"
256,ChIJ3Ya924eHoDERRWGlp6HTIEM,Nhà nghỉ KICHI HOUSE 24/24 từ 160K,Khách sạn,0932 999 744,"Nhà nghỉ KICHI HOUSE 24/24 từ 160K, KDC Vạn Phát, LK29 Đ. Số 19, Cồn Khương, Ninh Kiều, Cần Thơ 920000","Cồn Khương, Ninh Kiều","KDC Vạn Phát, LK29 Đ. Số 19",Cần Thơ,920000.0,"Ninh Kiều, Cần Thơ",VN,"10.0582086,105.7776851"
261,ChIJmYi5APGJoDERK4HSBtIq_dI,Nhà Nghỉ Hạnh Phát 8,Nhà nghỉ trượt tuyết,0703 108 084,"Nhà Nghỉ Hạnh Phát 8, L66, đường số 34, khu TĐC Rạch Ngã Ngay, kv8, An Bình, Ninh Kiều, Cần Thơ","An Bình, Ninh Kiều","L66, đường số 34, khu TĐC Rạch Ngã Ngay, kv8",Cần Thơ,,"Ninh Kiều, Cần Thơ",VN,"10.0093607,105.7315522"
262,ChIJ0XB2jNCJoDERuGF2rP3DuY8,Nhà Nghỉ Mỹ Khánh,Khách sạn,0939 040 066,"Nhà Nghỉ Mỹ Khánh, Mỹ Khánh, Phong Điền, Cần Thơ","Mỹ Khánh, Phong Điền",,Cần Thơ,,"Phong Điền, Cần Thơ",VN,"9.9961094,105.7145168"
263,ChIJ4Zk6_cWJoDERzCuNKmggJRQ,Nhà Nghỉ Thanh Đức,Khách sạn,0961 069 318,"Nhà Nghỉ Thanh Đức, 31/5 Nhật Tảo, khu vực, Cái Răng, Cần Thơ","khu vực, Cái Răng",31/5 Nhật Tảo,Cần Thơ,,"Cái Răng, Cần Thơ",VN,"9.9975404,105.747768"
272,ChIJ7f8ZeK-JoDERpaiYqgf5TDU,Nhà nghỉ Vân Điền,Khách sạn,0292 3943 783,"Nhà nghỉ Vân Điền, 291 Nguyễn Văn Cừ Nối Dài, An Bình, Ninh Kiều, Cần Thơ","An Bình, Ninh Kiều",291 Nguyễn Văn Cừ Nối Dài,Cần Thơ,,"Ninh Kiều, Cần Thơ",VN,"10.0227401,105.74431919999999"
276,ChIJoUkkVTOIoDERNpm_8-N2J_A,Nhà Nghỉ,Khách sạn,0909 353 439,"Nhà Nghỉ, 40B Đ. Trần Hoàng Na, Hưng Lợi, Ninh Kiều, Cần Thơ","Hưng Lợi, Ninh Kiều",40B Đ. Trần Hoàng Na,Cần Thơ,,"Ninh Kiều, Cần Thơ",VN,"10.0117768,105.7645355"
278,ChIJs1ccPp6JoDER2GRrS0jqoN4,Nhà Nghỉ Bảo Hân,Khách sạn,,"2P8P+R33 Nhà Nghỉ Bảo Hân, An Bình, Ninh Kiều, Cần Thơ","An Bình, Ninh Kiều",2P8P+R33,Cần Thơ,,"Ninh Kiều, Cần Thơ",VN,"10.0166591,105.7357079"
279,ChIJVen4Gr2JoDERJJdQS0TURSY,Khách Sạn Phương Anh,Khách sạn,0916 434 471,"Khách Sạn Phương Anh, Đ. Phạm Hùng/287B KV Yên Thạnh, P, 2 tầng, Cần Thơ","P, 2 tầng",Đ. Phạm Hùng/287B KV Yên Thạnh,Cần Thơ,,"2 tầng, Cần Thơ",VN,"9.993016299999999,105.74896779999999"
281,ChIJPWYPCt6JoDERTIBieafYq0I,NHÀ NGHỈ TRUNG HIẾU 1,Nhà nghỉ trượt tuyết,0939 642 751,"NHÀ NGHỈ TRUNG HIẾU 1, Đ. Nguyễn Văn Linh, Phường An Khánh, Ninh Kiều, Cần Thơ","Phường An Khánh, Ninh Kiều",Đ. Nguyễn Văn Linh,Cần Thơ,,"Ninh Kiều, Cần Thơ",VN,"10.035777399999999,105.7440944"
284,ChIJe-ideGaJoDERl_WabmpJmxM,Khách sạn Tân Tây Đô,Khách sạn,0913 626 399,"Khách sạn Tân Tây Đô, Q, 26 Trần Phú, P, Ninh Kiều, Cần Thơ","P, Ninh Kiều","Q, 26 Trần Phú",Cần Thơ,,"Ninh Kiều, Cần Thơ",VN,"10.0456519,105.78085229999999"
289,ChIJ4bjmij2JoDERzmCqIu7tdjk,Nhà Nghỉ Hồng Mỹ,Nhà nghỉ trượt tuyết,0292 3899 789,"Nhà Nghỉ Hồng Mỹ, Bông Vang, Mỹ Khánh, Phong Điền, Cần Thơ","Mỹ Khánh, Phong Điền",Bông Vang,Cần Thơ,,"Phong Điền, Cần Thơ",VN,"9.9994043,105.7114594"
291,ChIJhyUys52JoDERwraBgUAJC2Q,MIHA Homestay,Khách sạn,0338 286 665,"MIHA Homestay, 17 Đ. Trần Khánh Dư, Xuân Khánh, Ninh Kiều, Cần Thơ 900000","Xuân Khánh, Ninh Kiều",17 Đ. Trần Khánh Dư,Cần Thơ,900000.0,"Ninh Kiều, Cần Thơ",VN,"10.0256294,105.7744211"
293,ChIJjSUf6raJoDER11sbuup9NX0,NHÀ NGHỈ GIA BẢO TÂY ĐÔ - 3,Nhà nghỉ trượt tuyết,0826 111 222,"NHÀ NGHỈ GIA BẢO TÂY ĐÔ - 3, 67b Đường Số 4, kdc, Ninh Kiều, Cần Thơ","kdc, Ninh Kiều",67b Đường Số 4,Cần Thơ,,"Ninh Kiều, Cần Thơ",VN,"10.0231557,105.74889669999999"
295,ChIJScRkHoJioDERTLZAhylx2cU,Nhà Nghỉ Như Mai,Trạm nghỉ,0788 811 838,"Nhà Nghỉ Như Mai, 12B15, KHU DÂN CƯ ĐÔ THỊ MỚI HƯNG PHÚ, Cái Răng, Cần Thơ","KHU DÂN CƯ ĐÔ THỊ MỚI HƯNG PHÚ, Cái Răng",12B15,Cần Thơ,,"Cái Răng, Cần Thơ",VN,"10.0164441,105.7832176"
297,ChIJ9xm6t2yJoDERaQaoZuyJ3VI,Nhà nghỉ Bảo Trang,Khách sạn,,"2QC6+WH3 Nhà nghỉ Bảo Trang, Hưng Lợi, Ninh Kiều, Cần Thơ","Hưng Lợi, Ninh Kiều",2QC6+WH3,Cần Thơ,,"Ninh Kiều, Cần Thơ",VN,"10.0222724,105.7614112"
299,ChIJZ0-V-zSIoDER03RjQTFOCro,Nhà Nghỉ 636,Trạm nghỉ,,"Nhà Nghỉ 636, Đ. 30 Tháng 4, Hưng Lợi, Ninh Kiều, Cần Thơ","Hưng Lợi, Ninh Kiều",Đ. 30 Tháng 4,Cần Thơ,,"Ninh Kiều, Cần Thơ",VN,"10.0144726,105.7619521"
301,ChIJv7Offi6JoDERPBVB8PB551U,BÊ TÔNG RESIDENCES - HOMESTAY,Khách sạn,0907 191 161,"BÊ TÔNG RESIDENCES - HOMESTAY, 53/10 Đ. Lê Lai, An Lạc, Ninh Kiều, Cần Thơ 900000","An Lạc, Ninh Kiều",53/10 Đ. Lê Lai,Cần Thơ,900000.0,"Ninh Kiều, Cần Thơ",VN,"10.0326461,105.7798371"
302,ChIJGXC7-hxjoDERfU6Dc74mqOI,Homestay 63,Khách sạn,,"Homestay 63, 63/5 Đ. Nam Kỳ Khởi Nghĩa, Tân An, Ninh Kiều, Cần Thơ","Tân An, Ninh Kiều",63/5 Đ. Nam Kỳ Khởi Nghĩa,Cần Thơ,,"Ninh Kiều, Cần Thơ",VN,"10.031830099999999,105.78403809999999"
303,ChIJHyLtgsqJoDER6pLKlDSokic,Khách sạn Hoàn Cầu,Khách sạn,0292 3764 467,"Khách sạn Hoàn Cầu, 24 Đ. Bà Huyện Thanh Quan, P, Ninh Kiều, Cần Thơ 900000","P, Ninh Kiều",24 Đ. Bà Huyện Thanh Quan,Cần Thơ,900000.0,"Ninh Kiều, Cần Thơ",VN,"10.0455533,105.7787247"
307,ChIJa7oavFuIoDERCRG0qaCRTsw,NHÀ NGHỈ PHƯƠNG THUÝ,Khách sạn,0915 790 011,"NHÀ NGHỈ PHƯƠNG THUÝ, 326C Đ. Hoàng Quốc Việt, P, Ninh Kiều, Cần Thơ","P, Ninh Kiều",326C Đ. Hoàng Quốc Việt,Cần Thơ,,"Ninh Kiều, Cần Thơ",VN,"10.027445,105.74286099999999"
313,ChIJX_FXPeJjoDERvG5SG-ABoW8,Nhà Nghỉ LÊ AN,Nhà nghỉ trượt tuyết,0918 137 777,"Nhà Nghỉ LÊ AN, Số 42 Đường B15, KDC Hưng Phú 1, Cái Răng, Cần Thơ","KDC Hưng Phú 1, Cái Răng",Số 42 Đường B15,Cần Thơ,,"Cái Răng, Cần Thơ",VN,"10.0247748,105.7562876"
316,ChIJnbDu2fNjoDERMiP6LTV7J4A,Công ty TNHH DV DL Kim Thủy Ngân Hà,Khách sạn,0292 2233 579,"Công ty TNHH DV DL Kim Thủy Ngân Hà, 39-41 Đ. Ngô Quyền, Tân An, Ninh Kiều, Cần Thơ 900000","Tân An, Ninh Kiều",39-41 Đ. Ngô Quyền,Cần Thơ,900000.0,"Ninh Kiều, Cần Thơ",VN,"10.0339502,105.7874209"
317,ChIJb7kcgaNjoDER5nynbMkLDOk,Hotel Minh Minh Nam 2,Khách sạn,0788 952 789,"Hotel Minh Minh Nam 2, 46 Đ. Nguyễn Văn Quang, KDC Nam Long, Cái Răng, Cần Thơ 94909","KDC Nam Long, Cái Răng",46 Đ. Nguyễn Văn Quang,Cần Thơ,94909.0,"Cái Răng, Cần Thơ",VN,"10.0083451,105.7883846"
320,ChIJ9eBA2EaIoDERXsjwJpvupBo,Nhà Nghỉ Ngọc Phấn,Nhà nghỉ trượt tuyết,0292 6281 332,"Nhà Nghỉ Ngọc Phấn, 326 Đ. Nguyễn Văn Linh, Phường An Khánh, Ninh Kiều, Cần Thơ 94117","Phường An Khánh, Ninh Kiều",326 Đ. Nguyễn Văn Linh,Cần Thơ,94117.0,"Ninh Kiều, Cần Thơ",VN,"10.027544599999999,105.7556601"
321,ChIJ_1RMk4yJoDER3wA0AHQ648w,Nhà Nghỉ Thanh Thế,Khách sạn,0292 3738 124,"Nhà Nghỉ Thanh Thế, 30 Đ. 3 Tháng 2, Hưng Lợi, Ninh Kiều, Cần Thơ","Hưng Lợi, Ninh Kiều",30 Đ. 3 Tháng 2,Cần Thơ,,"Ninh Kiều, Cần Thơ",VN,"10.0133877,105.7565084"
322,ChIJsyqVqY6JoDERzIzR-5hcM0c,Mạnh Phát motel,Khách sạn,0931 007 668,"Mạnh Phát motel, 120B Đ. Mậu Thân, An Hoà, Ninh Kiều, Cần Thơ","An Hoà, Ninh Kiều",120B Đ. Mậu Thân,Cần Thơ,,"Ninh Kiều, Cần Thơ",VN,"10.0459781,105.7632545"
323,ChIJIRr8LxKIoDERZb-uj2gbbyM,Nhà Nghỉ Ngọc Thúy,Nhà nghỉ trượt tuyết,0985 626 686,"Nhà Nghỉ Ngọc Thúy, 137 Đ. Nguyễn Văn Cừ, Phường An Khánh, Ninh Kiều, Cần Thơ","Phường An Khánh, Ninh Kiều",137 Đ. Nguyễn Văn Cừ,Cần Thơ,,"Ninh Kiều, Cần Thơ",VN,"10.0423461,105.763691"
325,ChIJqdzsZs-JoDERe35T0ehljhw,Nhà Nghỉ Thiên Thanh,Khách sạn,0292 6509 298,"Nhà Nghỉ Thiên Thanh, 195 Đ. Nguyễn Văn Cừ, An Bình, Ninh Kiều, Cần Thơ","An Bình, Ninh Kiều",195 Đ. Nguyễn Văn Cừ,Cần Thơ,,"Ninh Kiều, Cần Thơ",VN,"10.024406599999999,105.7460021"
326,ChIJv-R-6kSIoDERT3eqrIeiezw,Nhà Nghỉ Ngọc Thuý,Khách sạn,0774 323 153,"Nhà Nghỉ Ngọc Thuý, 137A, Nguyễn Văn Cừ Nối Dài, Phường An Khánh, Quận Ninh Kiều, Thành Phố Cần Thơ, 28 Nguyễn Văn Cừ Nối Dài, An Bình, Ninh Kiều, Cần Thơ","An Bình, Ninh Kiều","137A, Nguyễn Văn Cừ Nối Dài, Phường An Khánh, Quận Ninh Kiều, Thành Phố Cần Thơ, 28 Nguyễn Văn Cừ Nối Dài",Cần Thơ,,"Ninh Kiều, Cần Thơ",VN,"10.0269792,105.748587"
331,ChIJJ7OIWTGIoDERdgwnyzZUPv4,Nhà Nghỉ Mỹ Tiên,Nhà nghỉ trượt tuyết,0292 3783 480,"Nhà Nghỉ Mỹ Tiên, 190 Đ. 30 Tháng 4, Hưng Lợi, Ninh Kiều, Cần Thơ","Hưng Lợi, Ninh Kiều",190 Đ. 30 Tháng 4,Cần Thơ,,"Ninh Kiều, Cần Thơ",VN,"10.0174068,105.7655475"
334,ChIJtfIQwnyJoDERQtz7CvWrR-E,Hostel Garnet,Phòng cho thuê,0917 919 622,"Hostel Garnet, Số 2A3, Hẻm 3T2, Đ. 30 Tháng 4, Xuân Khánh, Ninh Kiều, Cần Thơ","Xuân Khánh, Ninh Kiều","Số 2A3, Hẻm 3T2, Đ. 30 Tháng 4",Cần Thơ,,"Ninh Kiều, Cần Thơ",VN,"10.026759,105.77573269999999"
335,ChIJOdyRdJ9ioDERj0aZa5-dRi4,Hotel Adam & Eva,Khách sạn,0292 2226 852,"Hotel Adam & Eva, Nguyễn An Ninh 94, Cần Thơ","Tân An, Ninh Kiều",Nguyễn An Ninh 94,Cần Thơ,,"Ninh Kiều, Cần Thơ",VN,"10.0313599,105.78528019999999"
336,ChIJp7fKp0CHoDERIc-B3gQIh2A,NHÀ NGHỈ PHI LONG 1,Khách sạn,,"NHÀ NGHỈ PHI LONG 1, 43 Đ. Cách Mạng Tháng 8, An Thới, Bình Thủy, Cần Thơ","An Thới, Bình Thủy",43 Đ. Cách Mạng Tháng 8,Cần Thơ,,"Bình Thủy, Cần Thơ",VN,"10.0594418,105.76387969999999"
337,ChIJAVpf9uuJoDERmEUU60ShAu0,Gikgo Hostel Can Tho,Giường & bữa sáng,0939 590 288,"Gikgo Hostel Can Tho, 3 Hùng Vương, An Hội, Ninh Kiều, Cần Thơ","An Hội, Ninh Kiều",3 Hùng Vương,Cần Thơ,,"Ninh Kiều, Cần Thơ",VN,"10.0431878,105.7790661"
339,ChIJzXExNRuJoDERcai4j8UNQKk,nhà nghỉ ngọc gia trang,Khách sạn,0938 301 301,"XPX7+7R9 nhà nghỉ ngọc gia trang, Mỹ Khánh, Phong Điền, Cần Thơ","Mỹ Khánh, Phong Điền",XPX7+7R9,Cần Thơ,,"Phong Điền, Cần Thơ",VN,"9.99817,105.7146097"
341,ChIJZXb43ziHoDERWU5eS8ZHlCQ,Nhà Nghỉ Tuyết Linh,Khách sạn lưu trú dài hạn,0354 465 274,"Nhà Nghỉ Tuyết Linh, 24 Trần Văn Nghiêm, An Thới, Bình Thủy, Cần Thơ 00000","An Thới, Bình Thủy",24 Trần Văn Nghiêm,Cần Thơ,0.0,"Bình Thủy, Cần Thơ",VN,"10.0574715,105.7661679"
342,ChIJBVtBv_NjoDERWbg-VXwfYxE,LION 10 HOTEL,Khách sạn,0292 3779 955,"LION 10 HOTEL, 11 Đ. Phạm Ngọc Thạch, Cái Khế, Ninh Kiều, Cần Thơ 900000","Cái Khế, Ninh Kiều",11 Đ. Phạm Ngọc Thạch,Cần Thơ,900000.0,"Ninh Kiều, Cần Thơ",VN,"10.0447778,105.7855132"
345,ChIJgZIWGq-JoDERuWKe3xGSfxY,Six homestay,Khách sạn,0786 189 666,"Six homestay, 108/16 Đ. 30 Tháng 4, An Phú, Ninh Kiều, Cần Thơ","An Phú, Ninh Kiều",108/16 Đ. 30 Tháng 4,Cần Thơ,,"Ninh Kiều, Cần Thơ",VN,"10.0295352,105.7791171"
348,ChIJXdp6IVGIoDERxQO8IUKWgV8,Nhà Nghỉ Loan Anh,Nhà nghỉ trượt tuyết,,"Nhà Nghỉ Loan Anh, 28 Nguyễn Văn Cừ Nối Dài, An Bình, Ninh Kiều, Cần Thơ","An Bình, Ninh Kiều",28 Nguyễn Văn Cừ Nối Dài,Cần Thơ,,"Ninh Kiều, Cần Thơ",VN,"10.019492,105.7424889"
355,ChIJWbjiOT-JoDERCA42_ckMHyg,Khách sạn Lê My,Khách sạn,,"Khách sạn Lê My, 66/11 Đ. Cách Mạng Tháng 8, Cái Khế, Bình Thủy, Cần Thơ 94200","Cái Khế, Bình Thủy",66/11 Đ. Cách Mạng Tháng 8,Cần Thơ,94200.0,"Bình Thủy, Cần Thơ",VN,"10.048452099999999,105.77875669999999"
358,ChIJed4Ri_1joDERcwnBpd6D4UQ,HOTEL BỒ CÂU,Khách sạn,0907 072 386,"HOTEL BỒ CÂU, 106c Trần Văn Khéo, Cái Khế, Ninh Kiều, Cần Thơ","Cái Khế, Ninh Kiều",106c Trần Văn Khéo,Cần Thơ,,"Ninh Kiều, Cần Thơ",VN,"10.0452094,105.78730709999999"
359,ChIJE0ijq8qJoDERkbLlZ0ZaWOU,Nhà Nghỉ Đăng Khoa,Khách sạn,0947 398 188,"2QP5+25P Nhà Nghỉ Đăng Khoa, Phường An Khánh, Ninh Kiều, Cần Thơ","Phường An Khánh, Ninh Kiều",2QP5+25P,Cần Thơ,,"Ninh Kiều, Cần Thơ",VN,"10.0350777,105.7579615"
361,ChIJ_WyYD8WJoDERHBJWqYJLXN4,Nhà nghỉ Diệu Hiền,Nhà nghỉ trượt tuyết,,"2PFX+CXG Nhà nghỉ Diệu Hiền, Đường Số 9, Phường An Khánh, Ninh Kiều, Cần Thơ","Phường An Khánh, Ninh Kiều","2PFX+CXG, Đường Số 9",Cần Thơ,,"Ninh Kiều, Cần Thơ",VN,"10.0235726,105.74995279999999"
362,ChIJh8xXlESIoDER60jEwsSOiHI,Nhà Nghỉ Phương Tâm 3,Khách sạn,0292 3753 333,"Nhà Nghỉ Phương Tâm 3, 15 Nguyễn Văn Cừ Nối Dài, An Bình, Ninh Kiều, Cần Thơ","An Bình, Ninh Kiều",15 Nguyễn Văn Cừ Nối Dài,Cần Thơ,,"Ninh Kiều, Cần Thơ",VN,"10.0276372,105.7485391"
367,ChIJi881ScqJoDERjnfNpTwV5M0,Nhà Nghỉ Ngoc Mỹ,Khách sạn,0907 785 584,"Nhà Nghỉ Ngoc Mỹ, Đường Tầm Vu, Hưng Lợi, Ninh Kiều, Cần Thơ","Hưng Lợi, Ninh Kiều",Đường Tầm Vu,Cần Thơ,,"Ninh Kiều, Cần Thơ",VN,"10.007928099999999,105.76251529999999"
368,ChIJRZRzWjGIoDERrs-nZQO37CU,Nhà Nghỉ Minh Sơn,Khách sạn,0292 3781 779,"Nhà Nghỉ Minh Sơn, 190/1H, Đường 30/4, Phường Hưng Lợi, Quận Ninh Kiều, Thành Phố Cần Thơ, Hưng Lợi, Ninh Kiều, Cần Thơ","Hưng Lợi, Ninh Kiều","190/1H, Đường 30/4, Phường Hưng Lợi, Quận Ninh Kiều, Thành Phố Cần Thơ",Cần Thơ,,"Ninh Kiều, Cần Thơ",VN,"10.017612,105.765221"
373,ChIJJ0xApQKIoDERiqFMM6SSpYY,Nhà Nghỉ Thiên Ngọc,Khách sạn,0292 3768 881,"Nhà Nghỉ Thiên Ngọc, 15 Trần Quang Khải, An Hội, Ninh Kiều, Cần Thơ","An Hội, Ninh Kiều",15 Trần Quang Khải,Cần Thơ,,"Ninh Kiều, Cần Thơ",VN,"10.0447116,105.7818264"
378,ChIJ5UF4OFGIoDERqGa8UOp13mg,Nhà Nghỉ Phú Thuận,Nhà nghỉ trượt tuyết,0909 151 799,"Nhà Nghỉ Phú Thuận, Cầu Cái Sơn, Hàng Bàng, An Bình, Ninh Kiều, Cần Thơ","An Bình, Ninh Kiều","Cầu Cái Sơn, Hàng Bàng",Cần Thơ,,"Ninh Kiều, Cần Thơ",VN,"10.0197225,105.7419322"
380,ChIJbysI-02JoDERSxES4ZV7D84,Nhà nghỉ Quốc Mỹ,Khách sạn,0292 2477 577,"Nhà nghỉ Quốc Mỹ, 180/3G Đ. 30 Tháng 4, Hưng Lợi, Ninh Kiều, Cần Thơ","Hưng Lợi, Ninh Kiều",180/3G Đ. 30 Tháng 4,Cần Thơ,,"Ninh Kiều, Cần Thơ",VN,"10.0176417,105.76550329999999"
382,ChIJxR6iSLpjoDERceoTA-sVMpI,An Nam,Khách sạn,,"An Nam, 80 Lê Lợi, Cái Khế, Ninh Kiều, Cần Thơ","Cái Khế, Ninh Kiều",80 Lê Lợi,Cần Thơ,,"Ninh Kiều, Cần Thơ",VN,"10.0471645,105.7882925"
383,ChIJU4SYPMmJoDER50xmlBe9NLI,Thiên Ân Hotel Homestay & Apartment,Khách sạn,,"Thiên Ân Hotel Homestay & Apartment, 15-17 Đ. Lê Lai, An Phú, Ninh Kiều, Cần Thơ","An Phú, Ninh Kiều",15-17 Đ. Lê Lai,Cần Thơ,,"Ninh Kiều, Cần Thơ",VN,"10.032609599999999,105.7794088"
386,ChIJDX4meFCIoDERPMpzpSAzJk8,Nhà Nghỉ Minh Hoàng,Khách sạn,0909 949 494,"Nhà Nghỉ Minh Hoàng, 86 Nguyễn Văn Cừ Nối Dài, An Bình, Ninh Kiều, Cần Thơ","An Bình, Ninh Kiều",86 Nguyễn Văn Cừ Nối Dài,Cần Thơ,,"Ninh Kiều, Cần Thơ",VN,"10.0234714,105.7446313"
387,ChIJo8gxWkGIoDERmo15kKCZ6GM,Nhà Nghỉ,Khách sạn,0783 362 791,"Nhà Nghỉ, 305/9 Đ. Nguyễn Văn Linh, Phường An Khánh, Ninh Kiều, Cần Thơ","Phường An Khánh, Ninh Kiều",305/9 Đ. Nguyễn Văn Linh,Cần Thơ,,"Ninh Kiều, Cần Thơ",VN,"10.0296995,105.7528258"
388,ChIJ_Xy-f4CJoDERzfP1WO8x5oc,Nhà nghỉ Phúc Long,Nhà nghỉ trượt tuyết,,"Nhà nghỉ Phúc Long, Số 35 Đ. B19, Khu dân cư 91B, Ninh Kiều, Cần Thơ","Khu dân cư 91B, Ninh Kiều",Số 35 Đ. B19,Cần Thơ,,"Ninh Kiều, Cần Thơ",VN,"10.025364999999999,105.756228"
389,ChIJ_____zuJoDERzSrgj_vT8i8,Nhà Nghỉ,Khách sạn,0707 447 902,"Nhà Nghỉ, Lô 48C, Khu Tái Định Cư, Xã Mỹ Khánh, Huyện Phong Điền, Thành Phố Cần Thơ, Mỹ Khánh, Phong Điền, Cần Thơ","Mỹ Khánh, Phong Điền","Lô 48C, Khu Tái Định Cư, Xã Mỹ Khánh, Huyện Phong Điền, Thành Phố Cần Thơ",Cần Thơ,,"Phong Điền, Cần Thơ",VN,"9.9983647,105.7057792"
392,ChIJw266VEuIoDER6vLDRXH9JMA,Tu Chung Guest House,Khách sạn,0292 3847 820,"Tu Chung Guest House, 141B/4, Highway 1A, An Binh Ward, Ninh Kieu District, Can Tho City, Hưng Lợi, Ninh Kiều, Cần Thơ","Hưng Lợi, Ninh Kiều","141B/4, Highway 1A, An Binh Ward, Ninh Kieu District, Can Tho City",Cần Thơ,,"Ninh Kiều, Cần Thơ",VN,"10.012390199999999,105.75302769999999"
394,ChIJt74XBb6JoDERgdo0HXvpw-M,Nhà Nghỉ Phú Mỹ,Khách sạn,0917 380 002,"Nhà Nghỉ Phú Mỹ, 19A Ngô Sĩ Liên, Hưng Lợi, Ninh Kiều, Cần Thơ","Hưng Lợi, Ninh Kiều",19A Ngô Sĩ Liên,Cần Thơ,,"Ninh Kiều, Cần Thơ",VN,"10.022546,105.761625"
397,ChIJF3YDRiSIoDERQkj_mK_AbPQ,Nhà Nghỉ 86,Nhà nghỉ trượt tuyết,0292 3532 233,"Nhà Nghỉ 86, 17 Đ. Trần Khánh Dư, Xuân Khánh, Ninh Kiều, Cần Thơ","Xuân Khánh, Ninh Kiều",17 Đ. Trần Khánh Dư,Cần Thơ,,"Ninh Kiều, Cần Thơ",VN,"10.025580399999999,105.7744146"
399,ChIJ7z9nNyCIoDERKWdhX-xd6ac,Nhà Nghỉ 26,Khách sạn,,"2QJJ+H2W Nhà Nghỉ 26, Đ. Nguyễn Việt Hồng, An Lạc, Ninh Kiều, Cần Thơ","An Lạc, Ninh Kiều","2QJJ+H2W, Đ. Nguyễn Việt Hồng",Cần Thơ,,"Ninh Kiều, Cần Thơ",VN,"10.031483399999999,105.78008729999999"
400,ChIJB192ORGJoDER1VClHxrknwQ,Nhà Nghỉ Happy House,Khách sạn,0775 902 957,"Nhà Nghỉ Happy House, 27 Đ. Trần Hưng Đạo, An Cư, Ninh Kiều, Cần Thơ","An Cư, Ninh Kiều",27 Đ. Trần Hưng Đạo,Cần Thơ,,"Ninh Kiều, Cần Thơ",VN,"10.0398862,105.77728979999999"
402,ChIJw8d3ew-IoDERL2KydaYn2yY,Nguyen Hung Cuong Motel,Khách sạn,,"Nguyen Hung Cuong Motel, 233/69/2, Nguyen Van Cu Street, An Hoa Ward, Ninh Kieu District, An Hoà, Ninh Kiều, Cần Thơ","An Hoà, Ninh Kiều","233/69/2, Nguyen Van Cu Street, An Hoa Ward, Ninh Kieu District",Cần Thơ,,"Ninh Kiều, Cần Thơ",VN,"10.0470249,105.77000869999999"
403,ChIJvfnuyymJoDERXmLfbKxLV38,Nhà nghỉ Bum 3,Nhà nghỉ trượt tuyết,0583 812 567,"Nhà nghỉ Bum 3, 137C Đ. Nguyễn Văn Cừ, Phường An Khánh, Ninh Kiều, Cần Thơ","Phường An Khánh, Ninh Kiều",137C Đ. Nguyễn Văn Cừ,Cần Thơ,,"Ninh Kiều, Cần Thơ",VN,"10.042380699999999,105.7637152"
405,ChIJx5b-TqqJoDER9TEYY5wjPN4,Nhà nghỉ Coban 2,Khách sạn,0948 868 353,"Nhà nghỉ Coban 2, KDC ĐẠI NGÂN, Hẻm Liên Tổ 1 - 2, Phường An Khánh, Ninh Kiều, Cần Thơ","Phường An Khánh, Ninh Kiều","KDC ĐẠI NGÂN, Hẻm Liên Tổ 1 - 2",Cần Thơ,,"Ninh Kiều, Cần Thơ",VN,"10.039174299999999,105.7619307"
406,ChIJh26JIvKJoDERD5xkSJsLDA8,Nhà Nghỉ An Bình,Khách sạn,0292 3690 123,"Nhà Nghỉ An Bình, 43-44 khu TĐC, An Bình, Ninh Kiều, Cần Thơ 90000","An Bình, Ninh Kiều",43-44 khu TĐC,Cần Thơ,90000.0,"Ninh Kiều, Cần Thơ",VN,"10.0221726,105.7506834"
407,ChIJ-RikzZWJoDERADxEr1XRy_8,Nhà Nghỉ Hồng Loan (Motel),Khách sạn,,"2P8M+8PP Nhà Nghỉ Hồng Loan (Motel), Nguyễn Văn Cừ Nối Dài, An Bình, Ninh Kiều, Cần Thơ","An Bình, Ninh Kiều","2P8M+8PP, Nguyễn Văn Cừ Nối Dài",Cần Thơ,,"Ninh Kiều, Cần Thơ",VN,"10.0157423,105.7339853"
408,ChIJ0-v96ROJoDERu1UWjhF3ueE,Nhà Nghỉ Thành Đạt,Khách sạn,0292 6288 869,"XPW9+MJ2 Nhà Nghỉ Thành Đạt, Lộ Vòng Cung, Mỹ Khánh, Phong Điền, Cần Thơ","Mỹ Khánh, Phong Điền","XPW9+MJ2, Lộ Vòng Cung",Cần Thơ,,"Phong Điền, Cần Thơ",VN,"9.9966297,105.71901659999999"
411,ChIJewb507GJoDERK22j7quzbBA,Nhà Nghỉ Thúy Lan,Khách sạn,,"Nhà Nghỉ Thúy Lan, 62/6A Võ Tánh, Lê Bình, Cái Răng, Cần Thơ","Lê Bình, Cái Răng",62/6A Võ Tánh,Cần Thơ,,"Cái Răng, Cần Thơ",VN,"10.00253,105.74546509999999"
412,ChIJ2chgm2aJoDERUFeUWUk2ux0,Nhà Nghỉ 47 Phạm Hùng,Khách sạn,0292 2470 928,"Nhà Nghỉ 47 Phạm Hùng, 47 Đường Phạm Hùng, P, Khu Vực 1, Cái Răng, Cần Thơ","Khu Vực 1, Cái Răng","47 Đường Phạm Hùng, P",Cần Thơ,,"Cái Răng, Cần Thơ",VN,"9.9860353,105.74722949999999"
424,ChIJ-wm53gCHoDERQ8JSO38nwOo,Nhà nghỉ Như Oanh,Khách sạn,0916 473 144,"Nhà nghỉ Như Oanh, 39/50 Đ. Cách Mạng Tháng 8, Tân An, Ninh Kiều, Cần Thơ 94000","Tân An, Ninh Kiều",39/50 Đ. Cách Mạng Tháng 8,Cần Thơ,94000.0,"Ninh Kiều, Cần Thơ",VN,"10.0589303,105.7635488"
425,ChIJPW-oxkdjoDER_sr7QtE6VME,Nhà nghỉ Ngọc Thúy 3,Khách sạn,0292 3648 868,"Nhà nghỉ Ngọc Thúy 3, 86 Đ. Nguyễn Đức Cảnh, An Hội, Ninh Kiều, Cần Thơ","An Hội, Ninh Kiều",86 Đ. Nguyễn Đức Cảnh,Cần Thơ,,"Ninh Kiều, Cần Thơ",VN,"10.0448425,105.78342909999999"
427,ChIJMcNx1KlioDER_OUlrWtbyJ4,Nhà Trọ Máy Lạnh Thảo Trang,Khách sạn,0292 3763 088,"Nhà Trọ Máy Lạnh Thảo Trang, 8 Đường A2, Thới Bình, Ninh Kiều, Cần Thơ","Thới Bình, Ninh Kiều",8 Đường A2,Cần Thơ,,"Ninh Kiều, Cần Thơ",VN,"10.0463756,105.7823914"
428,ChIJp9lYSypjoDERDkvYHND0Lsk,Bangbang Motel,Trạm nghỉ,,"Bangbang Motel, 88/1 Đ. Xô Viết Nghệ Tĩnh, An Hội, Ninh Kiều, Cần Thơ","An Hội, Ninh Kiều",88/1 Đ. Xô Viết Nghệ Tĩnh,Cần Thơ,,"Ninh Kiều, Cần Thơ",VN,"10.038391899999999,105.78384369999999"
431,ChIJg8sYGASIoDERQiEq6oYWcXE,Nhà Nghỉ Kim Ngọc,Nhà nghỉ trượt tuyết,0292 3767 696,"Nhà Nghỉ Kim Ngọc, 62/1C Đ. Trần Việt Châu, Thới Bình, Ninh Kiều, Cần Thơ","Thới Bình, Ninh Kiều",62/1C Đ. Trần Việt Châu,Cần Thơ,,"Ninh Kiều, Cần Thơ",VN,"10.0485712,105.7748153"
437,ChIJ5cDHWCGIoDERe0IxY5C0Ie0,Nhà Nghỉ Sáu Khải,Khách sạn,0337 586 543,"Nhà Nghỉ Sáu Khải, 2/2, Đường Mậu Thân/2 Hẻm 2 Đ. Mậu Thân, Xuân Khánh, Ninh Kiều, Cần Thơ","Xuân Khánh, Ninh Kiều","2/2, Đường Mậu Thân/2 Hẻm 2 Đ. Mậu Thân",Cần Thơ,,"Ninh Kiều, Cần Thơ",VN,"10.038148699999999,105.7706554"
439,ChIJAaAuEw-JoDERduN39GuRhTY,Nhà Nghỉ Thanh Nga,Khách sạn,0292 3916 393,"Nhà Nghỉ Thanh Nga, 40/1 Đường 3-2, An Binh, Ninh Kiều, Cần Thơ","An Binh, Ninh Kiều",40/1 Đường 3-2,Cần Thơ,,"Ninh Kiều, Cần Thơ",VN,"10.0084363,105.74997189999999"
442,ChIJ5Qp1pLOJoDERiTvQJsMlfdg,Nhà Nghỉ Tài Linh,Khách sạn,0292 3910 642,"Nhà Nghỉ Tài Linh, 46, Quốc Lộ 1A, Quận Cái Răng, An Bình, Ninh Kiều, Cần Thơ","An Bình, Ninh Kiều","46, Quốc Lộ 1A, Quận Cái Răng",Cần Thơ,,"Ninh Kiều, Cần Thơ",VN,"10.0092879,105.7508549"
443,ChIJs1txu7eJoDERy_UYZkTmHdU,Nhà Nghỉ Tài Lộc,Khách sạn,0292 2213 878,"Nhà Nghỉ Tài Lộc, 54, Đường Hậu Thạnh Mỹ, Quận Cái Răng","Lê Bình, Cái Răng","54, Đường Hậu Thạnh Mỹ, Quận Cái Răng",Cần Thơ,,"Cái Răng, Cần Thơ",VN,"10.0030533,105.7559948"
445,ChIJOZJaYBOLoDERAwv-u1RTSy0,Nhà nghỉ Anh Tuấn,Nhà trọ,,"XM8W+4P4 Nhà nghỉ Anh Tuấn, QL61C, Nhơn Nghĩa, Phong Điền, Cần Thơ","Nhơn Nghĩa, Phong Điền","XM8W+4P4, QL61C",Cần Thơ,,"Phong Điền, Cần Thơ",VN,"9.965240099999999,105.69678619999999"
450,ChIJZ6lPNzaIoDER_mcOyXH4flY,Nhà Nghỉ Gia Vũ,Nhà nghỉ trượt tuyết,,"Nhà Nghỉ Gia Vũ, 61 KDC Metro., Hưng Lợi, Ninh Kiều, Cần Thơ","Hưng Lợi, Ninh Kiều",61 KDC Metro.,Cần Thơ,,"Ninh Kiều, Cần Thơ",VN,"10.0195233,105.75972709999999"
451,ChIJqwGBg0eIoDER-oCBVeornHY,Nhà Nghỉ - Cầm Đồ Lộc Hưng,Khách sạn,0933 331 162,"Nhà Nghỉ - Cầm Đồ Lộc Hưng, 240, Đường A1, Khu Dân Cư 91B, Phường An Khánh, Quận Ninh Kiều, Hưng Lợi, Ninh Kiều, Cần Thơ","Hưng Lợi, Ninh Kiều","240, Đường A1, Khu Dân Cư 91B, Phường An Khánh, Quận Ninh Kiều",Cần Thơ,,"Ninh Kiều, Cần Thơ",VN,"10.025292799999999,105.75808289999999"
456,ChIJWTOMxxiIoDERP9vW_yyQN80,Doanh Nghiệp Tư Nhân Khách Sạn Nam Anh,Khách sạn,0923 732 092,"Doanh Nghiệp Tư Nhân Khách Sạn Nam Anh, 133H Đ. Trần Hưng Đạo, An Phú, Ninh Kiều, Cần Thơ","An Phú, Ninh Kiều",133H Đ. Trần Hưng Đạo,Cần Thơ,,"Ninh Kiều, Cần Thơ",VN,"10.0342968,105.77534329999999"
458,ChIJ54f4APyHoDERDAzuJ56I1Js,Nhà Nghỉ 131,Khách sạn,,"Nhà Nghỉ 131, Cái Khế, Ninh Kiều, Cần Thơ","Cái Khế, Ninh Kiều",,Cần Thơ,,"Ninh Kiều, Cần Thơ",VN,"10.0598727,105.77601179999999"
459,ChIJ5aAZoBpjoDERNCFCpBR3ODI,Nhà Nghỉ 131,Phòng cho thuê,0862 614 496,"Nhà Nghỉ 131, 131 Đường12A, KDC Vạn Phát, Cồn Khương, Ninh Kiều, Cần Thơ","Cồn Khương, Ninh Kiều","131 Đường12A, KDC Vạn Phát",Cần Thơ,,"Ninh Kiều, Cần Thơ",VN,"10.0622268,105.7829726"
460,ChIJe9ARdT5joDERzV_BDTHeEYs,"Nhà nghỉ Phượng Nguyên 2 (77/37 Trần Phú, Cái Khế. Ninh Kiều, TP.Cần Thơ)",Khách sạn,0292 3651 188,"Nhà nghỉ Phượng Nguyên 2 (77/37 Trần Phú, Cái Khế. Ninh Kiều, TP.Cần Thơ), Trần Phú, Cái Khế, Ninh Kiều, Cần Thơ","Cái Khế, Ninh Kiều",Trần Phú,Cần Thơ,,"Ninh Kiều, Cần Thơ",VN,"10.0490852,105.78500269999999"
461,ChIJd4hp3CKJoDERTyS2MZ0WGmE,Nhà nghỉ KIM GIA,Khách sạn,0907 974 444,"Nhà nghỉ KIM GIA, 117/12 Hẻm 38, An Hoà, Ninh Kiều, Cần Thơ","An Hoà, Ninh Kiều",117/12 Hẻm 38,Cần Thơ,,"Ninh Kiều, Cần Thơ",VN,"10.0488961,105.7734418"
462,ChIJ3Xr36RyIoDERtcdFThgvZRQ,Khách Sạn Thiên Hương,,,"Khách Sạn Thiên Hương, 102 Hùng Vương, An Cư, Ninh Kiều, Cần Thơ","An Cư, Ninh Kiều",102 Hùng Vương,Cần Thơ,,"Ninh Kiều, Cần Thơ",VN,"10.0422502,105.77804619999999"
463,ChIJSRZYe_xjoDERziC44lDMAqQ,Nhà nghỉ Yến Quý,Khách sạn,0794 314 945,"Nhà nghỉ Yến Quý, 64 Đ. Trần Đại Nghĩa, Cái Khế, Ninh Kiều, Cần Thơ","Cái Khế, Ninh Kiều",64 Đ. Trần Đại Nghĩa,Cần Thơ,,"Ninh Kiều, Cần Thơ",VN,"10.0439753,105.7865142"
465,ChIJFf10rAKIoDER3hyDR_pi18c,Nhà Nghỉ Quốc Nam,Khách sạn,0292 3810 885,"Nhà Nghỉ Quốc Nam, 12 Nguyễn Trãi, An Hội, Ninh Kiều, Cần Thơ","An Hội, Ninh Kiều",12 Nguyễn Trãi,Cần Thơ,,"Ninh Kiều, Cần Thơ",VN,"10.043516499999999,105.7820668"
466,ChIJ85oWxgKIoDERoSk8gECY_8Y,Nhà Nghỉ Thanh Thúy,Nhà nghỉ trượt tuyết,0292 3769 478,"Nhà Nghỉ Thanh Thúy, 7 Đ. Phan Đăng Lưu, An Hội, Ninh Kiều, Cần Thơ","An Hội, Ninh Kiều",7 Đ. Phan Đăng Lưu,Cần Thơ,,"Ninh Kiều, Cần Thơ",VN,"10.044213599999999,105.7802529"
467,ChIJbahAWseJoDER-9DkzlYVf7c,Nhà nghỉ Phúc Minh,Khách sạn,0949 954 340,"Nhà nghỉ Phúc Minh, 100 Nguyễn Cư Trinh, An Nghiệp, Ninh Kiều, Cần Thơ","An Nghiệp, Ninh Kiều",100 Nguyễn Cư Trinh,Cần Thơ,,"Ninh Kiều, Cần Thơ",VN,"10.0386875,105.7723125"
478,ChIJ9dPhaB2IoDERmlcsh3TbRPk,Tat Huu Dung Motel,Khách sạn,0911 071 197,"Tat Huu Dung Motel, 2/50, Dinh Tien Hoang Street, Thoi Binh Ward, Ninh Kieu District, An Hội, Ninh Kiều, Cần Thơ","An Hội, Ninh Kiều","2/50, Dinh Tien Hoang Street, Thoi Binh Ward, Ninh Kieu District",Cần Thơ,,"Ninh Kiều, Cần Thơ",VN,"10.0419015,105.78115179999999"
488,ChIJ1SgdsTiJoDERY0bRgBgCCdc,Nhà Nghỉ Phượng Nguyên,Khách sạn,,"Nhà Nghỉ Phượng Nguyên, 307 Đ. Nguyễn Đệ, An Hoà, Ninh Kiều, Cần Thơ","An Hoà, Ninh Kiều",307 Đ. Nguyễn Đệ,Cần Thơ,,"Ninh Kiều, Cần Thơ",VN,"10.0484454,105.7640814"
491,ChIJrypE2mqIoDERLlyMJWwbKNg,Nhà Nghỉ Mai Đình,Khách sạn,0949 655 889,"2QP5+G55 Nhà Nghỉ Mai Đình, Nguyễn Văn Cừ Nối Dài, Phường An Khánh, Ninh Kiều, Cần Thơ","Phường An Khánh, Ninh Kiều","2QP5+G55, Nguyễn Văn Cừ Nối Dài",Cần Thơ,,"Ninh Kiều, Cần Thơ",VN,"10.036263199999999,105.7579817"
492,ChIJ2ba0cniJoDERyLaoN0X1xDY,Nhà Nghỉ Khải Dương,Khách sạn,,"Nhà Nghỉ Khải Dương, 14 Đ. Nguyễn Văn Cừ, Phường An Khánh, Ninh Kiều, Cần Thơ","Phường An Khánh, Ninh Kiều",14 Đ. Nguyễn Văn Cừ,Cần Thơ,,"Ninh Kiều, Cần Thơ",VN,"10.0321759,105.7539829"
494,ChIJmwUZew2JoDERTecOvNInU4o,nhà nghỉ hữu phước,Nhà nghỉ trượt tuyết,0786 868 090,"nhà nghỉ hữu phước, 02-A4, hẻm, 234 Đ. Hoàng Quốc Việt, An Bình, Ninh Kiều, Cần Thơ","An Bình, Ninh Kiều","02-A4, hẻm, 234 Đ. Hoàng Quốc Việt",Cần Thơ,,"Ninh Kiều, Cần Thơ",VN,"10.018864899999999,105.74286"
495,ChIJL4RgZKCJoDERHK2nwpeh7NE,Nhà Nghỉ Trọ Duy Thái,Nhà nghỉ trượt tuyết,,"Nhà Nghỉ Trọ Duy Thái, 161A, Nguyễn Văn Cừ Nối Dài, Phường An Khánh, Quận Ninh Kiều, Thành Phố Cần Thơ, An Bình, Ninh Kiều, Cần Thơ","An Bình, Ninh Kiều","161A, Nguyễn Văn Cừ Nối Dài, Phường An Khánh, Quận Ninh Kiều, Thành Phố Cần Thơ",Cần Thơ,,"Ninh Kiều, Cần Thơ",VN,"10.027327,105.74824"
497,ChIJtfTObkiIoDER0T32eocnP7E,Nhà Nghỉ Lê An,Nhà nghỉ trượt tuyết,,"Nhà Nghỉ Lê An, 2 Đường B7, Hưng Phú, Cái Răng, Cần Thơ","Hưng Phú, Cái Răng",2 Đường B7,Cần Thơ,,"Cái Răng, Cần Thơ",VN,"10.0220308,105.7566188"
498,ChIJgXvmVzGIoDERwNb9YhZeHe4,Nhà Nghỉ Bình Minh,Nhà nghỉ trượt tuyết,0292 3738 190,"Nhà Nghỉ Bình Minh, 180/7, Đường 30/4, Quận Ninh Kiều, Tp Cần Thơ, Hưng Lợi, Ninh Kiều, Cần Thơ","Hưng Lợi, Ninh Kiều","180/7, Đường 30/4, Quận Ninh Kiều, Tp Cần Thơ",Cần Thơ,,"Ninh Kiều, Cần Thơ",VN,"10.0172359,105.765159"
499,ChIJx_ZL_DSIoDERR6Flsx2-Vqg,Tran Thi Dinh Motel,Khách sạn,0777 553 734,"Tran Thi Dinh Motel, 110A, 30 Thang 4 Street, Hung Loi Ward, Ninh Kieu District, Đ. 30 Tháng 4, Hưng Lợi, Ninh Kiều, Cần Thơ","Hưng Lợi, Ninh Kiều","110A, 30 Thang 4 Street, Hung Loi Ward, Ninh Kieu District, Đ. 30 Tháng 4",Cần Thơ,,"Ninh Kiều, Cần Thơ",VN,"10.014009399999999,105.7622995"
500,ChIJ1UbSQcuJoDER8RVwz4fucLg,Nhà Nghỉ 141,Khách sạn,0908 791 789,"Nhà Nghỉ 141, 141 Đ. 30 Tháng 4, Hưng Lợi, Ninh Kiều, Cần Thơ","Hưng Lợi, Ninh Kiều",141 Đ. 30 Tháng 4,Cần Thơ,,"Ninh Kiều, Cần Thơ",VN,"10.0107432,105.7630241"
504,ChIJVWgZ1CaIoDERix0E_XumPjI,nhà nghỉ hoàng long,Khách sạn,,"2QGH+RGP nhà nghỉ hoàng long, Hẻm 71, Quang Trung, Ninh Kiều, Cần Thơ","Quang Trung, Ninh Kiều","2QGH+RGP, Hẻm 71",Cần Thơ,,"Ninh Kiều, Cần Thơ",VN,"10.0270812,105.77882179999999"
507,ChIJiYLk9_uHoDERgEJnq3lZCUg,Nhà Nghỉ Hữu Duyên,Nhà nghỉ trượt tuyết,,"Nhà Nghỉ Hữu Duyên, Cái Khế, Ninh Kiều, Cần Thơ","Cái Khế, Ninh Kiều",,Cần Thơ,,"Ninh Kiều, Cần Thơ",VN,"10.0600613,105.7754092"
508,ChIJX7N3CxSHoDER0l21N83wjiI,nhà nghỉ nguyễn quân 2,Nhà nghỉ trượt tuyết,0939 442 314,"3Q5G+MCF nhà nghỉ nguyễn quân 2, Đường Số 12A, Cái Khế, Ninh Kiều, Cần Thơ","Cái Khế, Ninh Kiều","3Q5G+MCF, Đường Số 12A",Cần Thơ,,"Ninh Kiều, Cần Thơ",VN,"10.0591879,105.77605799999999"
509,ChIJmfWjFwGIoDERRpdEw2P46a4,Nhà Nghỉ Bảo Ngọc,Nhà nghỉ trượt tuyết,,"3Q2H+94Q Nhà Nghỉ Bảo Ngọc, Đường Tôn Thất Tùng, Cái Khế, Ninh Kiều, Cần Thơ","Cái Khế, Ninh Kiều","3Q2H+94Q, Đường Tôn Thất Tùng",Cần Thơ,,"Ninh Kiều, Cần Thơ",VN,"10.0509513,105.77786259999999"
510,ChIJv3takoqJoDER_hXsxLmqJjU,Nhà nghỉ Tân Nhựt Minh,Khách sạn,,"Nhà nghỉ Tân Nhựt Minh, 54/2d, Hùng Vương, Thới Bình, Ninh Kiều, Cần Thơ","Thới Bình, Ninh Kiều","54/2d, Hùng Vương",Cần Thơ,,"Ninh Kiều, Cần Thơ",VN,"10.0438443,105.77796339999999"
511,ChIJq6qqBw-IoDER44dnQix9WbY,Nhà Nghỉ Hoàn Mỹ,Khách sạn,0292 2480 890,"Nhà Nghỉ Hoàn Mỹ, 256/33, Nguyễn Văn Cừ, Quận Ninh Kiều, TP Cần Thơ, An Hoà, Ninh Kiều, Cần Thơ","An Hoà, Ninh Kiều","256/33, Nguyễn Văn Cừ, Quận Ninh Kiều, TP Cần Thơ",Cần Thơ,,"Ninh Kiều, Cần Thơ",VN,"10.047019299999999,105.76794439999999"
512,ChIJbz_czmpjoDERnvK-9EJzI-Y,Phú Phương Nam,Khách sạn,0913 738 772,"Phú Phương Nam, 26 Trần Quang Khải, An Hội, Ninh Kiều, Cần Thơ","An Hội, Ninh Kiều",26 Trần Quang Khải,Cần Thơ,,"Ninh Kiều, Cần Thơ",VN,"10.0449016,105.7823133"
513,ChIJi7O0ixyIoDERTBhibZx2PMc,Homestay Cô Gái Việt,,,"Homestay Cô Gái Việt, 132 Hùng Vương, An Cư, Ninh Kiều, Cần Thơ","An Cư, Ninh Kiều",132 Hùng Vương,Cần Thơ,,"Ninh Kiều, Cần Thơ",VN,"10.0411409,105.7774089"
514,ChIJIczuvqhioDERTIQ7IxE4jYs,Nhà Nghỉ Diễm Hoa,Nhà nghỉ trượt tuyết,0292 3769 131,"Nhà Nghỉ Diễm Hoa, 86 Trần Văn Khéo, Cái Khế, Ninh Kiều, Cần Thơ","Cái Khế, Ninh Kiều",86 Trần Văn Khéo,Cần Thơ,,"Ninh Kiều, Cần Thơ",VN,"10.0439627,105.7865092"
515,ChIJrZbpGa9ioDERcz34mtIcfwk,Nhà Nghỉ - Karaoke 19,Khách sạn,0817 857 777,"Nhà Nghỉ - Karaoke 19, 19 Lê Lợi, Cái Khế, Ninh Kiều, Cần Thơ","Cái Khế, Ninh Kiều",19 Lê Lợi,Cần Thơ,,"Ninh Kiều, Cần Thơ",VN,"10.0451766,105.789687"
516,ChIJtTxqtq5ioDERM8BAU2sHQaI,Nhà Nghỉ Thuận Phát Đạt,Nhà nghỉ trượt tuyết,,"Nhà Nghỉ Thuận Phát Đạt, 76 Lê Lợi, Cái Khế, Ninh Kiều, Cần Thơ","Cái Khế, Ninh Kiều",76 Lê Lợi,Cần Thơ,,"Ninh Kiều, Cần Thơ",VN,"10.0472251,105.78831009999999"
517,ChIJO7CfwKdioDERjyypiwZZGlI,Nhà Nghỉ Phương Vy,Nhà nghỉ trượt tuyết,,"Nhà Nghỉ Phương Vy, 80 Nguyễn Trãi, An Hội, Ninh Kiều, Cần Thơ","An Hội, Ninh Kiều",80 Nguyễn Trãi,Cần Thơ,,"Ninh Kiều, Cần Thơ",VN,"10.0420231,105.78380089999999"
518,ChIJO7CfwKdioDERhB_YpIjgyks,Nhà Nghỉ Mỹ Tiên,Nhà nghỉ trượt tuyết,,"Nhà Nghỉ Mỹ Tiên, 80 Nguyễn Trãi, An Hội, Ninh Kiều, Cần Thơ","An Hội, Ninh Kiều",80 Nguyễn Trãi,Cần Thơ,,"Ninh Kiều, Cần Thơ",VN,"10.0420231,105.78380089999999"
520,ChIJo7_AMqlioDER94R8E3j22y4,Nhà Nghỉ 118,Trạm nghỉ,0292 6292 973,"Nhà Nghỉ 118, 173 Trần Văn Khéo, Cái Khế, Ninh Kiều, Cần Thơ","Cái Khế, Ninh Kiều",173 Trần Văn Khéo,Cần Thơ,,"Ninh Kiều, Cần Thơ",VN,"10.0467298,105.7877966"
521,ChIJ56sFLR2IoDERxkjmjouX_xI,Nhà Nghỉ 288,Khách sạn,0292 3765 224,"Nhà Nghỉ 288, 28 Đ. Bùi Thị Xuân, An Hội, Ninh Kiều, Cần Thơ","An Hội, Ninh Kiều",28 Đ. Bùi Thị Xuân,Cần Thơ,,"Ninh Kiều, Cần Thơ",VN,"10.0435748,105.77972799999999"
522,ChIJO7CfwKdioDERH65Qr0xvcac,Nhà Nghỉ 9999,Trạm nghỉ,,"Nhà Nghỉ 9999, 80 Nguyễn Trãi, An Hội, Ninh Kiều, Cần Thơ","An Hội, Ninh Kiều",80 Nguyễn Trãi,Cần Thơ,,"Ninh Kiều, Cần Thơ",VN,"10.0420231,105.78380089999999"
551,ChIJP5eQVQOIoDERUChHnTnFkIg,Nhà Nghỉ Thủy Tiên,Nhà nghỉ trượt tuyết,,"Nhà Nghỉ Thủy Tiên, 132 Đ. Đinh Tiên Hoàng, Thới Bình, Ninh Kiều, Cần Thơ","Thới Bình, Ninh Kiều",132 Đ. Đinh Tiên Hoàng,Cần Thơ,,"Ninh Kiều, Cần Thơ",VN,"10.0439511,105.7762599"
555,ChIJq6qqBw-IoDER6z_LpjE4-kg,Nhà Nghỉ Ngọc Huyền,Nhà nghỉ trượt tuyết,0292 3895 769,"Nhà Nghỉ Ngọc Huyền, 40A/2, Đường Nguyễn Văn Cừ, Quận Ninh Kiều, Tp Cần Thơ, An Hoà, Ninh Kiều, Cần Thơ","An Hoà, Ninh Kiều","40A/2, Đường Nguyễn Văn Cừ, Quận Ninh Kiều, Tp Cần Thơ",Cần Thơ,,"Ninh Kiều, Cần Thơ",VN,"10.047019299999999,105.76794439999999"
557,ChIJq6qqBw-IoDERGbZXCqt1hwk,Nhà Nghỉ Hồng Ngân,Nhà nghỉ trượt tuyết,0292 3897 345,"Nhà Nghỉ Hồng Ngân, 10 K4 Đ. Nguyễn Văn Cừ, An Hoà, Ninh Kiều, Cần Thơ","An Hoà, Ninh Kiều",10 K4 Đ. Nguyễn Văn Cừ,Cần Thơ,,"Ninh Kiều, Cần Thơ",VN,"10.047019299999999,105.76794439999999"
558,ChIJq6qqBw-IoDEROZAIMaiRYOQ,Nhà Nghỉ Duy Trinh,Nhà nghỉ trượt tuyết,0292 3894 138,"Nhà Nghỉ Duy Trinh, 390H/14, Nguyễn Văn Cừ, Quận Ninh Kiều, Tp Cần Thơ, An Hoà, Ninh Kiều, Cần Thơ","An Hoà, Ninh Kiều","390H/14, Nguyễn Văn Cừ, Quận Ninh Kiều, Tp Cần Thơ",Cần Thơ,,"Ninh Kiều, Cần Thơ",VN,"10.047019299999999,105.76794439999999"
559,ChIJq6qqBw-IoDERZ_dlhdJs8Fg,DNTN Nhà Nghỉ Đỗ Quên,Trạm nghỉ,0292 3892 930,"DNTN Nhà Nghỉ Đỗ Quên, 132C/15, Nguyễn Văn Cừ, Quận Ninh Kiều, Tp Cần Thơ, An Hoà, Ninh Kiều, Cần Thơ","An Hoà, Ninh Kiều","132C/15, Nguyễn Văn Cừ, Quận Ninh Kiều, Tp Cần Thơ",Cần Thơ,,"Ninh Kiều, Cần Thơ",VN,"10.047019299999999,105.76794439999999"
560,ChIJb3E5CACJoDERMf9t01liqmQ,Nhà Nghỉ Thảo Nguyên,Khách sạn,,"Nhà Nghỉ Thảo Nguyên, 45p1 Đ. Mậu Thân, An Nghiệp, Ninh Kiều, Cần Thơ","An Nghiệp, Ninh Kiều",45p1 Đ. Mậu Thân,Cần Thơ,,"Ninh Kiều, Cần Thơ",VN,"10.0421453,105.7660581"
561,ChIJn05TdNBjoDER0E717VI9vqQ,Khách sạn Ngọc Mai 1,Khách sạn,0942 745 745,"Khách sạn Ngọc Mai 1, 50B2 Lý Hồng Thanh, P, Ninh Kiều, Cần Thơ 94000","P, Ninh Kiều",50B2 Lý Hồng Thanh,Cần Thơ,94000.0,"Ninh Kiều, Cần Thơ",VN,"10.0457136,105.78376399999999"
563,ChIJq6q18QOIoDERb20P4cpMC_w,Lại Nguyễn Boutique Hotel,,,"Lại Nguyễn Boutique Hotel, 51A Đ. Cách Mạng Tháng 8, Thới Bình, Ninh Kiều, Cần Thơ 94000","Thới Bình, Ninh Kiều",51A Đ. Cách Mạng Tháng 8,Cần Thơ,94000.0,"Ninh Kiều, Cần Thơ",VN,"10.0482716,105.7768285"
564,ChIJC7BS6L2JoDERYwrZthw3hx0,NHÀ NGHỈ ĐẠI NGÂN 41/2,Khách sạn,0949 363 754,"NHÀ NGHỈ ĐẠI NGÂN 41/2, 41 Đ. Số 2, KHU DÂN CƯ ĐÔ THỊ MỚI ĐẠI NGÂN, Ninh Kiều, Cần Thơ","KHU DÂN CƯ ĐÔ THỊ MỚI ĐẠI NGÂN, Ninh Kiều",41 Đ. Số 2,Cần Thơ,,"Ninh Kiều, Cần Thơ",VN,"10.0384975,105.7617022"
568,ChIJyZY0s2qIoDEREN288YHCcmU,Nhà Nghỉ Quốc Cường,Khách sạn,0967 679 565,"Nhà Nghỉ Quốc Cường, Khu Vực 6, Phường An Bình, Quận Ninh Kiều, Thành Phố Cần Thơ, Phường An Khánh, Ninh Kiều, Cần Thơ","Phường An Khánh, Ninh Kiều","Khu Vực 6, Phường An Bình, Quận Ninh Kiều, Thành Phố Cần Thơ",Cần Thơ,,"Ninh Kiều, Cần Thơ",VN,"10.034815,105.7585593"
570,ChIJeQMGhqWJoDERyfslmXOqZtU,Nhà Nghỉ Đại Tín,Khách sạn,0947 522 141,"Nhà Nghỉ Đại Tín, 175A/4, Lộ Vòng Cung, Phường An Bình, Quận Ninh Kiều, Thành Phố Cần Thơ, An Bình, Ninh Kiều, Cần Thơ","An Bình, Ninh Kiều","175A/4, Lộ Vòng Cung, Phường An Bình, Quận Ninh Kiều, Thành Phố Cần Thơ",Cần Thơ,,"Ninh Kiều, Cần Thơ",VN,"10.0016771,105.74314559999999"
571,ChIJEXOG4P-IoDERCr_vRZQOkgk,Nhà Nghỉ Hoàng Mai 2,Chỗ trọ trong nhà,,"Nhà Nghỉ Hoàng Mai 2, 390D Nguyễn Văn Cừ Nối Dài, Phường An Khánh, Ninh Kiều, Cần Thơ","Phường An Khánh, Ninh Kiều",390D Nguyễn Văn Cừ Nối Dài,Cần Thơ,,"Ninh Kiều, Cần Thơ",VN,"10.0134708,105.7336857"
573,ChIJf9yLT66JoDER8-9jKL36PLQ,Nhà Nghỉ Đại Tín,Nhà nghỉ trượt tuyết,,"Nhà Nghỉ Đại Tín, 171 Lộ Vòng Cung, An Bình, Ninh Kiều, Cần Thơ","An Bình, Ninh Kiều",171 Lộ Vòng Cung,Cần Thơ,,"Ninh Kiều, Cần Thơ",VN,"10.0052363,105.7448091"
575,ChIJY53CNqiJoDERugFpX3Zlxrc,Nhà Nghỉ Hoa Remi,Khách sạn,,"Nhà Nghỉ Hoa Remi, 103 Đ. Lê Chân, Hưng Lợi, Ninh Kiều, Cần Thơ","Hưng Lợi, Ninh Kiều",103 Đ. Lê Chân,Cần Thơ,,"Ninh Kiều, Cần Thơ",VN,"10.0244222,105.7554567"
576,ChIJEdmcMeSJoDERvYs8G3mYS0U,Nhà nghỉ Ngọc Hà,Nhà nghỉ trượt tuyết,,"Nhà nghỉ Ngọc Hà, 11 Đ. B19, Hưng Lợi, Ninh Kiều, Cần Thơ","Hưng Lợi, Ninh Kiều",11 Đ. B19,Cần Thơ,,"Ninh Kiều, Cần Thơ",VN,"10.0254841,105.7566351"
577,ChIJIXPSGUGJoDER2J3qyBrccNU,Nhà Nghỉ Yên Vân,Khách sạn,,"Nhà Nghỉ Yên Vân, 12 Đ. Nguyễn Văn Linh, Phường An Khánh, Ninh Kiều, Cần Thơ","Phường An Khánh, Ninh Kiều",12 Đ. Nguyễn Văn Linh,Cần Thơ,,"Ninh Kiều, Cần Thơ",VN,"10.025718399999999,105.75894699999999"
578,ChIJh-hNhZKJoDER7JNsobrkGaI,Nhà Nghỉ Anh Khoa,Khách sạn,0948 666 179,"Nhà Nghỉ Anh Khoa, 36 Đ. 3 Tháng 2, Hưng Lợi, Ninh Kiều, Cần Thơ","Hưng Lợi, Ninh Kiều",36 Đ. 3 Tháng 2,Cần Thơ,,"Ninh Kiều, Cần Thơ",VN,"10.0196074,105.7617384"
579,ChIJee-YysCJoDER_prkCmKhzqQ,Nhà nghỉ Sao Mai,Nhà nghỉ trượt tuyết,0292 2780 076,"Nhà nghỉ Sao Mai, 35 Đ. B19, Hưng Lợi, Ninh Kiều, Cần Thơ","Hưng Lợi, Ninh Kiều",35 Đ. B19,Cần Thơ,,"Ninh Kiều, Cần Thơ",VN,"10.0252635,105.7561655"
581,ChIJrYG9mzaIoDERiKXTG4qwPIs,Nhà Nghỉ Ngọc Hà,Nhà nghỉ trượt tuyết,0292 3738 496,"Nhà Nghỉ Ngọc Hà, 117 Đ. 3 Tháng 2, Hưng Lợi, Ninh Kiều, Cần Thơ","Hưng Lợi, Ninh Kiều",117 Đ. 3 Tháng 2,Cần Thơ,,"Ninh Kiều, Cần Thơ",VN,"10.018019299999999,105.76206549999999"
583,ChIJtbt_u42HoDER5HAKkT3AUcU,Nhà nghỉ Homestay KV,Khách sạn,0961 595 171,"Nhà nghỉ Homestay KV, 15 Lê Văn Bì, An Thới, Bình Thủy, Cần Thơ 900000","An Thới, Bình Thủy",15 Lê Văn Bì,Cần Thơ,900000.0,"Bình Thủy, Cần Thơ",VN,"10.0638433,105.7576416"
584,ChIJkWYBsRmIoDERRDpPl5L5Nu4,Nhà Nghỉ Thiên Phước 2,Khách sạn,0938 222 283,"Nhà Nghỉ Thiên Phước 2, 60B Đ. Mậu Thân, An Nghiệp, Ninh Kiều, Cần Thơ","An Nghiệp, Ninh Kiều",60B Đ. Mậu Thân,Cần Thơ,,"Ninh Kiều, Cần Thơ",VN,"10.0359325,105.7723422"
585,ChIJm7985RGIoDERvQH7QXuDYCI,Nhà Nghỉ Đại Lộc,Khách sạn,,"Nhà Nghỉ Đại Lộc, 338 Đ. Mậu Thân, An Nghiệp, Ninh Kiều, Cần Thơ","An Nghiệp, Ninh Kiều",338 Đ. Mậu Thân,Cần Thơ,,"Ninh Kiều, Cần Thơ",VN,"10.037217,105.77180419999999"
586,ChIJDyvglBmIoDER5wnR_oK15ME,Nhà Nghỉ Phương Thịnh,Nhà nghỉ trượt tuyết,0292 3833 364,"Nhà Nghỉ Phương Thịnh, 114 Nguyễn Văn Trỗi, An Nghiệp, Ninh Kiều, Cần Thơ","An Nghiệp, Ninh Kiều",114 Nguyễn Văn Trỗi,Cần Thơ,,"Ninh Kiều, Cần Thơ",VN,"10.0374578,105.7719441"
587,ChIJO02mGiSIoDERBaRpLa21tC4,Nhà Nghỉ Anh Thư,Nhà nghỉ trượt tuyết,0292 3738 363,"Nhà Nghỉ Anh Thư, 7/3, Đường 30/04, Quận Ninh Kiều, Tp Cần Thơ, Xuân Khánh, Ninh Kiều, Cần Thơ","Xuân Khánh, Ninh Kiều","7/3, Đường 30/04, Quận Ninh Kiều, Tp Cần Thơ",Cần Thơ,,"Ninh Kiều, Cần Thơ",VN,"10.026857999999999,105.775454"
590,ChIJe0kSuTqIoDER1t1etrb8tgc,Nhà Nghỉ Hoàng Anh 2,Nhà nghỉ trượt tuyết,0292 3840 189,"Nhà Nghỉ Hoàng Anh 2, 162 Đ. Trần Ngọc Quế, Xuân Khánh, Ninh Kiều, Cần Thơ 900000","Xuân Khánh, Ninh Kiều",162 Đ. Trần Ngọc Quế,Cần Thơ,900000.0,"Ninh Kiều, Cần Thơ",VN,"10.0244258,105.7689341"
591,ChIJ1cEVhRiIoDER53cNlq4RT5A,Nhà Nghỉ Trần Thị Kim Cúc,Khách sạn,,"Nhà Nghỉ Trần Thị Kim Cúc, 1 Đ. Mậu Thân, An Phú, Ninh Kiều, Cần Thơ","An Phú, Ninh Kiều",1 Đ. Mậu Thân,Cần Thơ,,"Ninh Kiều, Cần Thơ",VN,"10.033140999999999,105.7740597"
593,ChIJF_FkJSCIoDERTNdlrUmaJ-8,Nhà Nghỉ Thuận Phát 2,Nhà nghỉ trượt tuyết,0292 3734 825,"Nhà Nghỉ Thuận Phát 2, 110 Đ. Lê Lai, An Lạc, Ninh Kiều, Cần Thơ","An Lạc, Ninh Kiều",110 Đ. Lê Lai,Cần Thơ,,"Ninh Kiều, Cần Thơ",VN,"10.0320892,105.77998749999999"
594,ChIJp9gYEqeJoDERVcBRapQv1AM,Khách sạn - Nhà nghỉ Khoa,Khách sạn,,"Khách sạn - Nhà nghỉ Khoa, 1/36 Hẻm 1 Đ. Lý Tự Trọng, An Phú, Ninh Kiều, Cần Thơ","An Phú, Ninh Kiều",1/36 Hẻm 1 Đ. Lý Tự Trọng,Cần Thơ,,"Ninh Kiều, Cần Thơ",VN,"10.0335007,105.7784233"
598,ChIJJXMPKY-JoDER5Dtdl0mczQY,Nhà nghỉ Nguyễn Phong.,Khách sạn,0918 394 760,"Nhà nghỉ Nguyễn Phong., 139 85 Đ. 30 Tháng 4, Xuân Khánh, Ninh Kiều, Cần Thơ","Xuân Khánh, Ninh Kiều",139 85 Đ. 30 Tháng 4,Cần Thơ,,"Ninh Kiều, Cần Thơ",VN,"10.027048899999999,105.77849479999999"
602,ChIJVVXM_p5ioDER9Pf1-XI825I,Enjoy Mekong Hostel,,,"Enjoy Mekong Hostel, 54a Đ. Điện Biên Phủ, Tân An, Ninh Kiều, Cần Thơ","Tân An, Ninh Kiều",54a Đ. Điện Biên Phủ,Cần Thơ,,"Ninh Kiều, Cần Thơ",VN,"10.029423399999999,105.785243"
