,place_id,name,main_category,phone,address,address_ward,address_street,address_city,address_postal_code,address_state,address_country_code,coordinates
0,ChIJ4_8LbNSJoDERYpTIL95gzdM,Siêu Thị Điện Máy Nội Thất Chợ Lớn,Cửa hàng bán đồ điện tử,0292 3894 479,"Siêu Thị Điện Máy Nội Thất Chợ Lớn, 161 Đ. 3 Tháng 2, Hưng Lợi, Ninh Kiều, Cần Thơ","Hưng Lợi, Ninh Kiều",161 Đ. 3 Tháng 2,Cần Thơ,,"Ninh Kiều, Cần Thơ",VN,"10.0188964,105.7628562"
2,ChIJV5IfL6lioDERqRBqd3ttzgI,Siêu Thị Điện Máy Nội Thất Chợ Lớn,Cửa hàng bán đồ điện tử,028 3856 3388,"Siêu Thị Điện Máy Nội Thất Chợ Lớn, 112 Trần Phú, Cái Khế, Ninh Kiều, Cần Thơ 90000","Cái Khế, Ninh Kiều",112 Trần Phú,Cần Thơ,90000.0,"Ninh Kiều, Cần Thơ",VN,"10.0474979,105.7830188"
6,ChIJJa1QXLIudTER1UoBAaKXJw4,Nội thất HomeOffice,Cửa hàng nội thất,0903 005 138,"Nội thất HomeOffice, 206/40 Đồng Đen, Phường 14, Tân Bình, Thành phố Hồ Chí Minh","Phường 14, Tân Bình",206/40 Đồng Đen,Thành phố Hồ Chí Minh,,"Tân Bình, Thành phố Hồ Chí Minh",VN,"10.7889051,106.6426541"
20,ChIJjw9VUJ6JoDERbjlLZsobbe4,Nội Thất HomeOffice Cần Thơ,Cửa hàng nội thất,0906 897 138,"Nội Thất HomeOffice Cần Thơ, 311C/9, Đ. Hoàng Quốc Việt, Khu Vực 4, Ninh Kiều, Cần Thơ 900000","Khu Vực 4, Ninh Kiều","311C/9, Đ. Hoàng Quốc Việt",Cần Thơ,900000.0,"Ninh Kiều, Cần Thơ",VN,"10.0192031,105.7422804"
35,ChIJrR0djjaIoDER8p0Vw5sdVT0,Công ty Lộc Nghi - bồn cầu - bồn nước - máy nước nóng năng lượng mặt trời - Cần Thơ,Cửa hàng nội thất,0799 698 886,"Công ty Lộc Nghi - bồn cầu - bồn nước - máy nước nóng năng lượng mặt trời - Cần Thơ, 185 Đ. 3 Tháng 2, Hưng Lợi, Ninh Kiều, Cần Thơ","Hưng Lợi, Ninh Kiều",185 Đ. 3 Tháng 2,Cần Thơ,,"Ninh Kiều, Cần Thơ",VN,"10.0198707,105.7636788"
37,ChIJ8TbtQTrddDERDNDUmfUJHrk,Mộc Nội Thất,Cửa hàng nội thất,0933 687 095,"Mộc Nội Thất, 69 khu phố 2, Tân Hoà, Thành phố Biên Hòa, Đồng Nai","Tân Hoà, Thành phố Biên Hòa",69 khu phố 2,Đồng Nai,,"Thành phố Biên Hòa, Đồng Nai",VN,"10.9635935,106.90378989999999"
49,ChIJn9mYmBiIoDERUDqaTbM7v9E,Cửa Hàng Nội Thất Lợi Phát,Cửa hàng nội thất,0939 454 454,"Cửa Hàng Nội Thất Lợi Phát, 369F Nguyễn Văn Cừ Nối Dài, Phường An Khánh, Ninh Kiều, Cần Thơ","Phường An Khánh, Ninh Kiều",369F Nguyễn Văn Cừ Nối Dài,Cần Thơ,,"Ninh Kiều, Cần Thơ",VN,"10.0316229,105.7527011"
50,ChIJQTxomc0pdTERBOjG6O7l6XY,Nội Thất Đồ Gỗ Việt,Cửa hàng nội thất phòng ngủ,0988 887 878,"Nội Thất Đồ Gỗ Việt, 3, 5 Lũy Bán Bích, Tân Thới Hoà, Tân Phú, Thành phố Hồ Chí Minh 70000","Tân Thới Hoà, Tân Phú","3, 5 Lũy Bán Bích",Thành phố Hồ Chí Minh,70000.0,"Tân Phú, Thành phố Hồ Chí Minh",VN,"10.759120699999999,106.6339127"
72,ChIJv3VLjTaIoDERGRg2edODjU0,Đồ Gỗ Việt Thái,Cửa hàng nội thất,0976 828 620,"Đồ Gỗ Việt Thái, 140 Đ. 3 Tháng 2, Hưng Lợi, Ninh Kiều, Cần Thơ 94000","Hưng Lợi, Ninh Kiều",140 Đ. 3 Tháng 2,Cần Thơ,94000.0,"Ninh Kiều, Cần Thơ",VN,"10.0185683,105.76203729999999"
77,ChIJYRt4WeaJoDERFadMwqzlqtY,Nội Thất Cần Thơ - Thạnh Phát Decor,Cửa hàng nội thất,0974 897 574,"Nội Thất Cần Thơ - Thạnh Phát Decor, 140 Đường Trần Minh Sơn, P, Ninh Kiều, Cần Thơ 900000","P, Ninh Kiều",140 Đường Trần Minh Sơn,Cần Thơ,900000.0,"Ninh Kiều, Cần Thơ",VN,"10.037064899999999,105.7496122"
90,ChIJVwd7xTWIoDERNxjubbVquwM,Đồ gỗ Sơn Đông - Chi Nhánh Cần Thơ,Cửa hàng nội thất,0934 174 886,"Đồ gỗ Sơn Đông - Chi Nhánh Cần Thơ, 99b Đ. 3 Tháng 2, Hưng Lợi, Ninh Kiều, Cần Thơ","Hưng Lợi, Ninh Kiều",99b Đ. 3 Tháng 2,Cần Thơ,,"Ninh Kiều, Cần Thơ",VN,"10.016565499999999,105.7608411"
92,ChIJx-wr-8JjoDERrSDBRICQ7Ec,Tổng Kho Nội Thất Huy Nam,Cửa hàng nội thất,0931 220 320,"Tổng Kho Nội Thất Huy Nam, Số 33A Đường So 1, KDC Văn Hoá, Cái Răng, Cần Thơ","KDC Văn Hoá, Cái Răng",Số 33A Đường So 1,Cần Thơ,,"Cái Răng, Cần Thơ",VN,"10.0078465,105.7772749"
102,ChIJMzMccjSIoDEReJZPN8Q7Pr8,Cửa hàng nệm Cần Thơ - Showroom Liên Á,Cửa hàng bán đệm,1800 9003,"Cửa hàng nệm Cần Thơ - Showroom Liên Á, 427 Đ. 30 Tháng 4, Hưng Lợi, Ninh Kiều, Cần Thơ 94000","Hưng Lợi, Ninh Kiều",427 Đ. 30 Tháng 4,Cần Thơ,94000.0,"Ninh Kiều, Cần Thơ",VN,"10.014985,105.7635631"
103,ChIJ_ZfWftqJoDERLTh8UddNyFE,Trường Phát - Nội thất Giá rẻ và Thanh lý Cần Thơ,Cửa hàng nội thất,0939 417 416,"Trường Phát - Nội thất Giá rẻ và Thanh lý Cần Thơ, Chân cầu Bà Bộ, Võ Văn Kiệt, Cần Thơ, 90000","An Thới, Cần Thơ","Chân cầu Bà Bộ, Võ Văn Kiệt",Cần Thơ,90000.0,Cần Thơ,VN,"10.051183,105.75406579999999"
104,ChIJiVylyg-JoDERRuQNwZ0MluQ,Nội Thất An Gia,Nhà thiết kế nội thất,0788 322 322,"Nội Thất An Gia, 488 Võ Văn Kiệt, Long Hoà, Bình Thủy, Cần Thơ","Long Hoà, Bình Thủy",488 Võ Văn Kiệt,Cần Thơ,,"Bình Thủy, Cần Thơ",VN,"10.0549049,105.74869319999999"
133,ChIJL62wiEOIoDERwcNX8sZpbiM,NỘI THẤT NGỌC TÂN,Cửa hàng nội thất,0907 467 666,"NỘI THẤT NGỌC TÂN, 386 Đ. Nguyễn Văn Cừ, Phường An Khánh, Ninh Kiều, Cần Thơ","Phường An Khánh, Ninh Kiều",386 Đ. Nguyễn Văn Cừ,Cần Thơ,,"Ninh Kiều, Cần Thơ",VN,"10.0365826,105.7584193"
148,ChIJtbm1GIuJoDERAK_IKO2gt3I,Hưng Phát Sài Gòn Tại Cần Thơ Cửa Hàng Nội Thất Bàn Ghế Sofa,Cửa hàng nội thất,0898 655 119,"Hưng Phát Sài Gòn Tại Cần Thơ Cửa Hàng Nội Thất Bàn Ghế Sofa, 391 Đ. Nguyễn Văn Cừ, An Hoà, Ninh Kiều, Cần Thơ 900000","An Hoà, Ninh Kiều",391 Đ. Nguyễn Văn Cừ,Cần Thơ,900000.0,"Ninh Kiều, Cần Thơ",VN,"10.043996,105.76596099999999"
149,ChIJ75-O4JwudTERhsmsbFQotqA,Đồ gỗ giá rẻ HCM - chi nhánh Tân Phú,Cửa hàng nội thất,0903 895 225,"Đồ gỗ giá rẻ HCM - chi nhánh Tân Phú, 73A Lũy Bán Bích, Tân Thới Hoà, Tân Phú, Thành phố Hồ Chí Minh 700000","Tân Thới Hoà, Tân Phú",73A Lũy Bán Bích,Thành phố Hồ Chí Minh,700000.0,"Tân Phú, Thành phố Hồ Chí Minh",VN,"10.761630499999999,106.6322909"
175,ChIJPyntEDBlCjERPKr2Z08KJqk,"Nội Thất Tân Á Tân Á Cần Thơ, Sofa Giường Tủ - Bàn Ăn",Cửa hàng nội thất,0988 661 060,"Nội Thất Tân Á Tân Á Cần Thơ, Sofa Giường Tủ - Bàn Ăn, 184 Đ. 3 Tháng 2, Hưng Lợi, Ninh Kiều, Cần Thơ 902070","Hưng Lợi, Ninh Kiều",184 Đ. 3 Tháng 2,Cần Thơ,902070.0,"Ninh Kiều, Cần Thơ",VN,"10.020514499999999,105.763714"
176,ChIJtyyPEgaIoDERUgavOqITg2c,SHOWROOM HOANGNAM DECOR,Nhà thiết kế nội thất,0984 817 777,"SHOWROOM HOANGNAM DECOR, 09 Trần Bạch Đằng, Phường An Khánh, Ninh Kiều, Cần Thơ","Phường An Khánh, Ninh Kiều",09 Trần Bạch Đằng,Cần Thơ,,"Ninh Kiều, Cần Thơ",VN,"10.036337,105.75486769999999"
202,ChIJsck8_bCJoDER5Jcp8fPOU-4,Cửa Hàng Nội Thất Cần Thơ - Nội Thất Bảo Nhi,Cửa hàng nội thất,0939 323 285,"Cửa Hàng Nội Thất Cần Thơ - Nội Thất Bảo Nhi, 5 & 146/3, 145, Đ. Phạm Hùng, Khu vực, Cái Răng, Cần Thơ","Khu vực, Cái Răng","5 & 146/3, 145, Đ. Phạm Hùng",Cần Thơ,,"Cái Răng, Cần Thơ",VN,"10.0040217,105.75029939999999"
203,ChIJQ3nSKweJoDER_C7A7yy3c0E,Trang Trí Nội Thất SGCI,Cửa hàng nội thất,0292 2222 882,"Trang Trí Nội Thất SGCI, 35 Đ. Lê Chân, Khu dân cư 91B, Ninh Kiều, Cần Thơ","Khu dân cư 91B, Ninh Kiều",35 Đ. Lê Chân,Cần Thơ,,"Ninh Kiều, Cần Thơ",VN,"10.0230274,105.7566234"
204,ChIJvXZ_iDiJoDER7cCp7vjbDLc,Nội thất đồ gỗ Hai Phước,Cửa hàng nội thất,0915 786 788,"Nội thất đồ gỗ Hai Phước, 186 Đ. Nguyễn Văn Linh, Thới An Đông, Bình Thủy, Cần Thơ 900000","Thới An Đông, Bình Thủy",186 Đ. Nguyễn Văn Linh,Cần Thơ,900000.0,"Bình Thủy, Cần Thơ",VN,"10.0619104,105.6922283"
247,ChIJz8fbHfaJoDER2H0_ziosfaU,Nội thất Thiên Điền,Cửa hàng nội thất,0972 276 824,"Nội thất Thiên Điền, 271 Võ Văn Kiệt, An Thới, Bình Thủy, Cần Thơ","An Thới, Bình Thủy",271 Võ Văn Kiệt,Cần Thơ,,"Bình Thủy, Cần Thơ",VN,"10.048865,105.756846"
248,ChIJZwuCbwWHoDER9LDpLogatTs,Nội thất THE ONE Cần Thơ,Cửa hàng nội thất văn phòng,0914 003 808,"Nội thất THE ONE Cần Thơ, L12-06 Đ. Lạc Long Quân, P, Bình Thủy, Cần Thơ","P, Bình Thủy",L12-06 Đ. Lạc Long Quân,Cần Thơ,,"Bình Thủy, Cần Thơ",VN,"10.0764072,105.7415225"
255,ChIJZ96f336JoDERLGU2VjE27iw,Trung Tâm Nội Thất Triều Phát,Trung tâm mua sắm,0964 545 955,"Trung Tâm Nội Thất Triều Phát, 222 Đ. 3 Tháng 2, Hưng Lợi, Ninh Kiều, Cần Thơ","Hưng Lợi, Ninh Kiều",222 Đ. 3 Tháng 2,Cần Thơ,,"Ninh Kiều, Cần Thơ",VN,"10.022497699999999,105.76543339999999"
271,ChIJF0Osqx6IoDERoOcGyjdga0E,Nội thất Hoàng Bình,Cửa hàng,0931 798 513,"Nội thất Hoàng Bình, 78 Đ. Trần Hưng Đạo, An Nghiệp, Ninh Kiều, Cần Thơ 900000","An Nghiệp, Ninh Kiều",78 Đ. Trần Hưng Đạo,Cần Thơ,900000.0,"Ninh Kiều, Cần Thơ",VN,"10.038279,105.77642999999999"
278,ChIJMac8QHGIoDERBRg9jVU8t48,Nội Thất Nhựa Lê Phát,Cửa hàng nội thất phòng ngủ,0907 839 111,"Nội Thất Nhựa Lê Phát, Đường F11, Võ Văn Kiệt, Khu Dân Cư Bình Nhựt, Bình Thủy, Cần Thơ 94212","Khu Dân Cư Bình Nhựt, Bình Thủy","Đường F11, Võ Văn Kiệt",Cần Thơ,94212.0,"Bình Thủy, Cần Thơ",VN,"10.0488196,105.7516718"
279,ChIJRzTU4FWHoDER3kqeRKXhEGk,Xưởng Sản Xuất Nội Thất Panahome tại Cần Thơ,Cửa hàng nội thất nhà bếp,0928 886 568,"Xưởng Sản Xuất Nội Thất Panahome tại Cần Thơ, Đ. Huỳnh Phan Hộ, Bình Thuỷ, Cần Thơ","Bình Thuỷ, Cần Thơ",Đ. Huỳnh Phan Hộ,Cần Thơ,,Cần Thơ,VN,"10.074194199999999,105.7295503"
280,ChIJ34eidM2JoDER3M-rrUuCsZY,NỘI THẤT TUẤN TÀI CẦN THƠ,Nhà thiết kế nội thất,0942 236 339,"NỘI THẤT TUẤN TÀI CẦN THƠ, 172T Hẻm 132 Đ. 3 Tháng 2, Hưng Lợi, Ninh Kiều, Cần Thơ","Hưng Lợi, Ninh Kiều",172T Hẻm 132 Đ. 3 Tháng 2,Cần Thơ,,"Ninh Kiều, Cần Thơ",VN,"10.0195771,105.757616"
281,ChIJkU7rd2CJoDERSk3cJpK-f2w,Cần Thơ Furni - Nội Thất Cần Thơ,Cửa hàng nội thất,0977 311 860,"Cần Thơ Furni - Nội Thất Cần Thơ, 309 Đ. Hoàng Quốc Việt, An Bình, Ninh Kiều, Cần Thơ 900000","An Bình, Ninh Kiều",309 Đ. Hoàng Quốc Việt,Cần Thơ,900000.0,"Ninh Kiều, Cần Thơ",VN,"10.0191822,105.7417935"
282,ChIJK1zVxqBfoDERjLSsLINLuGM,Tủ Bếp Thông Minh Cần Thơ - Toàn Hưng Decor,Cửa hàng nội thất,0375 969 702,"Tủ Bếp Thông Minh Cần Thơ - Toàn Hưng Decor, 276 QL1A, Thường Thạnh, Cái Răng, Cần Thơ 90000","Thường Thạnh, Cái Răng",276 QL1A,Cần Thơ,90000.0,"Cái Răng, Cần Thơ",VN,"9.989187399999999,105.7494511"
283,ChIJpVJ2qB-IoDERW_B4UK6q0uE,Trung Tâm Phân Phối Vlxd - Trang Trí Nội Thất Hải Đăng,Cửa hàng nội thất,0292 3834 195,"Trung Tâm Phân Phối Vlxd - Trang Trí Nội Thất Hải Đăng, 17 Đ. Lý Tự Trọng, An Cư, Ninh Kiều, Cần Thơ","An Cư, Ninh Kiều",17 Đ. Lý Tự Trọng,Cần Thơ,,"Ninh Kiều, Cần Thơ",VN,"10.0345543,105.77922339999999"
306,ChIJ7aKDWwyIoDER9uLdiC5W2h8,NỘI THẤT PHÚC AN | Nội Thất & Đồ Gỗ Cao Cấp | Cần Thơ,Cửa hàng nội thất,0938 069 058,"NỘI THẤT PHÚC AN | Nội Thất & Đồ Gỗ Cao Cấp | Cần Thơ, 109 Đ. Nguyễn Đệ, An Hoà, Ninh Kiều, Cần Thơ","An Hoà, Ninh Kiều",109 Đ. Nguyễn Đệ,Cần Thơ,,"Ninh Kiều, Cần Thơ",VN,"10.0480926,105.76208589999999"
346,ChIJvRImK2GJoDER0GjRVpUrLm4,Showroom nội thất Tiến Khôi,Cửa hàng nội thất,0936 565 654,"Showroom nội thất Tiến Khôi, 91 Đ. Nguyễn Đệ, An Hoà, Ninh Kiều, Cần Thơ","An Hoà, Ninh Kiều",91 Đ. Nguyễn Đệ,Cần Thơ,,"Ninh Kiều, Cần Thơ",VN,"10.0481945,105.7628197"
347,ChIJ4ZL1c7mJoDERbhasbcJSKRU,Nội thất nhà phố,Cửa hàng nội thất,0933 680 889,"Nội thất nhà phố, 138h Đ. Nguyễn Văn Cừ, Phường An Khánh, Ninh Kiều, Cần Thơ 94000","Phường An Khánh, Ninh Kiều",138h Đ. Nguyễn Văn Cừ,Cần Thơ,94000.0,"Ninh Kiều, Cần Thơ",VN,"10.041616999999999,105.7629947"
348,ChIJcTb0zD-JoDERovE52iXRSkI,Nội thất Nam Long,Cửa hàng nội thất,0767 928 929,"Nội thất Nam Long, 200C LO, Long Tuyền, Bình Thủy, Cần Thơ","Long Tuyền, Bình Thủy",200C LO,Cần Thơ,,"Bình Thủy, Cần Thơ",VN,"10.0215993,105.738957"
354,ChIJtUUsex2JoDERD6ttAWPTcbc,Cửa Hàng Nội Thất Đại Quang,Cửa hàng nội thất,0706 377 879,"Cửa Hàng Nội Thất Đại Quang, 60D Đ. Mậu Thân, An Nghiệp, Ninh Kiều, Cần Thơ","An Nghiệp, Ninh Kiều",60D Đ. Mậu Thân,Cần Thơ,,"Ninh Kiều, Cần Thơ",VN,"10.0357927,105.7727335"
379,ChIJk1eqBTaIoDERFeI7eDjmqks,ANBINH PLAZA - Trung tâm thương mại hàng trang trí nội - ngoại thất AN BÌNH,Cửa hàng nội thất,0913 721 843,"ANBINH PLAZA - Trung tâm thương mại hàng trang trí nội - ngoại thất AN BÌNH, 129A/4 , Đường 3/2 ( nối dài) , KV 1 ,Phường An Bình, Hưng Lợi, Ninh Kiều, Cần Thơ 900930","Hưng Lợi, Ninh Kiều","129A/4 , Đường 3/2 ( nối dài) , KV 1 ,Phường An Bình",Cần Thơ,900930.0,"Ninh Kiều, Cần Thơ",VN,"10.0125233,105.7535415"
398,ChIJJ-DetKeHoDERNO0Fo0p-sMg,Nội Thất Thành Đô,Cửa hàng nội thất,0918 367 868,"Nội Thất Thành Đô, 19 Phạm Hữu Lầu, An Thới, Bình Thủy, Cần Thơ 94000","An Thới, Bình Thủy",19 Phạm Hữu Lầu,Cần Thơ,94000.0,"Bình Thủy, Cần Thơ",VN,"10.0554282,105.759721"
399,ChIJMTRl48yJoDERqBzaVhEI9i8,ZSOFA Cần Thơ - Bàn Ghế Sofa Và Nội Thất ZSOFA,Cửa hàng nội thất,0823 488 488,"ZSOFA Cần Thơ - Bàn Ghế Sofa Và Nội Thất ZSOFA, 139 Đ. Nguyễn Văn Cừ, An Hoà, Ninh Kiều, Cần Thơ","An Hoà, Ninh Kiều",139 Đ. Nguyễn Văn Cừ,Cần Thơ,,"Ninh Kiều, Cần Thơ",VN,"10.0493472,105.77136449999999"
400,ChIJN7dl5DeHoDERfjU0dho6FG4,Nội thất Hào Tín Cần Thơ,Cửa hàng nội thất,0911 597 211,"Nội thất Hào Tín Cần Thơ, 108/11/09 Trần Quang Diệu, P, Bình Thủy, Cần Thơ 94000","P, Bình Thủy",108/11/09 Trần Quang Diệu,Cần Thơ,94000.0,"Bình Thủy, Cần Thơ",VN,"10.057981,105.7558349"
401,ChIJU3nzfHuJoDER2zf7uxPzFao,Nội Thất Giá Kho Cần Thơ - Sofa - giường ngủ - bàn ghế ăn thông minh,Cửa hàng nội thất,0917 884 891,"Nội Thất Giá Kho Cần Thơ - Sofa - giường ngủ - bàn ghế ăn thông minh, 105, Đường 3/2, P. Hưng Lợi, Q. Ninh Kiều, TP. Cần Thien, Cần Thơ, 900000","Hưng Lợi, Cần Thơ","105, Đường 3/2, P. Hưng Lợi, Q. Ninh Kiều, TP. Cần Thien",Cần Thơ,900000.0,Cần Thơ,VN,"10.0167599,105.7610088"
402,ChIJ6zqr7T2JoDERrWAo5zuf1TU,Cửa Hàng Nội Thất Nhà Xinh,Nhà thiết kế nội thất,0937 770 069,"Cửa Hàng Nội Thất Nhà Xinh, C2 Đ. 30 Tháng 4, Xuân Khánh, Ninh Kiều, Cần Thơ","Xuân Khánh, Ninh Kiều",C2 Đ. 30 Tháng 4,Cần Thơ,,"Ninh Kiều, Cần Thơ",VN,"10.0261312,105.77406649999999"
403,ChIJP6RZ91CJoDERo8LicnMj5Nw,Nội Thất Hoàng Việt,Cửa hàng nội thất,0933 330 810,"Nội Thất Hoàng Việt, 139A/4 Nguyễn Văn Trường, An Bình, Ninh Kiều, Cần Thơ","An Bình, Ninh Kiều",139A/4 Nguyễn Văn Trường,Cần Thơ,,"Ninh Kiều, Cần Thơ",VN,"9.999658199999999,105.73505229999999"
481,ChIJKZVqZBCJoDEROE7hJ3tdIRE,Công ty TNHH Nội Thất TP,Cửa hàng nội thất trẻ em,0292 9999 981,"Công ty TNHH Nội Thất TP, 86 Đ. Cách Mạng Tháng 8, Cái Khế, Bình Thủy, Cần Thơ 94000","Cái Khế, Bình Thủy",86 Đ. Cách Mạng Tháng 8,Cần Thơ,94000.0,"Bình Thủy, Cần Thơ",VN,"10.0557026,105.7732731"
482,ChIJjbShcN5joDERRyogfwpFC0k,Coquin Decor - Nội Thất Kiểu Hàn,Cửa hàng nội thất,0939 536 594,"Coquin Decor - Nội Thất Kiểu Hàn, Đ. Nguyễn Bỉnh Khiêm, Cái Khế, Ninh Kiều, Cần Thơ","Cái Khế, Ninh Kiều",Đ. Nguyễn Bỉnh Khiêm,Cần Thơ,,"Ninh Kiều, Cần Thơ",VN,"10.043107,105.7838821"
483,ChIJO2fXPm2JoDERYC_orSL4QGs,Trang Trí Nội Thất Kiến Minh Phát,Cửa hàng nội thất,0966 991 994,"Trang Trí Nội Thất Kiến Minh Phát, 345 Võ Văn Kiệt, An Thới, Ninh Kiều, Cần Thơ","An Thới, Ninh Kiều",345 Võ Văn Kiệt,Cần Thơ,,"Ninh Kiều, Cần Thơ",VN,"10.0501475,105.7549499"
484,ChIJRW-2v5uJoDER1bvGlPK7R3w,Trường Phát - Tổng Kho Nội Thất Văn Phòng Cần Thơ,Cửa hàng nội thất văn phòng,0939 417 416,"Trường Phát - Tổng Kho Nội Thất Văn Phòng Cần Thơ, 325 Võ Văn Kiệt, An Thới, Bình Thủy, Cần Thơ","An Thới, Bình Thủy",325 Võ Văn Kiệt,Cần Thơ,,"Bình Thủy, Cần Thơ",VN,"10.0506472,105.7538581"
485,ChIJfRG-R_6JoDERxl_rvgUPiLk,Đồ gỗ cao cấp Cần Thơ,Cửa hàng nội thất,0963 627 539,"Đồ gỗ cao cấp Cần Thơ, 99b Hẻm 132 Đ. 3 Tháng 2, Hưng Lợi, Ninh Kiều, Cần Thơ 900000","Hưng Lợi, Ninh Kiều",99b Hẻm 132 Đ. 3 Tháng 2,Cần Thơ,900000.0,"Ninh Kiều, Cần Thơ",VN,"10.019687,105.75767619999999"
486,ChIJG7IyKYOJoDERqTHMmztDWrk,Trang Trí Nội Ngoại Thất Huỳnh Thảo,Cửa hàng gạch ốp lát,0901 389 997,"Trang Trí Nội Ngoại Thất Huỳnh Thảo, Số100, Tổ 10C, Kv4, Nguyễn Văn Cừ Nối Dài, An Bình, Ninh Kiều, Cần Thơ","An Bình, Ninh Kiều","Số100, Tổ 10C, Kv4, Nguyễn Văn Cừ Nối Dài",Cần Thơ,,"Ninh Kiều, Cần Thơ",VN,"10.0230324,105.74406719999999"
508,ChIJs6xh9aiJoDERuQg6mPBXuH8,Nội Thất Sài Gòn,Cửa hàng nội thất,0965 555 295,"Nội Thất Sài Gòn, 163 Nguyễn Văn Cừ Nối Dài, P, Ninh Kiều, Cần Thơ 900000","P, Ninh Kiều",163 Nguyễn Văn Cừ Nối Dài,Cần Thơ,900000.0,"Ninh Kiều, Cần Thơ",VN,"10.036690499999999,105.75792129999999"
540,ChIJ8QBAF5CJoDERuiACsjA17-Y,Nội Thất Cần Thơ Lrv (noithatcantho.com.vn),Cửa hàng nội thất,0907 075 128,"Nội Thất Cần Thơ Lrv (noithatcantho.com.vn), chung cư C, Mậu Thân, Ninh Kiều, Cần Thơ 920000","Mậu Thân, Ninh Kiều",chung cư C,Cần Thơ,920000.0,"Ninh Kiều, Cần Thơ",VN,"10.045252699999999,105.76487379999999"
541,ChIJ7edT9T-JoDERABAK8qpi1Is,Nội Thất Thiên Minh 2,Cửa hàng nội thất,0907 094 668,"Nội Thất Thiên Minh 2, Đ. Hoàng Quốc Việt, An Bình, Ninh Kiều, Cần Thơ","An Bình, Ninh Kiều",Đ. Hoàng Quốc Việt,Cần Thơ,,"Ninh Kiều, Cần Thơ",VN,"10.0245778,105.7427913"
542,ChIJ18VvM_ljoDERsxaDIrwx3VY,Nội Thất Thiên Minh Cần Thơ,Cửa hàng bán gỗ,0292 3891 978,"Nội Thất Thiên Minh Cần Thơ, 58 Đ. Trần Bình Trọng, An Phú, Ninh Kiều, Cần Thơ 902080","An Phú, Ninh Kiều",58 Đ. Trần Bình Trọng,Cần Thơ,902080.0,"Ninh Kiều, Cần Thơ",VN,"10.034542,105.77616359999999"
543,ChIJRYTnIUiHoDERH4cWsG_DgYg,Nội Thất Bảy Ngon Cần Thơ,Cửa hàng nội thất,0911 821 594,"Nội Thất Bảy Ngon Cần Thơ, Đối Diện Cty TNHH Hải Sản 404, Bình Thuỷ, Bình Thủy, Cần Thơ","Bình Thuỷ, Bình Thủy",Đối Diện Cty TNHH Hải Sản 404,Cần Thơ,,"Bình Thủy, Cần Thơ",VN,"10.0776542,105.7458405"
544,ChIJrSj4ObiJoDERbuUycWIougk,Nội Thất Ngọc Tân 3,Cửa hàng nội thất,0907 039 998,"2PWH+RP4 Nội Thất Ngọc Tân 3, QL91B, Long Tuyền, Ninh Kiều, Cần Thơ","Long Tuyền, Ninh Kiều","2PWH+RP4, QL91B",Cần Thơ,,"Ninh Kiều, Cần Thơ",VN,"10.046998799999999,105.7293552"
545,ChIJsYVELu6JoDERP2fSLD7JRcE,AN - Nội thất Hàn Quốc,Cửa hàng nội thất,,"AN - Nội thất Hàn Quốc, Số 456 Đ. 30 Tháng 4, Hưng Lợi, Ninh Kiều, Cần Thơ 900000","Hưng Lợi, Ninh Kiều",Số 456 Đ. 30 Tháng 4,Cần Thơ,900000.0,"Ninh Kiều, Cần Thơ",VN,"10.019318499999999,105.76775699999999"
546,ChIJRbj1XQJjoDERbMmYnXv8D1I,Nội thất miền Tây - Thiết bị vệ sinh giá tốt số 1 tại miền Tây,Cửa hàng nội thất,0907 140 676,"Nội thất miền Tây - Thiết bị vệ sinh giá tốt số 1 tại miền Tây, 20-22 Đ. Số 7, KDC Nông, Cái Răng, Cần Thơ 900000","KDC Nông, Cái Răng",20-22 Đ. Số 7,Cần Thơ,900000.0,"Cái Răng, Cần Thơ",VN,"10.0043209,105.79638"
568,ChIJUQiw-ahioDERzPDvSNMLy_o,Showroom Nội Thất Lợi Phát,Cửa hàng nội thất,7103761818,"Showroom Nội Thất Lợi Phát, 188E Trần Văn Khéo, Cái Khế, Ninh Kiều, Cần Thơ","Cái Khế, Ninh Kiều",188E Trần Văn Khéo,Cần Thơ,,"Ninh Kiều, Cần Thơ",VN,"10.0454955,105.78528999999999"
573,ChIJacFM5xKJoDER8D3UZO2bUKQ,Nội Thất Hoàng Gia Cần Thơ,Nhà thiết kế nội thất,0914 909 955,"Nội Thất Hoàng Gia Cần Thơ, 81 Đ. Nguyễn Hiền, Hưng Lợi, Ninh Kiều, Cần Thơ 94100","Hưng Lợi, Ninh Kiều",81 Đ. Nguyễn Hiền,Cần Thơ,94100.0,"Ninh Kiều, Cần Thơ",VN,"10.023742799999999,105.75693849999999"
574,ChIJCVXUEAOJoDERxZJl1JWF3Lg,Nội Thất Gỗ Đông Phát,Cửa hàng nội thất,0943 111 009,"Nội Thất Gỗ Đông Phát, 69A Đ. 3 Tháng 2, Hưng Lợi, Ninh Kiều, Cần Thơ","Hưng Lợi, Ninh Kiều",69A Đ. 3 Tháng 2,Cần Thơ,,"Ninh Kiều, Cần Thơ",VN,"10.0140707,105.7594542"
585,ChIJfdBnGUeJoDERMqehxFaIg2I,Nội Thất Xưởng Vũ-k(cần thơ),Cửa hàng nội thất văn phòng,0917 382 139,"Nội Thất Xưởng Vũ-k(cần thơ), QL1A, Ba Láng, Cái Răng, Cần Thơ 900000","Ba Láng, Cái Răng",QL1A,Cần Thơ,900000.0,"Cái Răng, Cần Thơ",VN,"9.9759535,105.74234849999999"
595,ChIJeRoWxFCIoDERUFoxJbDZofA,Nội Thất Tuyết Nguyên,Cửa hàng,0393 798 791,"Nội Thất Tuyết Nguyên, 203AA Nguyễn Văn Cừ Nối Dài, An Bình, Ninh Kiều, Cần Thơ","An Bình, Ninh Kiều",203AA Nguyễn Văn Cừ Nối Dài,Cần Thơ,,"Ninh Kiều, Cần Thơ",VN,"10.0240788,105.7456517"
596,ChIJDcngbK-JoDERLfzeboOXk6w,Cửa hàng nội thất Hồng Phát,Cửa hàng nội thất,0966 459 869,"Cửa hàng nội thất Hồng Phát, 557 Đường 30/04, Hưng Lợi, Ninh Kiều, Cần Thơ 900000","Hưng Lợi, Ninh Kiều",557 Đường 30/04,Cần Thơ,900000.0,"Ninh Kiều, Cần Thơ",VN,"10.0117432,105.7601136"
625,ChIJPSVQ50eIoDERFeVqHEuQNkM,Công Ty Tnhh Gỗ Nội Thất Nam Phát,Cửa hàng,,"Công Ty Tnhh Gỗ Nội Thất Nam Phát, 26 Đường B5, Khu dân cư 91B, Ninh Kiều, Cần Thơ","Khu dân cư 91B, Ninh Kiều",26 Đường B5,Cần Thơ,,"Ninh Kiều, Cần Thơ",VN,"10.023431,105.7572026"
662,ChIJa1CXVwOUtkYRmnbetu_SJEM,Nội Thất Thiên Mộc,Nhà thiết kế nội thất,0914 717 711,"Nội Thất Thiên Mộc, 15 B2, Khu dân cư 91B, Ninh Kiều, Cần Thơ 94000","Khu dân cư 91B, Ninh Kiều",15 B2,Cần Thơ,94000.0,"Ninh Kiều, Cần Thơ",VN,"10.0242477,105.7578898"
677,ChIJHW1cujCIoDERbk0Q3NP6jbM,Showroom nội thất Hoàng Phú,Cửa hàng nội thất,0915 777 378,"Showroom nội thất Hoàng Phú, 221 Đ. 3 Tháng 2, Hưng Lợi, Ninh Kiều, Cần Thơ","Hưng Lợi, Ninh Kiều",221 Đ. 3 Tháng 2,Cần Thơ,,"Ninh Kiều, Cần Thơ",VN,"10.0217149,105.76530439999999"
685,ChIJmZLaH3OJoDERAPpsPSTZE-E,Nội Thất Hoàng Anh Gia Lai,Cửa hàng đồ gỗ trang trí,0292 3767 393,"Nội Thất Hoàng Anh Gia Lai, 60A Đ. Mậu Thân, An Nghiệp, Ninh Kiều, Cần Thơ 900000","An Nghiệp, Ninh Kiều",60A Đ. Mậu Thân,Cần Thơ,900000.0,"Ninh Kiều, Cần Thơ",VN,"10.0358503,105.7729152"
687,ChIJu0vlhpGJoDERJB23kM2RzAE,Nội Thất An Vinh Cần Thơ,Cửa hàng nội thất,0939 750 668,"Nội Thất An Vinh Cần Thơ, 80 Đ. Cách Mạng Tháng 8, Cái Khế, Ninh Kiều, Cần Thơ 94107","Cái Khế, Ninh Kiều",80 Đ. Cách Mạng Tháng 8,Cần Thơ,94107.0,"Ninh Kiều, Cần Thơ",VN,"10.0483377,105.7772741"
702,ChIJg6f3MSOJoDER1cCIO5gOS1s,Nội thất 38 - bàn ghế văn phòng,Cửa hàng nội thất,0934 399 838,"Nội thất 38 - bàn ghế văn phòng, 100 Đường B30, Khu dân cư 91B, Ninh Kiều, Cần Thơ","Khu dân cư 91B, Ninh Kiều",100 Đường B30,Cần Thơ,,"Ninh Kiều, Cần Thơ",VN,"10.0212656,105.7537081"
716,ChIJG0RLyIaJoDERdadfO_ioZG4,Siêu Thị Điện Máy Nội Thất Chợ Lớn,Siêu thị,,"Siêu Thị Điện Máy Nội Thất Chợ Lớn, 307 Đ. Phạm Hùng, Lê Bình, Cái Răng, Cần Thơ 94000","Lê Bình, Cái Răng",307 Đ. Phạm Hùng,Cần Thơ,94000.0,"Cái Răng, Cần Thơ",VN,"9.997275199999999,105.74972249999999"
717,ChIJTUEf5h6IoDEROAF700CWBag,DNTN Nội Thất Bình Minh,Cửa hàng nội thất,0292 3731 235,"DNTN Nội Thất Bình Minh, 111 Đ. Đồng Văn Cống, An Thới, Bình Thủy, Cần Thơ","An Thới, Bình Thủy",111 Đ. Đồng Văn Cống,Cần Thơ,,"Bình Thủy, Cần Thơ",VN,"10.052773,105.7565312"
718,ChIJ31jxKtNjoDERLw9M7iy7y-w,Showroom Nội thất Kadecor,Cửa hàng nội thất,0907 043 336,"2Q5R+C8J Showroom Nội thất Kadecor, Đ. số 10, Khu dân cư Vạn Phong, Cái Răng, Cần Thơ","Khu dân cư Vạn Phong, Cái Răng","2Q5R+C8J, Đ. số 10",Cần Thơ,,"Cái Răng, Cần Thơ",VN,"10.008587799999999,105.79076669999999"
728,ChIJp4sqfciJoDERuShhscU7uSQ,Nội Thất Giá Xưởng Cần Thơ - The Nội,Cửa hàng nội thất,0997 529 179,"Nội Thất Giá Xưởng Cần Thơ - The Nội, 280C Đường Tạ Thị Phi, An Bình, Bình Thủy, Cần Thơ 900000","An Bình, Bình Thủy",280C Đường Tạ Thị Phi,Cần Thơ,900000.0,"Bình Thủy, Cần Thơ",VN,"10.0150224,105.7292789"
729,ChIJXeiXxTWIoDER1QzusV7QFVc,Cửa Hàng Nội Thất Xuân Tín,Cửa hàng bán dụng cụ sửa nhà,0292 3838 529,"Cửa Hàng Nội Thất Xuân Tín, 99 Đ. 3 Tháng 2, Hưng Lợi, Ninh Kiều, Cần Thơ","Hưng Lợi, Ninh Kiều",99 Đ. 3 Tháng 2,Cần Thơ,,"Ninh Kiều, Cần Thơ",VN,"10.0165025,105.76079589999999"
731,ChIJ7T-eBRyIoDER-5LQcc-6kmI,Cửa Hàng Trang Trí Nội Thất Anh Đô,Cửa hàng nội thất,0292 3833 755,"Cửa Hàng Trang Trí Nội Thất Anh Đô, 54 Đ. Trần Hưng Đạo, An Cư, Ninh Kiều, Cần Thơ","An Cư, Ninh Kiều",54 Đ. Trần Hưng Đạo,Cần Thơ,,"Ninh Kiều, Cần Thơ",VN,"10.0388818,105.7766432"
732,ChIJZTgnhQdjoDER6Il_uZC7BhU,BQHome - Nội thất Cao cấp,Cửa hàng nội thất,0787 575 888,"BQHome - Nội thất Cao cấp, CC, 014 Đ. Lý Thái Tổ, Lô B, Cái Răng, Cần Thơ","Lô B, Cái Răng","CC, 014 Đ. Lý Thái Tổ",Cần Thơ,,"Cái Răng, Cần Thơ",VN,"10.021014,105.78710819999999"
733,ChIJs2eAWfaJoDERFhUuU-TML14,Nội thất gỗ Dư Hoài,Cửa hàng đồ gỗ trang trí,0939 478 123,"Nội thất gỗ Dư Hoài, 165c Đ. Nguyễn Văn Cừ, Phường An Khánh, Ninh Kiều, Cần Thơ","Phường An Khánh, Ninh Kiều",165c Đ. Nguyễn Văn Cừ,Cần Thơ,,"Ninh Kiều, Cần Thơ",VN,"10.0372881,105.7585249"
734,ChIJ9YsPzJSJoDERYh5Nxf9w2Xs,"Cơ Sở Sản Xuất Đồ Gỗ, Nội Thất Bình Yên Cần Thơ",Cửa hàng nội thất,0978 696 889,"Cơ Sở Sản Xuất Đồ Gỗ, Nội Thất Bình Yên Cần Thơ, 32 Đ. Trương Vĩnh Nguyên, Thường Thạnh, Cái Răng, Cần Thơ","Thường Thạnh, Cái Răng",32 Đ. Trương Vĩnh Nguyên,Cần Thơ,,"Cái Răng, Cần Thơ",VN,"9.993663999999999,105.75833139999999"
735,ChIJawEYHHZjoDER0DYi6jdr20g,"Nội Thất Thanh Hà, Cần Thơ",Cửa hàng nội thất,,"Nội Thất Thanh Hà, Cần Thơ, 3E Chí Sinh, Tân Phú, Cái Răng, Cần Thơ 900000","Tân Phú, Cái Răng",3E Chí Sinh,Cần Thơ,900000.0,"Cái Răng, Cần Thơ",VN,"9.970222399999999,105.81112399999999"
771,ChIJRSzonz2JoDERK8oamvmj-mk,"Nội Thất, Đồ Gỗ Gia Hoà -Ngô Thị Thiện",Cửa hàng nội thất,0907 490 171,"Nội Thất, Đồ Gỗ Gia Hoà -Ngô Thị Thiện, Nguyễn Văn Cừ Nối Dài, Mỹ Khánh, Phong Điền, Cần Thơ 94000","Mỹ Khánh, Phong Điền",Nguyễn Văn Cừ Nối Dài,Cần Thơ,94000.0,"Phong Điền, Cần Thơ",VN,"9.993246599999999,105.71309819999999"
782,ChIJkXG3v_CJoDERnlCzzp8upUk,Cửa hàng nội thất Linh Huệ,Cửa hàng nội thất,0939 165 571,"Cửa hàng nội thất Linh Huệ, 544 Trần Hưng Đạo, Lê Bình, Cái Răng, Cần Thơ","Lê Bình, Cái Răng",544 Trần Hưng Đạo,Cần Thơ,,"Cái Răng, Cần Thơ",VN,"10.0026978,105.7519007"
798,ChIJY8m1wjaIoDERt0XlAkgkbBM,VLXD & TTNT Trường Giang,Cửa hàng vật liệu xây dựng,0292 3782 723,"VLXD & TTNT Trường Giang, 199c Đ. 3 Tháng 2, Hưng Lợi, Ninh Kiều, Cần Thơ","Hưng Lợi, Ninh Kiều",199c Đ. 3 Tháng 2,Cần Thơ,,"Ninh Kiều, Cần Thơ",VN,"10.0205149,105.7643027"
801,ChIJoTj0UDuIoDERVWdayodWBqw,Nội Thất ÂU-Á,Cửa hàng bán dụng cụ sửa nhà,0906 771 677,"Nội Thất ÂU-Á, 43A Đường Ba Tháng Hai, Xuân Khánh, Ninh Kiều, Cần Thơ","Xuân Khánh, Ninh Kiều",43A Đường Ba Tháng Hai,Cần Thơ,,"Ninh Kiều, Cần Thơ",VN,"10.027301,105.76970399999999"
810,ChIJRWAs0hWJoDER4YmJAo5pCSA,Showroom Nội Thất Phú Thuận,Cửa hàng nội thất,0828 399 978,"Showroom Nội Thất Phú Thuận, 229 Đ. 3 Tháng 2, Hưng Lợi, Ninh Kiều, Cần Thơ","Hưng Lợi, Ninh Kiều",229 Đ. 3 Tháng 2,Cần Thơ,,"Ninh Kiều, Cần Thơ",VN,"10.022585699999999,105.7660233"
816,ChIJk4b7mxSIoDER2Y-BD-QtByw,Cửa Hàng Trang Trí Nội Thất Minh Phú,Cửa hàng gạch ốp lát,,"Cửa Hàng Trang Trí Nội Thất Minh Phú, An Khánh, Ninh Kiều, Cần Thơ","An Khánh, Ninh Kiều",,Cần Thơ,,"Ninh Kiều, Cần Thơ",VN,"10.038702299999999,105.7604885"
818,ChIJDyVYh0GIoDERWKBa2H9uJG0,Công ty TNHH Nội Thất Trúc Vy,Cửa hàng nội thất,0292 3898 490,"Công ty TNHH Nội Thất Trúc Vy, 233 Nguyễn Văn Cừ Nối Dài, An Bình, Ninh Kiều, Cần Thơ","An Bình, Ninh Kiều",233 Nguyễn Văn Cừ Nối Dài,Cần Thơ,,"Ninh Kiều, Cần Thơ",VN,"10.0235551,105.74511079999999"
820,ChIJT0pHDiiIoDERyBXaxzeuFhw,Xưởng Sản Xuất Đồ Gỗ Lê Kiệp,Cửa hàng nội thất,0989 576 847,"2QCJ+VG7 Xưởng Sản Xuất Đồ Gỗ Lê Kiệp, Quang Trung, Cái Răng, Cần Thơ","Quang Trung, Cái Răng",2QCJ+VG7,Cần Thơ,,"Cái Răng, Cần Thơ",VN,"10.022164,105.7812932"
821,ChIJqdo3uwuJoDERNgBve-JpFEo,Cơ sở gỗ nội thất Hoàng Nguyên,Cửa hàng nội thất,0292 3933 240,"Cơ sở gỗ nội thất Hoàng Nguyên, 5 ĐT923, An Bình, Ninh Kiều, Cần Thơ","An Bình, Ninh Kiều",5 ĐT923,Cần Thơ,,"Ninh Kiều, Cần Thơ",VN,"9.9951452,105.7311773"
825,ChIJa-EEPrSJoDERZRDvrmrIc7g,Cửa hàng nội thất Tiến Nhanh,Cửa hàng đồ gia dụng,0963 630 302,"2Q62+Q78 Cửa hàng nội thất Tiến Nhanh, Đ. Trần Vĩnh Kiết, An Bình, Ninh Kiều, Cần Thơ","An Bình, Ninh Kiều","2Q62+Q78, Đ. Trần Vĩnh Kiết",Cần Thơ,,"Ninh Kiều, Cần Thơ",VN,"10.0119058,105.7507086"
831,ChIJoUwtaDiIoDER2B20C7a2ONA,Cửa Hàng Nội Thất Inox Gia Huy,Cửa hàng bán dụng cụ sửa nhà,0944 891 737,"2QG5+5C6 Cửa Hàng Nội Thất Inox Gia Huy, Đ. Nguyễn Văn Linh, Hưng Lợi, Ninh Kiều, Cần Thơ","Hưng Lợi, Ninh Kiều","2QG5+5C6, Đ. Nguyễn Văn Linh",Cần Thơ,,"Ninh Kiều, Cần Thơ",VN,"10.0254047,105.75851349999999"
838,ChIJF95KU_uJoDERkPtNaGV9Jnc,NỘI THẤT TRUNG TÍN,Cửa hàng nội thất,0292 3835 566,"NỘI THẤT TRUNG TÍN, 228r Đ. Trần Hưng Đạo, An Cư, Ninh Kiều, Cần Thơ","An Cư, Ninh Kiều",228r Đ. Trần Hưng Đạo,Cần Thơ,,"Ninh Kiều, Cần Thơ",VN,"10.033896499999999,105.77479509999999"
839,ChIJOaknBkSJoDERgcBZfzlNCjk,cửa hàng Nội Thất Du,Cửa hàng nội thất,0907 316 998,"cửa hàng Nội Thất Du, 1 Đ. Trần Văn Hoài, Xuân Khánh, Ninh Kiều, Cần Thơ 900000","Xuân Khánh, Ninh Kiều",1 Đ. Trần Văn Hoài,Cần Thơ,900000.0,"Ninh Kiều, Cần Thơ",VN,"10.024938299999999,105.7732844"
840,ChIJW4ta9I-JoDERrY3hBcGslEQ,showroom sàn gỗ - nội thất Minh Triết,Cửa hàng nội thất,0932 894 595,"showroom sàn gỗ - nội thất Minh Triết, 43A Đ. Mậu Thân, Xuân Khánh, Ninh Kiều, Cần Thơ","Xuân Khánh, Ninh Kiều",43A Đ. Mậu Thân,Cần Thơ,,"Ninh Kiều, Cần Thơ",VN,"10.0291684,105.7763851"
841,ChIJE4hHvmqIoDERTymNhshNl_E,DNTN Trang Trí Nội Thất Hoàng Giang,Nhà thầu thi công nội thất,0292 3918 275,"DNTN Trang Trí Nội Thất Hoàng Giang, 327, Nguyễn Văn Cừ, Quận Ninh Kiều, Phường An Khánh, Ninh Kiều, Cần Thơ","Phường An Khánh, Ninh Kiều","327, Nguyễn Văn Cừ, Quận Ninh Kiều",Cần Thơ,,"Ninh Kiều, Cần Thơ",VN,"10.0349919,105.7572182"
842,ChIJyZBb3lCIoDERBiN8bMQI2FQ,Cửa Hàng Nội Thất Gỗ Việt Nhung,Cửa hàng nội thất,0916 277 799,"Cửa Hàng Nội Thất Gỗ Việt Nhung, 393AA Nguyễn Văn Cừ Nối Dài, An Bình, Ninh Kiều, Cần Thơ","An Bình, Ninh Kiều",393AA Nguyễn Văn Cừ Nối Dài,Cần Thơ,,"Ninh Kiều, Cần Thơ",VN,"10.021254599999999,105.74226469999999"
843,ChIJVScJDiSJoDERxtPvJorjzgc,TRANG TRÍ NỘI THẤT KIM LỘC,Cửa hàng đồ gỗ trang trí,,"TRANG TRÍ NỘI THẤT KIM LỘC, 131 Đ. Lý Tự Trọng, An Phú, Ninh Kiều, Cần Thơ","An Phú, Ninh Kiều",131 Đ. Lý Tự Trọng,Cần Thơ,,"Ninh Kiều, Cần Thơ",VN,"10.036715899999999,105.7771818"
844,ChIJ4-V4sSWIoDER34hInFtdy7I,Trung Tâm Nội Thất Nội Thất Bích Duyên,Cửa hàng nội thất,0292 3832 470,"Trung Tâm Nội Thất Nội Thất Bích Duyên, 50 Đ. Lý Tự Trọng, P, Ninh Kiều, Cần Thơ","P, Ninh Kiều",50 Đ. Lý Tự Trọng,Cần Thơ,,"Ninh Kiều, Cần Thơ",VN,"10.034889399999999,105.7793062"
867,ChIJIV9duQKJoDERep6dXr5QToc,Ngô Gia 2,Cửa hàng nội thất,,"Ngô Gia 2, 398h Đ. Nguyễn Văn Cừ, Phường An Khánh, Ninh Kiều, Cần Thơ","Phường An Khánh, Ninh Kiều",398h Đ. Nguyễn Văn Cừ,Cần Thơ,,"Ninh Kiều, Cần Thơ",VN,"10.0354978,105.7572326"
869,ChIJO8yVv0GIoDERwyjjSLUOPfU,Cửa Hàng Nội Thất Đại Phát 372,Cửa hàng nội thất,0917 614 589,"Cửa Hàng Nội Thất Đại Phát 372, 372 Nguyễn Văn Cừ Nối Dài, Phường An Khánh, Ninh Kiều, Cần Thơ","Phường An Khánh, Ninh Kiều",372 Nguyễn Văn Cừ Nối Dài,Cần Thơ,,"Ninh Kiều, Cần Thơ",VN,"10.032741999999999,105.7543948"
872,ChIJEdFWwEGIoDERkNuNHOzvUD8,Showroom Nội Thất Khang Thành,Cửa hàng bán dụng cụ sửa nhà,,"Showroom Nội Thất Khang Thành, 140 Đ. Nguyễn Văn Cừ, Phường An Khánh, Ninh Kiều, Cần Thơ","Phường An Khánh, Ninh Kiều",140 Đ. Nguyễn Văn Cừ,Cần Thơ,,"Ninh Kiều, Cần Thơ",VN,"10.032986099999999,105.7547269"
873,ChIJ03YeGASIoDERj-NTKSSqYzE,Cửa Hàng Vật Liệu Xây Dựng Và Trang Trí Nội Thất Cao Phúc,Cửa hàng vật liệu xây dựng,0292 3896 465,"Cửa Hàng Vật Liệu Xây Dựng Và Trang Trí Nội Thất Cao Phúc, 36/48, Trần Việt Châu, Quận Ninh Kiều, TP Cần Thơ","Thới Bình, Ninh Kiều","36/48, Trần Việt Châu, Quận Ninh Kiều, TP Cần Thơ",Cần Thơ,,"Ninh Kiều, Cần Thơ",VN,"10.0485572,105.7748008"
874,ChIJifJUkpmJoDERfo7SSkcaeKs,Nội thất Tâm Tín Nghĩa,Nhà thiết kế nội thất,0963 273 717,"Nội thất Tâm Tín Nghĩa, TP, 470 Võ Văn Kiệt, An Thới, Bình Thủy, Cần Thơ 94213","An Thới, Bình Thủy","TP, 470 Võ Văn Kiệt",Cần Thơ,94213.0,"Bình Thủy, Cần Thơ",VN,"10.0514624,105.7536894"
889,ChIJJdJohTsD9WIRtiVYg8OSjmI,Thế Giới Nội Thất Hoàn Mỹ - Cần Thơ,Cửa hàng nội thất,0974 544 644,,,,,,,,"10.034187,105.75757039999999"
896,ChIJzUISt5eJoDERWBphQSnQNzE,Cửa hàng gỗ nội thất Vĩnh Phát - Showroom Nội Thất Gỗ Nguyên Khối,Cửa hàng,0917 979 838,"Cửa hàng gỗ nội thất Vĩnh Phát - Showroom Nội Thất Gỗ Nguyên Khối, 187C Đ. Trần Vĩnh Kiết, An Bình, Ninh Kiều, Cần Thơ","An Bình, Ninh Kiều",187C Đ. Trần Vĩnh Kiết,Cần Thơ,,"Ninh Kiều, Cần Thơ",VN,"10.0169383,105.7503807"
904,ChIJb3WUK0WIoDERHE9EqagU_L0,Cửa Hàng Vật Liệu Xây Dựng & Trang Trí Nội Thất Hùng Cẩm II,Cửa hàng vật liệu xây dựng,,"Cửa Hàng Vật Liệu Xây Dựng & Trang Trí Nội Thất Hùng Cẩm II, 28 Nguyễn Văn Cừ Nối Dài, An Bình, Ninh Kiều, Cần Thơ","An Bình, Ninh Kiều",28 Nguyễn Văn Cừ Nối Dài,Cần Thơ,,"Ninh Kiều, Cần Thơ",VN,"10.025896999999999,105.7469627"
934,ChIJCcF9soeJoDERqpnTdMtPqGA,KỆ BẾP GIA HUY CẦN THƠ,Cửa hàng nội thất,,"KỆ BẾP GIA HUY CẦN THƠ, 171 Đ. 3 Tháng 2, Hưng Lợi, Ninh Kiều, Cần Thơ","Hưng Lợi, Ninh Kiều",171 Đ. 3 Tháng 2,Cần Thơ,,"Ninh Kiều, Cần Thơ",VN,"10.0192599,105.76322689999999"
936,ChIJ9ZJZ2DaIoDERu9R3TyK4xBU,Cửa Hàng Vlxd - Trang Trí Nội Thất Đông Tiến,Cửa hàng vật liệu xây dựng,0292 3830 857,"Cửa Hàng Vlxd - Trang Trí Nội Thất Đông Tiến, 183 Đ. 3 Tháng 2, Hưng Lợi, Ninh Kiều, Cần Thơ","Hưng Lợi, Ninh Kiều",183 Đ. 3 Tháng 2,Cần Thơ,,"Ninh Kiều, Cần Thơ",VN,"10.0196854,105.76359629999999"
953,ChIJQ11uQyGIoDERH9h7kaNR0d4,Cửa Hàng Nội Thất Phương Trúc,Cửa hàng bán dụng cụ sửa nhà,0292 3739 521,"Cửa Hàng Nội Thất Phương Trúc, Tp, 2E Đ. Mậu Thân, Xuân Khánh, Ninh Kiều, Cần Thơ","Xuân Khánh, Ninh Kiều","Tp, 2E Đ. Mậu Thân",Cần Thơ,,"Ninh Kiều, Cần Thơ",VN,"10.028505299999999,105.77704639999999"
968,ChIJlQ1hVv-HoDERFgtplsjPvZM,Cửa Hàng Trang Trí Nội Thất Gia Lâm,Cửa hàng nội thất,0936 448 187,"Cửa Hàng Trang Trí Nội Thất Gia Lâm, 31 Đ. Nguyễn Văn Cừ, Cái Khế, Ninh Kiều, Cần Thơ","Cái Khế, Ninh Kiều",31 Đ. Nguyễn Văn Cừ,Cần Thơ,,"Ninh Kiều, Cần Thơ",VN,"10.059315999999999,105.781898"
969,ChIJjdeLVP6HoDERuKINquH5Dzg,Showroom Trang Trí Nội Thất - Vlxd Phát Đạt,Cửa hàng bán dụng cụ sửa nhà,0292 2482 279,"3Q4H+PJX Showroom Trang Trí Nội Thất - Vlxd Phát Đạt, Cồn Khương, Cái Khế, Ninh Kiều, Cần Thơ","Cái Khế, Ninh Kiều","3Q4H+PJX, Cồn Khương",Cần Thơ,,"Ninh Kiều, Cần Thơ",VN,"10.0568596,105.7791012"
970,ChIJlwybGf6HoDERcsfAYk8nEp4,Công Ty Cổ Phần Nội Thất Kcd,Cửa hàng bán dụng cụ sửa nhà,,"Công Ty Cổ Phần Nội Thất Kcd, 60 Đ. Nguyễn Văn Cừ, KV3 Cồn Khương, Ninh Kiều, Cần Thơ","KV3 Cồn Khương, Ninh Kiều",60 Đ. Nguyễn Văn Cừ,Cần Thơ,,"Ninh Kiều, Cần Thơ",VN,"10.0555899,105.77781979999999"
971,ChIJxfB3uauHoDER_mnL6nil2Sw,Trung Tâm Nội Thất Hoàng Gia PRO,Cửa hàng nội thất,,"Trung Tâm Nội Thất Hoàng Gia PRO, 75 Đ. Cách Mạng Tháng 8, An Thới, Bình Thủy, Cần Thơ","An Thới, Bình Thủy",75 Đ. Cách Mạng Tháng 8,Cần Thơ,,"Bình Thủy, Cần Thơ",VN,"10.0637784,105.761476"
972,ChIJ8wOmEx-IoDERFvj7CmEYgHg,Cửa Hàng Trang Trí Nội Thất Ngọc Hải 2,Cửa hàng nội thất,7103830411,"Cửa Hàng Trang Trí Nội Thất Ngọc Hải 2, 52 Đ. Trần Bình Trọng, An Phú, Ninh Kiều, Cần Thơ","An Phú, Ninh Kiều",52 Đ. Trần Bình Trọng,Cần Thơ,,"Ninh Kiều, Cần Thơ",VN,"10.0343479,105.7781684"
973,ChIJo2tKZp9ioDEROXQvXLAIQBU,Trung Tâm Hàng Nội Thất Hải Sơn,Cửa hàng nội thất,0292 3830 135,"Trung Tâm Hàng Nội Thất Hải Sơn, 9 Đ. Nam Kỳ Khởi Nghĩa, Tân An, Ninh Kiều, Cần Thơ","Tân An, Ninh Kiều",9 Đ. Nam Kỳ Khởi Nghĩa,Cần Thơ,,"Ninh Kiều, Cần Thơ",VN,"10.0318437,105.7861245"
974,ChIJ1X9AthOIoDERAo-ggH7RD_Q,Cửa Hàng Đồ Gỗ Thảo My,Cửa hàng nội thất,0973 752 503,"Cửa Hàng Đồ Gỗ Thảo My, 745 Đ. Nguyễn Văn Cừ, Phường An Khánh, Ninh Kiều, Cần Thơ","Phường An Khánh, Ninh Kiều",745 Đ. Nguyễn Văn Cừ,Cần Thơ,,"Ninh Kiều, Cần Thơ",VN,"10.04119,105.7629932"
975,ChIJIfZVP8SJoDERTM8r6ZCKuTs,Xưởng nội thất TP -CN Cần Thơ 0939582658,Cửa hàng nội thất,,"2PRW+F39 Xưởng nội thất TP -CN Cần Thơ 0939582658, Đường Trần Văn Long, KDC Cửu Long, Bình Thủy, Cần Thơ","KDC Cửu Long, Bình Thủy","2PRW+F39, Đường Trần Văn Long",Cần Thơ,,"Bình Thủy, Cần Thơ",VN,"10.041161899999999,105.74523119999999"
976,ChIJNzk1ep9ioDERHltEaVemIck,Cửa Hàng Nội Thất Ngô Gia 4,Cửa hàng nội thất,0846 739 139,"Cửa Hàng Nội Thất Ngô Gia 4, 26 Đ. Nam Kỳ Khởi Nghĩa, Tân An, Ninh Kiều, Cần Thơ","Tân An, Ninh Kiều",26 Đ. Nam Kỳ Khởi Nghĩa,Cần Thơ,,"Ninh Kiều, Cần Thơ",VN,"10.031996999999999,105.785361"
977,ChIJDXkPyViJoDERzsjFDjzarWM,Thế Giới Nội Thất Hoàn Mỹ - Cần Thơ,Cửa hàng nội thất,0933 823 682,"Thế Giới Nội Thất Hoàn Mỹ - Cần Thơ, 372 Đ. Nguyễn Văn Cừ, Phường An Khánh, Ninh Kiều, Cần Thơ","Phường An Khánh, Ninh Kiều",372 Đ. Nguyễn Văn Cừ,Cần Thơ,,"Ninh Kiều, Cần Thơ",VN,"10.0324992,105.75430379999999"
978,ChIJIZ62ip2HoDER23kcuqUuEZE,Nội Thất Toàn Thịnh Cần Thơ,Cửa hàng nội thất,0983 272 293,"Nội Thất Toàn Thịnh Cần Thơ, 95 Đ. Cách Mạng Tháng 8, Bùi Hữu Nghĩa, Bình Thủy, Cần Thơ 900000","Bùi Hữu Nghĩa, Bình Thủy",95 Đ. Cách Mạng Tháng 8,Cần Thơ,900000.0,"Bình Thủy, Cần Thơ",VN,"10.068015899999999,105.7572539"
979,ChIJtUpZkBmIoDERxIOt0-I2wsQ,Công Ty TNHH MTV TM TH Sông Xanh xưởng gỗ nội thất,Cửa hàng nội thất,0901 214 949,"Công Ty TNHH MTV TM TH Sông Xanh xưởng gỗ nội thất, 78 2A, Ninh Kiều, Cần Thơ 900000","An Cư, Ninh Kiều",78 2A,Cần Thơ,900000.0,"Ninh Kiều, Cần Thơ",VN,"10.0409357,105.7748783"
980,ChIJ8ew1-JKJoDERUefK-6ByS6U,nội thất minh phú,Cửa hàng nội thất,0939 348 360,"nội thất minh phú, 138 Nguyễn Văn Cừ Nối Dài, Phường An Khánh, Ninh Kiều, Cần Thơ","Phường An Khánh, Ninh Kiều",138 Nguyễn Văn Cừ Nối Dài,Cần Thơ,,"Ninh Kiều, Cần Thơ",VN,"10.030475899999999,105.7520322"
981,ChIJb7P93kOIoDERlfFN4PuHIJg,Cửa Hàng Nội Thất Quý Khá,Cửa hàng nội thất,0906 901 223,"Cửa Hàng Nội Thất Quý Khá, 339, Nguyễn Văn Linh, Phường An Khánh, Quận Ninh Kiều, Thành Phố Cần Thơ, Phường An Khánh, Ninh Kiều, Cần Thơ","Phường An Khánh, Ninh Kiều","339, Nguyễn Văn Linh, Phường An Khánh, Quận Ninh Kiều, Thành Phố Cần Thơ",Cần Thơ,,"Ninh Kiều, Cần Thơ",VN,"10.032945,105.74901899999999"
982,ChIJDeT7OmOJoDERBdFd_pyR4mg,Cơ sở gia công lắp ráp Nội & Ngoại Thất LOUIS Furniture,Cửa hàng nội thất,0942 146 039,"Cơ sở gia công lắp ráp Nội & Ngoại Thất LOUIS Furniture, Cầu Hưng Lợi, Đ. Nguyễn Văn Linh, Hưng Phú, Cái Răng, Cần Thơ","Hưng Phú, Cái Răng","Cầu Hưng Lợi, Đ. Nguyễn Văn Linh",Cần Thơ,,"Cái Răng, Cần Thơ",VN,"10.0162405,105.7759099"
983,ChIJqRfdWySIoDER6YmmlOHOkJw,Cửa Hàng Nội Thất Nhà Xinh,Cửa hàng nội thất,0834 464 969,"Cửa Hàng Nội Thất Nhà Xinh, 25A Đ. Trần Khánh Dư, Xuân Khánh, Ninh Kiều, Cần Thơ","Xuân Khánh, Ninh Kiều",25A Đ. Trần Khánh Dư,Cần Thơ,,"Ninh Kiều, Cần Thơ",VN,"10.025854599999999,105.77367249999999"
984,ChIJsbH02COIoDERtMvHkUf2loY,Nội Thất Nệm Thành Phát,Cửa hàng nội thất,0937 527 475,"Nội Thất Nệm Thành Phát, 51 Đ. Mậu Thân, Xuân Khánh, Ninh Kiều, Cần Thơ","Xuân Khánh, Ninh Kiều",51 Đ. Mậu Thân,Cần Thơ,,"Ninh Kiều, Cần Thơ",VN,"10.0292018,105.77597899999999"
985,ChIJV71DUt6HoDERyhyOtdfwIaE,Cửa Hàng Nội Thất Nguyễn Thành,Nhà thiết kế nội thất,0292 6250 741,"Cửa Hàng Nội Thất Nguyễn Thành, 134B, Trần Quang Diệu, Phường An Thới, Quận Bình Thủy, An Thới, Bình Thủy, Cần Thơ","An Thới, Bình Thủy","134B, Trần Quang Diệu, Phường An Thới, Quận Bình Thủy",Cần Thơ,,"Bình Thủy, Cần Thơ",VN,"10.0584893,105.7562543"
986,ChIJn4cJzEOIoDERmPJF5mHYbpQ,Cửa Hàng Trang Trí Nội Thất Hoàng Phi,Cửa hàng nội thất,0292 2472 376,"Cửa Hàng Trang Trí Nội Thất Hoàng Phi, 298/9, Quốc Lộ 91B, phường An Khánh, quận Bình Thủy, Phường An Khánh, Ninh Kiều, Cần Thơ","Phường An Khánh, Ninh Kiều","298/9, Quốc Lộ 91B, phường An Khánh, quận Bình Thủy",Cần Thơ,,"Ninh Kiều, Cần Thơ",VN,"10.0311038,105.75163099999999"
987,ChIJf8ShOiiIoDER6xMpyPJe0w4,Nội Thất Hàng Nga,Cửa hàng nội thất,,"2Q9J+WF8 Nội Thất Hàng Nga, Quang Trung, Ninh Kiều, Cần Thơ","Quang Trung, Ninh Kiều",2Q9J+WF8,Cần Thơ,,"Ninh Kiều, Cần Thơ",VN,"10.0197934,105.7812033"
988,ChIJcdlvT2OJoDERknBD1YqeDJ8,trang trí nội thất phan gia,Cửa hàng nội thất,0813 815 666,"trang trí nội thất phan gia, 81 Đ. 3 Tháng 2, Hưng Lợi, Ninh Kiều, Cần Thơ","Hưng Lợi, Ninh Kiều",81 Đ. 3 Tháng 2,Cần Thơ,,"Ninh Kiều, Cần Thơ",VN,"10.015590699999999,105.7600671"
989,ChIJOZH-3XWJoDERw6rspckAx6s,Showroom Trang trí nội thất Triều Phát,Cửa hàng đồ gia dụng,,"Showroom Trang trí nội thất Triều Phát, 29A Đ. Mậu Thân, An Nghiệp, Ninh Kiều, Cần Thơ","An Nghiệp, Ninh Kiều",29A Đ. Mậu Thân,Cần Thơ,,"Ninh Kiều, Cần Thơ",VN,"10.0404149,105.76823669999999"
990,ChIJ-1YiF8aJoDERZYtBZ7m-9YA,Showroom đồ gỗ Tùng Bách,Cửa hàng nội thất,0342 551 568,"Showroom đồ gỗ Tùng Bách, 331 Đ. Nguyễn Văn Linh, Phường An Khánh, Ninh Kiều, Cần Thơ 900000","Phường An Khánh, Ninh Kiều",331 Đ. Nguyễn Văn Linh,Cần Thơ,900000.0,"Ninh Kiều, Cần Thơ",VN,"10.0271475,105.7568038"
991,ChIJ7_IdMX1ioDERM-8wa2omaQE,Trang trí Nội thất Hải Toàn,Cửa hàng nội thất,0903 960 375,"2Q5V+C8W Trang trí Nội thất Hải Toàn, Khu Vực 11, Cái Răng, Cần Thơ","Khu Vực 11, Cái Răng",2Q5V+C8W,Cần Thơ,,"Cái Răng, Cần Thơ",VN,"10.0086087,105.79332009999999"
992,ChIJZ-okDq6JoDERAAUbmTlfx8Y,NỘI THẤT GỔ VIỆT NAM,Cửa hàng nội thất,0907 421 404,"NỘI THẤT GỔ VIỆT NAM, 27 đường Lộ Vòng Cung, An Bình, Ninh Kiều, Cần Thơ","An Bình, Ninh Kiều",27 đường Lộ Vòng Cung,Cần Thơ,,"Ninh Kiều, Cần Thơ",VN,"10.0066138,105.74577839999999"
993,ChIJRbxSrauJoDERxFwtwgfs1zw,Cửa hàng decor Nguyên Gỗ,Cửa hàng nội thất,0901 007 579,"Cửa hàng decor Nguyên Gỗ, 47 Đường Trần Minh Sơn, Phường An Khánh, Ninh Kiều, Cần Thơ","Phường An Khánh, Ninh Kiều",47 Đường Trần Minh Sơn,Cần Thơ,,"Ninh Kiều, Cần Thơ",VN,"10.0385805,105.75082019999999"
994,ChIJI94cZAmJoDERTavIRtRTZTE,Nội thất TP,Nhà thiết kế nội thất,0939 582 658,"Nội thất TP, 200 Tầm Vu, Hưng Lợi, Ninh Kiều, Cần Thơ 900000","Hưng Lợi, Ninh Kiều",200 Tầm Vu,Cần Thơ,900000.0,"Ninh Kiều, Cần Thơ",VN,"10.012097299999999,105.7697441"
995,ChIJ7UFbhKCJoDERB_g-_kcXK9A,Cửa Hàng Nội Thất Gỗ Dkl,Cửa hàng nội thất,0917 979 838,"Cửa Hàng Nội Thất Gỗ Dkl, 27A1/1B, Lộ Vòng Cung, An Bình, Ninh Kiều, Cần Thơ","An Bình, Ninh Kiều","27A1/1B, Lộ Vòng Cung",Cần Thơ,,"Ninh Kiều, Cần Thơ",VN,"9.9946422,105.73567709999999"
996,ChIJq-SKYUhjoDERwOLOAG4liro,Thiết Kế Thi Công Nội Thất Miền Decor,Nhà thiết kế nội thất,0566 632 800,"Thiết Kế Thi Công Nội Thất Miền Decor, Khu Dân Cư, Điện Lực, Hưng Phú, Cái Răng, Cần Thơ 94900","Hưng Phú, Cái Răng","Khu Dân Cư, Điện Lực",Cần Thơ,94900.0,"Cái Răng, Cần Thơ",VN,"10.0237391,105.79279799999999"
997,ChIJbaIFF5qJoDERJlAIumN5cIU,"ĐỒ GỖ "" Nguyễn Xứng"" CẦN THƠ",Cửa hàng nội thất,0939 222 388,"ĐỒ GỖ "" Nguyễn Xứng"" CẦN THƠ, 32/1 Đường 3/2 nối dài, An Bình, Ninh Kiều, Cần Thơ","An Bình, Ninh Kiều",32/1 Đường 3/2 nối dài,Cần Thơ,,"Ninh Kiều, Cần Thơ",VN,"10.0086319,105.75002819999999"
998,ChIJTcrEOmCGoDEReJ1uIljg6Ms,Trang Trí Nội Thất Mỹ Linh 2,Cửa hàng nội thất,0292 3863 979,"Trang Trí Nội Thất Mỹ Linh 2, 7/11, Quốc Lộ 91, Phường Phước Thới, Quận Ô Môn, Thành Phố Cần Thơ, Trà Nóc, Bình Thủy, Cần Thơ","Trà Nóc, Bình Thủy","7/11, Quốc Lộ 91, Phường Phước Thới, Quận Ô Môn, Thành Phố Cần Thơ",Cần Thơ,,"Bình Thủy, Cần Thơ",VN,"10.1002341,105.70927979999999"
999,ChIJh7PJ-8yJoDER4s6UJEGlElY,Công Ty Tnhh Trang Trí Nội Thất Thành Phát,Nhà thiết kế nội thất,0292 3832 571,"Công Ty Tnhh Trang Trí Nội Thất Thành Phát, 151/60D Đ. Trần Hoàng Na, Hưng Lợi, Ninh Kiều, Cần Thơ","Hưng Lợi, Ninh Kiều",151/60D Đ. Trần Hoàng Na,Cần Thơ,,"Ninh Kiều, Cần Thơ",VN,"10.0094408,105.7669458"
1000,ChIJB8mb1UGIoDERIejIU7IcvRQ,Cửa Hàng Trang Trí Nội Thất Nguyễn Tường,Cửa hàng nội thất,,"Cửa Hàng Trang Trí Nội Thất Nguyễn Tường, 399 Đ. Nguyễn Văn Cừ, Phường An Khánh, Ninh Kiều, Cần Thơ","Phường An Khánh, Ninh Kiều",399 Đ. Nguyễn Văn Cừ,Cần Thơ,,"Ninh Kiều, Cần Thơ",VN,"10.0347454,105.75654709999999"
1001,ChIJqaG5hKCJoDERXjLD4Mq1jsE,Nội Thất Gỗ Nguyên Khối,Cửa hàng nội thất,0917 979 838,"Nội Thất Gỗ Nguyên Khối, 27A1 Lộ Vòng Cung, An Bình, Ninh Kiều, Cần Thơ","An Bình, Ninh Kiều",27A1 Lộ Vòng Cung,Cần Thơ,,"Ninh Kiều, Cần Thơ",VN,"9.93691,105.86343079999999"
1002,ChIJ2SF1AdaJoDERowahZhA9xVs,Mộc Phong Thủy - Đồ Gỗ Sơn Đông,Cửa hàng nội thất,,"Mộc Phong Thủy - Đồ Gỗ Sơn Đông, 368 Đ. Nguyễn Văn Linh, Phường An Khánh, Ninh Kiều, Cần Thơ","Phường An Khánh, Ninh Kiều",368 Đ. Nguyễn Văn Linh,Cần Thơ,,"Ninh Kiều, Cần Thơ",VN,"10.024811399999999,105.7602139"
1003,ChIJ21UjkUKboDERP4pFR7BPlqE,nội thất cần thơ,Cửa hàng nội thất,,"3H85+4MV nội thất cần thơ, TT. Thới Lai, Ninh Kiều, Cần Thơ","TT. Thới Lai, Ninh Kiều",3H85+4MV,Cần Thơ,,"Ninh Kiều, Cần Thơ",VN,"10.0653548,105.5591675"
1012,ChIJ__9TGKBioDERascvURHISoo,Công Ty TNHH Kiến Trúc - Nội Thất NP 3D Studio,Cửa hàng nội thất,0984 278 681,"Công Ty TNHH Kiến Trúc - Nội Thất NP 3D Studio, 7 Đ. Đề Thám, Tân An, Ninh Kiều, Cần Thơ","Tân An, Ninh Kiều",7 Đ. Đề Thám,Cần Thơ,,"Ninh Kiều, Cần Thơ",VN,"10.033081,105.78337429999999"
1027,ChIJGXDpDahioDERQoofgzzdLr8,Hệ Thống Siêu Thị Điện Máy - Nội Thất Chợ Lớn,Cửa hàng thiết bị điện,0917 146 548,"Hệ Thống Siêu Thị Điện Máy - Nội Thất Chợ Lớn, 108, Trần Văn Khéo, Phường Cái Khế, Quận Ninh Kiều, An Hội, Ninh Kiều, Cần Thơ","An Hội, Ninh Kiều","108, Trần Văn Khéo, Phường Cái Khế, Quận Ninh Kiều",Cần Thơ,,"Ninh Kiều, Cần Thơ",VN,"10.0440039,105.78323359999999"
1034,ChIJ5fXr3edjoDEREqic74BE6kk,Nội thất Mạnh Phát,Cửa hàng nội thất,,"Nội thất Mạnh Phát, 34 Đ. A2, KDC Hưng Phú 1, Cái Răng, Cần Thơ","KDC Hưng Phú 1, Cái Răng",34 Đ. A2,Cần Thơ,,"Cái Răng, Cần Thơ",VN,"10.0219334,105.7856588"
1080,ChIJAZ1-pH2JoDEROQiv1ayQXEQ,Cửa hàng nội thất thờ TÂM THỊNH KHANG,Cửa hàng nội thất,0942 100 607,"Cửa hàng nội thất thờ TÂM THỊNH KHANG, 1/8, Đ. Mậu Thân, Xuân Khánh, Ninh Kiều, Cần Thơ","Xuân Khánh, Ninh Kiều","1/8, Đ. Mậu Thân",Cần Thơ,,"Ninh Kiều, Cần Thơ",VN,"10.037808499999999,105.7710101"
1083,ChIJkQaZFhyIoDERhXF9Xn7Q52A,Binh Minh Interior Store,Cửa hàng bán dụng cụ sửa nhà,0292 6250 262,"Binh Minh Interior Store, 29A Đ. Trần Hưng Đạo, An Cư, Ninh Kiều, Cần Thơ","An Cư, Ninh Kiều",29A Đ. Trần Hưng Đạo,Cần Thơ,,"Ninh Kiều, Cần Thơ",VN,"10.039476299999999,105.777244"
1089,ChIJYaAjvwSIoDERjgM9OO8cRFE,Công Ty Tnhh Trang Trí Nội Thất Tường An,Cửa hàng bán dụng cụ sửa nhà,,"Công Ty Tnhh Trang Trí Nội Thất Tường An, 28 Đ. Phạm Ngũ Lão, Thới Bình, Ninh Kiều, Cần Thơ","Thới Bình, Ninh Kiều",28 Đ. Phạm Ngũ Lão,Cần Thơ,,"Ninh Kiều, Cần Thơ",VN,"10.044889,105.77488"
1114,ChIJOdguExyIoDERdDsnXpPwJ08,Công Ty Sản Xuất Thương Mại Nội Thất Hiệp Thành,Cửa hàng bán dụng cụ sửa nhà,0292 3834 498,"Công Ty Sản Xuất Thương Mại Nội Thất Hiệp Thành, 123/18B Đ. Trần Hưng Đạo, An Cư, Ninh Kiều, Cần Thơ","An Cư, Ninh Kiều",123/18B Đ. Trần Hưng Đạo,Cần Thơ,,"Ninh Kiều, Cần Thơ",VN,"10.0395972,105.77714119999999"
1128,ChIJv6__mzeJoDERzTiNwK1MFuo,Xưởng Nhựa Thanh Phong,Cửa hàng nội thất,0888 691 133,"Xưởng Nhựa Thanh Phong, 151-24 Hoàng Văn Thụ, P, Ninh Kiều, Cần Thơ","P, Ninh Kiều",151-24 Hoàng Văn Thụ,Cần Thơ,,"Ninh Kiều, Cần Thơ",VN,"10.0396435,105.7779585"
1139,ChIJbyZh9EKIoDERCvOYCHm5tgM,Cửa Hàng VLXD & Trang Trí Nội Thất Thành Nhân,Cửa hàng nội thất,0896 656 659,"2PMX+2QP Cửa Hàng VLXD & Trang Trí Nội Thất Thành Nhân, Đ. Nguyễn Văn Linh, Phường An Khánh, Ninh Kiều, Cần Thơ","Phường An Khánh, Ninh Kiều","2PMX+2QP, Đ. Nguyễn Văn Linh",Cần Thơ,,"Ninh Kiều, Cần Thơ",VN,"10.032598799999999,105.7494565"
1141,ChIJs8OaRieIoDERlFOL2QAEwIQ,Cửa Hàng Trang Trí Nội Thất Hà Thị Phương Uyên,Nhà thiết kế nội thất,0981 954 758,"Cửa Hàng Trang Trí Nội Thất Hà Thị Phương Uyên, 14 Quang Trung, An Lạc, Ninh Kiều, Cần Thơ","An Lạc, Ninh Kiều",14 Quang Trung,Cần Thơ,,"Ninh Kiều, Cần Thơ",VN,"10.0263574,105.78092869999999"
1149,ChIJqY55p8aJoDERLWznycndqJ4,Nội thất đẹp Đại Phát,Nhà trang trí nội thất,0907 665 568,"Nội thất đẹp Đại Phát, 410D Đ. Nguyễn Văn Linh, Hưng Lợi, Ninh Kiều, Cần Thơ 94000","Hưng Lợi, Ninh Kiều",410D Đ. Nguyễn Văn Linh,Cần Thơ,94000.0,"Ninh Kiều, Cần Thơ",VN,"10.0248081,105.76022189999999"
1154,ChIJzVzzUFmN3wIRkPCoSAr4c3c,Nội thất gỗ Tân Vạn Khang,Cửa hàng nội thất,0707 772 114,,,,,,,,"10.123033,105.55902239999999"
1165,ChIJ0UwApRSIoDERly7toazfvo4,Công Ty TNHH Thiết Kế Nội Thất AGP,Cửa hàng nội thất,0939 871 323,"Công Ty TNHH Thiết Kế Nội Thất AGP, 7 Đ. Nguyễn Văn Cừ, An Hoà, Ninh Kiều, Cần Thơ","An Hoà, Ninh Kiều",7 Đ. Nguyễn Văn Cừ,Cần Thơ,,"Ninh Kiều, Cần Thơ",VN,"10.038441599999999,105.75956269999999"
1177,ChIJR5BEdYqHoDERkq74thgB7As,Thiết Kế Thi Công Nội Thất Sài Gòn - Cần Thơ,Công ty xây dựng nhà ở,0907 722 338,"Thiết Kế Thi Công Nội Thất Sài Gòn - Cần Thơ, Số 13-14 đường số 19 KDC Vạn Phát, Cồn Khương, P, Ninh Kiều, Cần Thơ","P, Ninh Kiều","Số 13-14 đường số 19 KDC Vạn Phát, Cồn Khương",Cần Thơ,,"Ninh Kiều, Cần Thơ",VN,"10.0577721,105.77726589999999"
1182,ChIJq6qqBw-IoDERBjf0cRQqikE,Công Ty TNHH Vật Liệu Xây Dựng Trang Trí Nội Thất Mai Hoa 2,Cửa hàng vật liệu xây dựng,0292 6291 559,"Công Ty TNHH Vật Liệu Xây Dựng Trang Trí Nội Thất Mai Hoa 2, 163C/7, Đường Nguyễn Văn Cừ, Q. Ninh Kiều, Tp Cần Thơ, An Hoà, Ninh Kiều, Cần Thơ","An Hoà, Ninh Kiều","163C/7, Đường Nguyễn Văn Cừ, Q. Ninh Kiều, Tp Cần Thơ",Cần Thơ,,"Ninh Kiều, Cần Thơ",VN,"10.047019299999999,105.76794439999999"
1192,ChIJMQ6nOQeJoDERcVMVYcgdHWw,Cửa hàng Trang trí nội thất Cát Tường,Cửa hàng nội thất,,"2PWW+3P9 Cửa hàng Trang trí nội thất Cát Tường, Phường An Khánh, Ninh Kiều, Cần Thơ","Phường An Khánh, Ninh Kiều",2PWW+3P9,Cần Thơ,,"Ninh Kiều, Cần Thơ",VN,"10.045161799999999,105.7468535"
1195,ChIJbd64nxOIoDERlBzs0P5wIeo,Cửa Hàng Nội Thất Phúc Phát,Cửa hàng bán dụng cụ sửa nhà,,"Cửa Hàng Nội Thất Phúc Phát, An Khánh, Ninh Kiều, Cần Thơ","An Khánh, Ninh Kiều",,Cần Thơ,,"Ninh Kiều, Cần Thơ",VN,"10.040287,105.7616164"
1196,ChIJtcmkyxOIoDEROJhrgoW7bis,Cửa Hàng Trang Trí Nội Thất Phúc Thịnh,Cửa hàng bán dụng cụ sửa nhà,,"Cửa Hàng Trang Trí Nội Thất Phúc Thịnh, An Khánh, Ninh Kiều, Cần Thơ","An Khánh, Ninh Kiều",,Cần Thơ,,"Ninh Kiều, Cần Thơ",VN,"10.0414353,105.7632517"
1205,ChIJWe5cWkKIoDER4qrMWN9EHWA,Công Ty TNHH Thiết Kế Nội Thất Như Ý,Cửa hàng nội thất,0938 777 883,"Công Ty TNHH Thiết Kế Nội Thất Như Ý, 120/72, Khu Vực 1, Đ. Hoàng Quốc Việt, An Bình, Ninh Kiều, Cần Thơ","An Bình, Ninh Kiều","120/72, Khu Vực 1, Đ. Hoàng Quốc Việt",Cần Thơ,,"Ninh Kiều, Cần Thơ",VN,"10.032219999999999,105.7503"
1220,ChIJyfVwz_OJoDERGF9ebFwJFJQ,Cửa hàng trang trí nội thất Inox Nguyễn Ngân,Cửa hàng nội thất,0919 180 181,"Cửa hàng trang trí nội thất Inox Nguyễn Ngân, 510b/7 Đ. Nguyễn Văn Linh, P, Bình Thủy, Cần Thơ","P, Bình Thủy",510b/7 Đ. Nguyễn Văn Linh,Cần Thơ,,"Bình Thủy, Cần Thơ",VN,"10.0369522,105.7446458"
1221,ChIJLzV6WnCJoDER02EZb94MIHo,TRANG TRÍ NỘI THẤT PHƯƠNG THẢO,Cửa hàng nội thất,,"TRANG TRÍ NỘI THẤT PHƯƠNG THẢO, 67 Đ. Nguyễn Văn Linh, Phường An Khánh, Ninh Kiều, Cần Thơ","Phường An Khánh, Ninh Kiều",67 Đ. Nguyễn Văn Linh,Cần Thơ,,"Ninh Kiều, Cần Thơ",VN,"10.0252105,105.75903939999999"
1228,ChIJt3x8tROIoDERZfLc3zYNq2s,Cửa Hàng Vlxd - Trang Trí Nội Thất Hùng Cẩm 1,Cửa hàng vật liệu xây dựng,0292 3895 638,"Cửa Hàng Vlxd - Trang Trí Nội Thất Hùng Cẩm 1, 89 Đ. Nguyễn Văn Cừ, Phường An Khánh, Ninh Kiều, Cần Thơ","Phường An Khánh, Ninh Kiều",89 Đ. Nguyễn Văn Cừ,Cần Thơ,,"Ninh Kiều, Cần Thơ",VN,"10.0415619,105.76291479999999"
1233,ChIJsWykFGuIoDERjIAiyCzLFhA,Nội Thất Trang Trí Igea,Cửa hàng bán dụng cụ sửa nhà,,"Nội Thất Trang Trí Igea, 71 Đường số 23, Phường An Khánh, Ninh Kiều, Cần Thơ","Phường An Khánh, Ninh Kiều",71 Đường số 23,Cần Thơ,,"Ninh Kiều, Cần Thơ",VN,"10.0379576,105.75663809999999"
1235,ChIJHyhLPWyIoDER6KKMIGD9FfY,Công Ty Tnhh Xây Dựng Nội Thất Tp House,Cửa hàng đồ gia dụng,,"Công Ty Tnhh Xây Dựng Nội Thất Tp House, 03 Đường số 13, Phường An Khánh, Ninh Kiều, Cần Thơ","Phường An Khánh, Ninh Kiều",03 Đường số 13,Cần Thơ,,"Ninh Kiều, Cần Thơ",VN,"10.0408417,105.7535875"
1238,ChIJ26sAoFCIoDERdAWrHjrf8rI,Nội Thất Phương Trúc,Cửa hàng nội thất,,"2PFR+FXV Nội Thất Phương Trúc, Đ. Hoàng Quốc Việt, An Bình, Ninh Kiều, Cần Thơ","An Bình, Ninh Kiều","2PFR+FXV, Đ. Hoàng Quốc Việt",Cần Thơ,,"Ninh Kiều, Cần Thơ",VN,"10.023728199999999,105.74241479999999"
1239,ChIJU6JgJVGIoDEROK3dnogC1Bs,THIẾT KẾ NỘI THẤT TẠI CẦN THƠ,Nhà thiết kế nội thất,0906 891 233,"THIẾT KẾ NỘI THẤT TẠI CẦN THƠ, 2PCR+5M, Phường An Bình, Quận Ninh Kiều, Cần Thơ","An Bình, Cần Thơ","2PCR+5M, Phường An Bình, Quận Ninh Kiều",Cần Thơ,,Cần Thơ,VN,"10.0199648,105.7420193"
1240,ChIJ22NudU-IoDERjwdkr0mtVQM,Công Ty TNHH Xây Dựng Nội Thất TP House,Cửa hàng nội thất,0936 767 388,"Công Ty TNHH Xây Dựng Nội Thất TP House, Đại Học Y Dược, 3, Khu Tái Định Cư, Đường số 13, Phường An Khánh, Ninh Kiều, Cần Thơ","Phường An Khánh, Ninh Kiều","Đại Học Y Dược, 3, Khu Tái Định Cư, Đường số 13",Cần Thơ,,"Ninh Kiều, Cần Thơ",VN,"10.0220982,105.7498524"
1250,ChIJ5SwHeVCIoDERQeVOuayj7PE,Công Ty Tnhh Mtv Vlxd & Trang Trí Nội Thất Mai Hoa 2,Cửa hàng,,"Công Ty Tnhh Mtv Vlxd & Trang Trí Nội Thất Mai Hoa 2, 92 Nguyễn Văn Cừ Nối Dài, An Bình, Ninh Kiều, Cần Thơ","An Bình, Ninh Kiều",92 Nguyễn Văn Cừ Nối Dài,Cần Thơ,,"Ninh Kiều, Cần Thơ",VN,"10.0234162,105.74444899999999"
1252,ChIJTboKnLCJoDERtAYAaGdAg-g,Cửa Hàng Nội Thất Thờ Tâm Thịnh Khang,Cửa hàng nội thất,0942 100 607,"Cửa Hàng Nội Thất Thờ Tâm Thịnh Khang, Đ. Phạm Hùng, Lê Bình, Cái Răng, Cần Thơ","Lê Bình, Cái Răng",Đ. Phạm Hùng,Cần Thơ,,"Cái Răng, Cần Thơ",VN,"10.001949999999999,105.7508"
1257,ChIJiR3Tv1oyKCMR0-E_674wgmE,Công ty nội thất Quang Long,Cửa hàng nội thất văn phòng,0976 626 336,,,,,,,,"9.7940045,105.1366886"
1264,ChIJkUsS2EaIoDERPpBij6vTEUc,Cửa Hàng Nội Thất Nhựa Đài Loan Cao Cấp Lộc Phát,Cửa hàng nội thất,0848 626 468,"Cửa Hàng Nội Thất Nhựa Đài Loan Cao Cấp Lộc Phát, 7 Đ. Nguyễn Văn Linh, Phường An Khánh, Ninh Kiều, Cần Thơ","Phường An Khánh, Ninh Kiều",7 Đ. Nguyễn Văn Linh,Cần Thơ,,"Ninh Kiều, Cần Thơ",VN,"10.0274439,105.75582999999999"
1271,ChIJldoVPU-IoDERMRnPcokwywc,Công Ty Tnhh Vật Liệu Xây Dựng Nội Thất Ngôi Sao,Cửa hàng vật liệu xây dựng,,"Công Ty Tnhh Vật Liệu Xây Dựng Nội Thất Ngôi Sao, An Bình, Ninh Kiều, Cần Thơ","An Bình, Ninh Kiều",,Cần Thơ,,"Ninh Kiều, Cần Thơ",VN,"10.0213226,105.7513671"
1276,ChIJA_pFJP2JoDERZ5rK3tBxYeQ,Showroom Nội thất gỗ TÁM NHỊ,Cửa hàng nội thất,0818 218 000,"Showroom Nội thất gỗ TÁM NHỊ, 536 Trần Hưng Đạo, Lê Bình, Cái Răng, Cần Thơ","Lê Bình, Cái Răng",536 Trần Hưng Đạo,Cần Thơ,,"Cái Răng, Cần Thơ",VN,"10.0022349,105.7522462"
1287,ChIJPSlri_2JoDERAr-ELXtI99w,Nội thất Hoàng nguyên,Cửa hàng nội thất,,"Nội thất Hoàng nguyên, 1274a Đ. Bùi Hữu Nghĩa, khu Vực Bình Duong B, Bình Thủy, Cần Thơ","khu Vực Bình Duong B, Bình Thủy",1274a Đ. Bùi Hữu Nghĩa,Cần Thơ,,"Bình Thủy, Cần Thơ",VN,"10.0268675,105.7212004"
1315,ChIJeXcchOOJoDERMK8GkgBryQc,Kỳ Duyên thiết kế thi công nội ngoại thất,Cửa hàng nội thất gỗ thông,,"Kỳ Duyên thiết kế thi công nội ngoại thất, 9 Võ Tánh, Lê Bình, Cái Răng, Cần Thơ","Lê Bình, Cái Răng",9 Võ Tánh,Cần Thơ,,"Cái Răng, Cần Thơ",VN,"9.996001399999999,105.7427847"
1318,ChIJa_XEPqSJoDER87d1UIxaRHg,Cửa Hàng Trang Trí Nội Thất Trường Thành,Cửa hàng bán dụng cụ sửa nhà,0292 3912 545,"Cửa Hàng Trang Trí Nội Thất Trường Thành, 94 ĐT923, An Bình, Ninh Kiều, Cần Thơ","An Bình, Ninh Kiều",94 ĐT923,Cần Thơ,,"Ninh Kiều, Cần Thơ",VN,"9.9982759,105.74216349999999"
1320,ChIJke3XzLKJoDER9NvLHiByA2Y,Nội thất đồ thờ cúng TÂM THỊNH KHANG,Cửa hàng nội thất,0942 100 607,"Nội thất đồ thờ cúng TÂM THỊNH KHANG, Mậu thân, xuân khánh.ninh kiều, 438 Đ. Phạm Hùng, Cái Răng, Cần Thơ","Ba Láng, Cái Răng","Mậu thân, xuân khánh.ninh kiều, 438 Đ. Phạm Hùng",Cần Thơ,,"Cái Răng, Cần Thơ",VN,"9.989263,105.74818789999999"
1354,ChIJfzb5lOCJoDERrwCyVMCx0qE,Nội Thất Minh Hoàng Cần Thơ,Cửa hàng nội thất,,"Nội Thất Minh Hoàng Cần Thơ, 51 Đ. 3 Tháng 2, Hưng Lợi, Ninh Kiều, Cần Thơ","Hưng Lợi, Ninh Kiều",51 Đ. 3 Tháng 2,Cần Thơ,,"Ninh Kiều, Cần Thơ",VN,"10.013644399999999,105.7581297"
1359,ChIJzb9g1PuJoDERn-PTwcrblHo,Nội thất gỗ công nghiệp Ba Phi,Cửa hàng nội thất,0931 027 574,"2Q24+QM4 Nội thất gỗ công nghiệp Ba Phi, Mỹ Khánh, Phong Điền, Cần Thơ","Mỹ Khánh, Phong Điền",2Q24+QM4,Cần Thơ,,"Phong Điền, Cần Thơ",VN,"10.0018808,105.7566913"
1372,ChIJoyc-w0qIoDERE_U34moqRjs,Công Ty Cp Kiến Trúc Nội Thất Tinh Mộc,Cửa hàng bán dụng cụ sửa nhà,0292 6546 543,"Công Ty Cp Kiến Trúc Nội Thất Tinh Mộc, 22 Đ. 3 Tháng 2, Hưng Lợi, Ninh Kiều, Cần Thơ","Hưng Lợi, Ninh Kiều",22 Đ. 3 Tháng 2,Cần Thơ,,"Ninh Kiều, Cần Thơ",VN,"10.0133229,105.75646119999999"
1392,ChIJdX5oy1KIoDER--EVOtgB3yI,Công Ty TNHH Nội Thất Thanh Giang,Cửa hàng nội thất,0292 3844 754,"Công Ty TNHH Nội Thất Thanh Giang, 247/7, Đường Cái Sơn Hàng Bàng, Quận Cái Răng, An Bình, Ninh Kiều, Cần Thơ","An Bình, Ninh Kiều","247/7, Đường Cái Sơn Hàng Bàng, Quận Cái Răng",Cần Thơ,,"Ninh Kiều, Cần Thơ",VN,"10.0128234,105.7450669"
1394,ChIJv_YqfDiIoDERmV8cn97_2e4,Cửa Hàng Trang Trí Nội Thất Thành Tâm,Cửa hàng bán dụng cụ sửa nhà,0918 550 161,"Cửa Hàng Trang Trí Nội Thất Thành Tâm, 9a QL91B, Hưng Lợi, Ninh Kiều, Cần Thơ","Hưng Lợi, Ninh Kiều",9a QL91B,Cần Thơ,,"Ninh Kiều, Cần Thơ",VN,"10.0253836,105.758867"
1398,ChIJARvfcUeIoDERN1h3tXg0HO8,Cửa Hàng Đồ Gỗ Nội Thất Quý Khá,Cửa hàng bán dụng cụ sửa nhà,0906 901 223,"Cửa Hàng Đồ Gỗ Nội Thất Quý Khá, 312 Đ. Nguyễn Văn Linh, Hưng Lợi, Ninh Kiều, Cần Thơ","Hưng Lợi, Ninh Kiều",312 Đ. Nguyễn Văn Linh,Cần Thơ,,"Ninh Kiều, Cần Thơ",VN,"10.0262949,105.7575615"
1406,ChIJVeNQWjeIoDERApp-JrlISV0,Công Ty Gỗ Nội Thất Nam Phát,Cửa hàng,0292 3739 505,"Công Ty Gỗ Nội Thất Nam Phát, 222/7, Quốc Lộ 91B, Quận Bình Thủy, Tp Cần Thơ","Hưng Lợi, Ninh Kiều","222/7, Quốc Lộ 91B, Quận Bình Thủy, Tp Cần Thơ",Cần Thơ,,"Ninh Kiều, Cần Thơ",VN,"10.022193,105.7635784"
1419,ChIJERcWMDeIoDERVRBHAQSRA4Y,Cửa Hàng Vlxd - Trang Trí Nội Thất Quốc Anh,Cửa hàng vật liệu xây dựng,,"Cửa Hàng Vlxd - Trang Trí Nội Thất Quốc Anh, Hưng Lợi, Ninh Kiều, Cần Thơ","Hưng Lợi, Ninh Kiều",,Cần Thơ,,"Ninh Kiều, Cần Thơ",VN,"10.0204445,105.7637661"
1424,ChIJf7OZeHWJoDERxxrdhEMXMKk,Thiết kế Xây dựng Hoàng Minh Cần Thơ,Cửa hàng nội thất,0949 942 085,"Thiết kế Xây dựng Hoàng Minh Cần Thơ, 79 Đường B2, Khu dân cư Quân Báo, Bình Thủy, Cần Thơ 94000","Khu dân cư Quân Báo, Bình Thủy",79 Đường B2,Cần Thơ,94000.0,"Bình Thủy, Cần Thơ",VN,"10.036574,105.7434445"
1426,ChIJh8w2iTaIoDER7NokrwPB_8Q,Cửa Hàng Vlxd - Trang Trí Nội Thất Gia Khang,Cửa hàng vật liệu xây dựng,0292 2241 940,"Cửa Hàng Vlxd - Trang Trí Nội Thất Gia Khang, 126 Đ. 3 Tháng 2, Hưng Lợi, Ninh Kiều, Cần Thơ","Hưng Lợi, Ninh Kiều",126 Đ. 3 Tháng 2,Cần Thơ,,"Ninh Kiều, Cần Thơ",VN,"10.0182486,105.76177659999999"
1438,ChIJBSW317aHoDERgZT23ysozwI,Nội thất MY GROUP Cần Thơ,Cửa hàng nội thất,,"3PJR+X88 Nội thất MY GROUP Cần Thơ, Hẻm 15 Lê Hồng Phong, Bình Thuỷ, Bình Thủy, Cần Thơ","Bình Thuỷ, Bình Thủy","3PJR+X88, Hẻm 15 Lê Hồng Phong",Cần Thơ,,"Bình Thủy, Cần Thơ",VN,"10.0824239,105.74084289999999"
1439,ChIJ43zObzSIoDER6sv4I_towEM,Cửa Hàng Vật Liệu Xây Dựng - Trang Trí Nội Thất Hải Phụng,Cửa hàng vật liệu xây dựng,0292 3738 347,"Cửa Hàng Vật Liệu Xây Dựng - Trang Trí Nội Thất Hải Phụng, 209, 30/04, Quận Ninh Kiều, TP. Cần Thơ, Hưng Lợi, Ninh Kiều, Cần Thơ","Hưng Lợi, Ninh Kiều","209, 30/04, Quận Ninh Kiều, TP. Cần Thơ",Cần Thơ,,"Ninh Kiều, Cần Thơ",VN,"10.0152828,105.7637254"
1442,ChIJmTwWfDaIoDERK5wdkuPHHds,Cửa Hàng Trang Trí Nội Thất Hiếu Toàn,Nhà thiết kế nội thất,0292 3782 003,"Cửa Hàng Trang Trí Nội Thất Hiếu Toàn, 124, Đường 3/2, Quận Ninh Kiều, Hưng Lợi, Ninh Kiều, Cần Thơ","Hưng Lợi, Ninh Kiều","124, Đường 3/2, Quận Ninh Kiều",Cần Thơ,,"Ninh Kiều, Cần Thơ",VN,"10.017761499999999,105.7612468"
1444,ChIJ8101CDGIoDERyS-o0yODiPU,Cửa Hàng Trang Trí Nội Thất Sunso,Cửa hàng bán dụng cụ sửa nhà,0292 3600 659,"Cửa Hàng Trang Trí Nội Thất Sunso, 240, Đường 30/4, Quận Ninh Kiều, TP Cần Thơ, Hưng Lợi, Ninh Kiều, Cần Thơ","Hưng Lợi, Ninh Kiều","240, Đường 30/4, Quận Ninh Kiều, TP Cần Thơ",Cần Thơ,,"Ninh Kiều, Cần Thơ",VN,"10.018993199999999,105.76735649999999"
1445,ChIJGW6BpjGIoDERjZweYi7cwn4,Cửa Hàng Sàn Gỗ - Trang Trí Nội Thất Ánh Sáng,Cửa hàng bán dụng cụ sửa nhà,,"Cửa Hàng Sàn Gỗ - Trang Trí Nội Thất Ánh Sáng, 403 Đ. 30 Tháng 4, Hưng Lợi, Ninh Kiều, Cần Thơ","Hưng Lợi, Ninh Kiều",403 Đ. 30 Tháng 4,Cần Thơ,,"Ninh Kiều, Cần Thơ",VN,"10.0188613,105.76778859999999"
1465,ChIJc5oL7WqJoDERN3d9Oo2u3wg,Công ty TNHH CN XD Nội Thất Trần Hùng Phát,Cửa hàng nội thất,,"Công ty TNHH CN XD Nội Thất Trần Hùng Phát, C17 Đ. 14B, Khu Tái Định Cư TTVH, Cái Răng, Cần Thơ","Khu Tái Định Cư TTVH, Cái Răng",C17 Đ. 14B,Cần Thơ,,"Cái Răng, Cần Thơ",VN,"10.006732099999999,105.7769326"
1477,ChIJFdyMdACJoDEREQGhLG-BatY,Kho Nội Thất LED160,Cửa hàng nội thất,,"Kho Nội Thất LED160, 79 Võ Nguyên Giáp, Hưng Phú, Cái Răng, Cần Thơ 94000","Hưng Phú, Cái Răng",79 Võ Nguyên Giáp,Cần Thơ,94000.0,"Cái Răng, Cần Thơ",VN,"10.0140069,105.7797686"
1485,ChIJjeqVejWIoDER_GYsZsvO7vI,Bao Thinh Interior Store,Cửa hàng đồ gia dụng,0292 3782 830,"Bao Thinh Interior Store, 65C, 3/2 Street, Hung Loi Ward, Ninh Kieu District, Can Tho City, Hưng Lợi, Ninh Kiều, Cần Thơ","Hưng Lợi, Ninh Kiều","65C, 3/2 Street, Hung Loi Ward, Ninh Kieu District, Can Tho City",Cần Thơ,,"Ninh Kiều, Cần Thơ",VN,"10.014165199999999,105.7592504"
1495,ChIJDYfEnRiIoDERYvbLMtwyZRE,Cửa Hàng Nội Thất Phương Trúc,Cửa hàng bán dụng cụ sửa nhà,,"Cửa Hàng Nội Thất Phương Trúc, 2M Đ. Mậu Thân, An Nghiệp, Ninh Kiều, Cần Thơ","An Nghiệp, Ninh Kiều",2M Đ. Mậu Thân,Cần Thơ,,"Ninh Kiều, Cần Thơ",VN,"10.0405682,105.7680491"
1532,ChIJbeneAjuIoDER2UcBQnwCVLs,Cửa Hàng Vật Liệu Xây Dựng & Trang Trí Nội Thất Hùng Cẩm,Cửa hàng vật liệu xây dựng,0292 3835 051,"Cửa Hàng Vật Liệu Xây Dựng & Trang Trí Nội Thất Hùng Cẩm, 43 Đ. 3 Tháng 2, Xuân Khánh, Ninh Kiều, Cần Thơ","Xuân Khánh, Ninh Kiều",43 Đ. 3 Tháng 2,Cần Thơ,,"Ninh Kiều, Cần Thơ",VN,"10.0253973,105.7679651"
1538,ChIJKdmLOqBioDERtm0PfwnOLp0,Công Ty TNHH MTV TM DV Nội Thất Thành Phát,Cửa hàng đồ gia dụng,0903 772 948,"Công Ty TNHH MTV TM DV Nội Thất Thành Phát, 11 Đại lộ Hoà Bình, Tân An, Ninh Kiều, Cần Thơ","Tân An, Ninh Kiều",11 Đại lộ Hoà Bình,Cần Thơ,,"Ninh Kiều, Cần Thơ",VN,"10.0326119,105.7837122"
1567,ChIJwZeCP4NioDER0xOu1z0t6dI,Công Ty TNHH Một Thành Viên Nội Thất Tùng Mai,Cửa hàng nội thất,0972 312 088,"Công Ty TNHH Một Thành Viên Nội Thất Tùng Mai, 60, Đ. B18, KDC Hưng Phú 1, Cái Răng, Cần Thơ","KDC Hưng Phú 1, Cái Răng","60, Đ. B18",Cần Thơ,,"Cái Răng, Cần Thơ",VN,"10.020444999999999,105.78637189999999"
