,place_id,name,main_category,phone,address,address_ward,address_street,address_city,address_postal_code,address_state,address_country_code,coordinates
0,ChIJn5-L-LCJoDERPq4DHX3NXH8,Phim Tr∆∞·ªùng The Bo (Ph·ªë √îng Ch·∫£nh),Studio nhi·∫øp ·∫£nh,0947 325 577,"Phim Tr∆∞·ªùng The Bo (Ph·ªë √îng Ch·∫£nh), 149/2E, L√™ B√¨nh, C√°i RƒÉng, C·∫ßn Th∆°","L√™ B√¨nh, C√°i RƒÉng",149/2E,C·∫ßn Th∆°,,"C√°i RƒÉng, C·∫ßn Th∆°",VN,"10.003815699999999,105.7500409"
2,ChIJx56lqwKIoDERqemCWy60Tck,C·ª¨U LONG STUDIO,C·ª≠a h√†ng ƒë·ªì c∆∞·ªõi,0292 3762 819,"C·ª¨U LONG STUDIO, 191 Nguy·ªÖn Tr√£i, An H·ªôi, Ninh Ki·ªÅu, C·∫ßn Th∆° 92000","An H·ªôi, Ninh Ki·ªÅu",191 Nguy·ªÖn Tr√£i,C·∫ßn Th∆°,92000.0,"Ninh Ki·ªÅu, C·∫ßn Th∆°",VN,"10.043051199999999,105.7820904"
13,ChIJ-beR_biJoDERqW6YSKbr3XI,Kh√°nh Ch√¢u Wedding - Studio √Åo C∆∞·ªõi Ch·ª•p ·∫¢nh C∆∞·ªõi Ngo·∫°i C·∫£nh - Phim Tr∆∞·ªùng C·∫ßn Th∆°,C·ª≠a h√†ng ƒë·ªì c∆∞·ªõi,0911 953 833,"Kh√°nh Ch√¢u Wedding - Studio √Åo C∆∞·ªõi Ch·ª•p ·∫¢nh C∆∞·ªõi Ngo·∫°i C·∫£nh - Phim Tr∆∞·ªùng C·∫ßn Th∆°, 51c ƒê. Tr·∫ßn Ho√†ng Na, H∆∞ng L·ª£i, Ninh Ki·ªÅu, C·∫ßn Th∆° 900000","H∆∞ng L·ª£i, Ninh Ki·ªÅu",51c ƒê. Tr·∫ßn Ho√†ng Na,C·∫ßn Th∆°,900000.0,"Ninh Ki·ªÅu, C·∫ßn Th∆°",VN,"10.010824699999999,105.7653824"
19,ChIJvyiGLzyPoDERadrE6gSoJic,Studio √Åo C∆∞·ªõi Tri·ªáu Ph·ª•ng,Studio nhi·∫øp ·∫£nh,,"Studio √Åo C∆∞·ªõi Tri·ªáu Ph·ª•ng, Giai Xu√¢n, Phong ƒêi·ªÅn, C·∫ßn Th∆°","Giai Xu√¢n, Phong ƒêi·ªÅn",,C·∫ßn Th∆°,,"Phong ƒêi·ªÅn, C·∫ßn Th∆°",VN,"10.0321377,105.66836769999999"
30,ChIJY1OuwBiIoDERdpBmjG1oTDg,Duy√™n D√°ng Studio Tr·∫ßn H∆∞ng ƒê·∫°o,Studio nhi·∫øp ·∫£nh,0915 858 083,"Duy√™n D√°ng Studio Tr·∫ßn H∆∞ng ƒê·∫°o, 220 ƒê. Tr·∫ßn H∆∞ng ƒê·∫°o, An Ph√∫, Ninh Ki·ªÅu, C·∫ßn Th∆°","An Ph√∫, Ninh Ki·ªÅu",220 ƒê. Tr·∫ßn H∆∞ng ƒê·∫°o,C·∫ßn Th∆°,,"Ninh Ki·ªÅu, C·∫ßn Th∆°",VN,"10.0345698,105.7751548"
41,ChIJzWgHHTSIoDERmoLd9n2ck00,HIT Recording Studio,Ph√≤ng thu √¢m,0982 937 723,"HIT Recording Studio, 20 B15, Khu d√¢n c∆∞ 91B, C·∫ßn Th∆°","Khu d√¢n c∆∞ 91B, Ninh Ki·ªÅu",20 B15,C·∫ßn Th∆°,,"Ninh Ki·ªÅu, C·∫ßn Th∆°",VN,"10.024689799999999,105.75641499999999"
47,ChIJiUbaMqKJoDERBZXI7ZNBmks,Linh ƒêang Studio,Studio nhi·∫øp ·∫£nh,0931 042 543,"Linh ƒêang Studio, 129 ƒê. Nguy·ªÖn Hi·ªÅn, Khu d√¢n c∆∞ 91B, Ninh Ki·ªÅu, C·∫ßn Th∆°","Khu d√¢n c∆∞ 91B, Ninh Ki·ªÅu",129 ƒê. Nguy·ªÖn Hi·ªÅn,C·∫ßn Th∆°,,"Ninh Ki·ªÅu, C·∫ßn Th∆°",VN,"10.0226144,105.7558255"
63,ChIJyR63u0qIoDERP-ZbC5mJ3eQ,Studio Ho√†ng My - Ch·ª•p h√¨nh c∆∞·ªõi - Cho Thu√™ √Åo c∆∞·ªõi - Trang ƒëi·ªÉm C√¥ D√¢u,Th·ª£ ch·ª•p ·∫£nh ƒë√°m c∆∞·ªõi,0939 830 890,"Studio Ho√†ng My - Ch·ª•p h√¨nh c∆∞·ªõi - Cho Thu√™ √Åo c∆∞·ªõi - Trang ƒëi·ªÉm C√¥ D√¢u, 683 ƒê. 30 Th√°ng 4, H∆∞ng L·ª£i, Ninh Ki·ªÅu, C·∫ßn Th∆°","H∆∞ng L·ª£i, Ninh Ki·ªÅu",683 ƒê. 30 Th√°ng 4,C·∫ßn Th∆°,,"Ninh Ki·ªÅu, C·∫ßn Th∆°",VN,"10.012482199999999,105.75510179999999"
66,ChIJMelfmrCJoDERpmBIXzI7OtI,KHANG Studio,Nh√† nhi·∫øp ·∫£nh,0932 774 444,"KHANG Studio, 439 ƒê. Ph·∫°m H√πng, L√™ B√¨nh, C√°i RƒÉng, C·∫ßn Th∆° 900000","L√™ B√¨nh, C√°i RƒÉng",439 ƒê. Ph·∫°m H√πng,C·∫ßn Th∆°,900000.0,"C√°i RƒÉng, C·∫ßn Th∆°",VN,"9.9953529,105.7492228"
72,ChIJ2TarXkqJoDERrOWL4Zn7Xm8,September Studio C·∫ßn Th∆°,Studio nhi·∫øp ·∫£nh,0898 900 323,"September Studio C·∫ßn Th∆°, Sophouse Vincom, ƒê. 30 Th√°ng 4, Xu√¢n Kh√°nh, Ninh Ki·ªÅu, C·∫ßn Th∆° 900000","Xu√¢n Kh√°nh, Ninh Ki·ªÅu","Sophouse Vincom, ƒê. 30 Th√°ng 4",C·∫ßn Th∆°,900000.0,"Ninh Ki·ªÅu, C·∫ßn Th∆°",VN,"10.025638299999999,105.7759256"
87,ChIJAUAEMQyJoDERy_i9kSrJgNo,Kha Studio & Dreamers Concept,Studio nhi·∫øp ·∫£nh,0939 244 192,"Kha Studio & Dreamers Concept, ƒê. Nguy·ªÖn Th√¥ng/218 ƒê. C√°ch M·∫°ng Th√°ng 8, Long Ho√†, B√¨nh Th·ªßy, C·∫ßn Th∆° 90000","Long Ho√†, B√¨nh Th·ªßy",ƒê. Nguy·ªÖn Th√¥ng/218 ƒê. C√°ch M·∫°ng Th√°ng 8,C·∫ßn Th∆°,90000.0,"B√¨nh Th·ªßy, C·∫ßn Th∆°",VN,"10.063055199999999,105.7491301"
93,ChIJoWbwsiSIoDERSPn1PDtBGQg,KH√îI PH·∫†M Studio,D·ªãch v·ª• c∆∞·ªõi h·ªèi,0976 168 468,"KH√îI PH·∫†M Studio, 146E ƒê. Tr·∫ßn VƒÉn Ho√†i, Xu√¢n Kh√°nh, Ninh Ki·ªÅu, C·∫ßn Th∆°","Xu√¢n Kh√°nh, Ninh Ki·ªÅu",146E ƒê. Tr·∫ßn VƒÉn Ho√†i,C·∫ßn Th∆°,,"Ninh Ki·ªÅu, C·∫ßn Th∆°",VN,"10.0270438,105.7705799"
94,ChIJ3XzS2KqJoDERGhkhRzT0Ho4,"Studio ch·ª•p ·∫£nh c∆∞·ªõi ƒë·∫πp, cho thu√™ √°o c∆∞·ªõi C·∫ßn th∆° - Nghƒ©a Ng√¥",X∆∞·ªüng ngh·ªá thu·∫≠t,0939 020 102,"Studio ch·ª•p ·∫£nh c∆∞·ªõi ƒë·∫πp, cho thu√™ √°o c∆∞·ªõi C·∫ßn th∆° - Nghƒ©a Ng√¥, 111 X√¥ Vi·∫øt Ngh·ªá Tƒ©nh, P. An C∆∞, Ninh Ki·ªÅu C·∫ßn Th∆° Can Tho City, 900000","An H·ªôi, Ninh Ki·ªÅu","111 X√¥ Vi·∫øt Ngh·ªá Tƒ©nh, P. An C∆∞, Ninh Ki·ªÅu C·∫ßn Th∆° Can Tho City",C·∫ßn Th∆°,900000.0,"Ninh Ki·ªÅu, C·∫ßn Th∆°",VN,"10.0408467,105.7814709"
104,ChIJI6S3OyGIoDERRmNIlIxDYA4,Studio Hera,Studio nhi·∫øp ·∫£nh,0939 846 868,"Studio Hera, 170 ƒê. 30 Th√°ng 4, Xu√¢n Kh√°nh, Ninh Ki·ªÅu, C·∫ßn Th∆° 900000","Xu√¢n Kh√°nh, Ninh Ki·ªÅu",170 ƒê. 30 Th√°ng 4,C·∫ßn Th∆°,900000.0,"Ninh Ki·ªÅu, C·∫ßn Th∆°",VN,"10.028230899999999,105.7781004"
105,ChIJVVxePc6JoDER9koQwJXkYIk,Aillis Baby Studio,Studio nhi·∫øp ·∫£nh,0944 390 944,"2Q5H+382 Aillis Baby Studio, ƒê∆∞·ªùng S·ªë 6, H∆∞ng Th√†nh, C√°i RƒÉng, C·∫ßn Th∆°","H∆∞ng Th√†nh, C√°i RƒÉng","2Q5H+382, ƒê∆∞·ªùng S·ªë 6",C·∫ßn Th∆°,,"C√°i RƒÉng, C·∫ßn Th∆°",VN,"10.0076395,105.7782536"
121,ChIJ05V2_tWJoDERtkbSF110pLM,KSTUDIO,D·ªãch v·ª• nhi·∫øp ·∫£nh,0917 012 233,"KSTUDIO, 22 ƒê. Tr·∫ßn Ho√†ng Na, H∆∞ng L·ª£i, Ninh Ki·ªÅu, C·∫ßn Th∆°","H∆∞ng L·ª£i, Ninh Ki·ªÅu",22 ƒê. Tr·∫ßn Ho√†ng Na,C·∫ßn Th∆°,,"Ninh Ki·ªÅu, C·∫ßn Th∆°",VN,"10.0134553,105.763977"
122,ChIJDWSECrWJoDERAHU6iuo1PKg,Ph·∫°m ƒê·ª©c Studio,Studio nhi·∫øp ·∫£nh,0967 761 516,"Ph·∫°m ƒê·ª©c Studio, 174 H·∫ªm 148 ƒê∆∞·ªùng 3 Th√°ng 2, H∆∞ng L·ª£i, Ninh Ki·ªÅu, C·∫ßn Th∆°","H∆∞ng L·ª£i, Ninh Ki·ªÅu",174 H·∫ªm 148 ƒê∆∞·ªùng 3 Th√°ng 2,C·∫ßn Th∆°,,"Ninh Ki·ªÅu, C·∫ßn Th∆°",VN,"10.0203887,105.76208419999999"
148,ChIJO3ViReqJoDERLJ6triYnVVA,Ti·ªám ch·ª•p ·∫£nh b√© v√† gia ƒë√¨nh Bo Studio,Studio nhi·∫øp ·∫£nh,0969 652 065,"Ti·ªám ch·ª•p ·∫£nh b√© v√† gia ƒë√¨nh Bo Studio, 241A ƒê. Nguy·ªÖn ƒê·ªá, An Ho√†, Ninh Ki·ªÅu, C·∫ßn Th∆° 90000","An Ho√†, Ninh Ki·ªÅu",241A ƒê. Nguy·ªÖn ƒê·ªá,C·∫ßn Th∆°,90000.0,"Ninh Ki·ªÅu, C·∫ßn Th∆°",VN,"10.0498882,105.7662605"
156,ChIJvS3MaTWHoDERzIv3Pxj872Q,Ph√≤ng Thu √Çm Thanh T√πng Studio,Ph√≤ng thu √¢m,0766 867 982,"Ph√≤ng Thu √Çm Thanh T√πng Studio, 52C/10 H·∫ªm 9 V√µ VƒÉn Ki·ªát, B√¨nh Thu·ª∑, B√¨nh Th·ªßy, C·∫ßn Th∆° 900000","B√¨nh Thu·ª∑, B√¨nh Th·ªßy",52C/10 H·∫ªm 9 V√µ VƒÉn Ki·ªát,C·∫ßn Th∆°,900000.0,"B√¨nh Th·ªßy, C·∫ßn Th∆°",VN,"10.064691999999999,105.7338941"
159,ChIJKesbYrKHoDERB5B3S-43I0U,Rubi Studio C·∫ßn Th∆°,Studio nhi·∫øp ·∫£nh,,"Rubi Studio C·∫ßn Th∆°, 17 Tr·∫ßn Quang Di·ªáu, An Th·ªõi, B√¨nh Th·ªßy, C·∫ßn Th∆°","An Th·ªõi, B√¨nh Th·ªßy",17 Tr·∫ßn Quang Di·ªáu,C·∫ßn Th∆°,,"B√¨nh Th·ªßy, C·∫ßn Th∆°",VN,"10.059113,105.762183"
160,ChIJKT9dqreJoDERYirz8N6ED-w,Name: Studio - CN C·∫ßn Th∆°,Studio nhi·∫øp ·∫£nh,0942 196 396,"Name: Studio - CN C·∫ßn Th∆°, 71 Nguy·ªÖn VƒÉn Tr·ªói, An Ph√∫, Ninh Ki·ªÅu, C·∫ßn Th∆° 94155","An Ph√∫, Ninh Ki·ªÅu",71 Nguy·ªÖn VƒÉn Tr·ªói,C·∫ßn Th∆°,94155.0,"Ninh Ki·ªÅu, C·∫ßn Th∆°",VN,"10.037022499999999,105.7699243"
161,ChIJeQvIKUmJoDERu4kvzQAFsmI,HOBA STUDIO - MEDIA C·∫¶N TH∆†,Studio nhi·∫øp ·∫£nh,0939 389 259,"HOBA STUDIO - MEDIA C·∫¶N TH∆†, 17 ƒê∆∞·ªùng s·ªë 23, Ph∆∞·ªùng An Kh√°nh, Ninh Ki·ªÅu, C·∫ßn Th∆°","Ph∆∞·ªùng An Kh√°nh, Ninh Ki·ªÅu",17 ƒê∆∞·ªùng s·ªë 23,C·∫ßn Th∆°,,"Ninh Ki·ªÅu, C·∫ßn Th∆°",VN,"10.0388302,105.7575313"
162,ChIJcdbEbOxjoDERtL0P0GcpEyM,Hu·ª≥nh Trang Studio,D·ªãch v·ª• nhi·∫øp ·∫£nh,0911 789 272,"Hu·ª≥nh Trang Studio, 212 ƒê∆∞·ªùng B5, KDC H∆∞ng Ph√∫ 1, C√°i RƒÉng, C·∫ßn Th∆°","KDC H∆∞ng Ph√∫ 1, C√°i RƒÉng",212 ƒê∆∞·ªùng B5,C·∫ßn Th∆°,,"C√°i RƒÉng, C·∫ßn Th∆°",VN,"10.021818399999999,105.7907867"
165,ChIJXzZ7pGR9oDERfEI2ScIs2p8,An Studio,Studio nhi·∫øp ·∫£nh,0327 770 989,"An Studio, 76-78 ƒê∆∞·ªùng Ng√¥ Quy·ªÅn, C√°i V·ªìn, B√¨nh Minh, Vƒ©nh Long","C√°i V·ªìn, B√¨nh Minh",76-78 ƒê∆∞·ªùng Ng√¥ Quy·ªÅn,Vƒ©nh Long,,"B√¨nh Minh, Vƒ©nh Long",VN,"10.071197699999999,105.82011279999999"
171,ChIJq6ccmzKJoDERpxYPEn3LVNo,CHUNCHIN STUDIO,Studio nhi·∫øp ·∫£nh,0933 570 058,"CHUNCHIN STUDIO, 17 ƒê. M·∫≠u Th√¢n, Xu√¢n Kh√°nh, Ninh Ki·ªÅu, C·∫ßn Th∆° 70000","Xu√¢n Kh√°nh, Ninh Ki·ªÅu",17 ƒê. M·∫≠u Th√¢n,C·∫ßn Th∆°,70000.0,"Ninh Ki·ªÅu, C·∫ßn Th∆°",VN,"10.028516399999999,105.7762209"
179,ChIJDbcdpm-JoDERDKqoSsfLP6k,Mr Smile Studio,Studio nhi·∫øp ·∫£nh,0939 191 070,"Mr Smile Studio, 148/260 KDC, 148 ƒê. 3 Th√°ng 2, H∆∞ng L·ª£i, Ninh Ki·ªÅu, C·∫ßn Th∆° 900000","H∆∞ng L·ª£i, Ninh Ki·ªÅu","148/260 KDC, 148 ƒê. 3 Th√°ng 2",C·∫ßn Th∆°,900000.0,"Ninh Ki·ªÅu, C·∫ßn Th∆°",VN,"10.0203053,105.76152379999999"
180,ChIJ48r6yfiJoDERq6fGI4KkzKk,An Studio,D·ªãch v·ª• nhi·∫øp ·∫£nh,0392 969 001,"An Studio, 22/1 ƒê. Tr·∫ßn Ho√†ng Na, H∆∞ng L·ª£i, Ninh Ki·ªÅu, C·∫ßn Th∆°","H∆∞ng L·ª£i, Ninh Ki·ªÅu",22/1 ƒê. Tr·∫ßn Ho√†ng Na,C·∫ßn Th∆°,,"Ninh Ki·ªÅu, C·∫ßn Th∆°",VN,"10.0133535,105.76402429999999"
198,ChIJWWOqMhiJoDERnacDcrnOoLs,Simee Studio,Studio nhi·∫øp ·∫£nh,0586 663 880,"Simee Studio, H·∫ªm 147, 33 ƒê. C√°ch M·∫°ng Th√°ng 8, Th·ªõi B√¨nh, Ninh Ki·ªÅu, C·∫ßn Th∆°","Th·ªõi B√¨nh, Ninh Ki·ªÅu","H·∫ªm 147, 33 ƒê. C√°ch M·∫°ng Th√°ng 8",C·∫ßn Th∆°,,"Ninh Ki·ªÅu, C·∫ßn Th∆°",VN,"10.047355399999999,105.77788129999999"
201,ChIJ0Qjs_z-JoDER91B8oV2SFjk,Hi·ªÅn Tr·∫ßn Studio - Wedding - Bridal,Studio nhi·∫øp ·∫£nh,0774 224 008,"Hi·ªÅn Tr·∫ßn Studio - Wedding - Bridal, 67/2D H√πng V∆∞∆°ng, An C∆∞, Ninh Ki·ªÅu, C·∫ßn Th∆°","An C∆∞, Ninh Ki·ªÅu",67/2D H√πng V∆∞∆°ng,C·∫ßn Th∆°,,"Ninh Ki·ªÅu, C·∫ßn Th∆°",VN,"10.0418224,105.77843539999999"
206,ChIJ53exF1iJoDER25DNSyisKb8,CBSTUDIO,Ph√≤ng thu √¢m,0888 090 549,"CBSTUDIO, 256/K6 h·∫ªm, 57 ƒê. V√µ Tr∆∞·ªùng To·∫£n, An Ho√†, Ninh Ki·ªÅu, C·∫ßn Th∆°","An Ho√†, Ninh Ki·ªÅu","256/K6 h·∫ªm, 57 ƒê. V√µ Tr∆∞·ªùng To·∫£n",C·∫ßn Th∆°,,"Ninh Ki·ªÅu, C·∫ßn Th∆°",VN,"10.0477812,105.7661148"
207,ChIJJ1KjgauJoDERdp4KPNH_nDM,Tini Baby Studio,Studio nhi·∫øp ·∫£nh,0559 252 522,"Tini Baby Studio, 3 ƒê∆∞·ªùng B25, Khu d√¢n c∆∞ 91B, Ninh Ki·ªÅu, C·∫ßn Th∆° 90000","Khu d√¢n c∆∞ 91B, Ninh Ki·ªÅu",3 ƒê∆∞·ªùng B25,C·∫ßn Th∆°,90000.0,"Ninh Ki·ªÅu, C·∫ßn Th∆°",VN,"10.0235744,105.755389"
208,ChIJQ1Sre3OJoDERWpdNCH0wX2Y,Nam Nguyen Studio,Studio nhi·∫øp ·∫£nh,0912 546 108,"Nam Nguyen Studio, 18/7 H·∫ªm 132 ƒê. 3 Th√°ng 2, H∆∞ng L·ª£i, Ninh Ki·ªÅu, C·∫ßn Th∆°","H∆∞ng L·ª£i, Ninh Ki·ªÅu",18/7 H·∫ªm 132 ƒê. 3 Th√°ng 2,C·∫ßn Th∆°,,"Ninh Ki·ªÅu, C·∫ßn Th∆°",VN,"10.019687,105.75767619999999"
210,ChIJOYR_4bqJoDERuPSsyTOSPWE,Ch·ª•p ·∫£nh em b√© C·∫ßn Th∆°,Studio nhi·∫øp ·∫£nh,0939 401 180,"2Q95+PPR Ch·ª•p ·∫£nh em b√© C·∫ßn Th∆°, H∆∞ng L·ª£i, Ninh Ki·ªÅu, C·∫ßn Th∆°","H∆∞ng L·ª£i, Ninh Ki·ªÅu",2Q95+PPR,C·∫ßn Th∆°,,"Ninh Ki·ªÅu, C·∫ßn Th∆°",VN,"10.019360599999999,105.75925149999999"
213,ChIJ3cg3_FuHoDERgeoPIvWjNoU,K·ª≥ V√¢n Studio & Concept cho thu√™ trang ph·ª•c c·ªï trang C·∫ßn Th∆°,Studio nhi·∫øp ·∫£nh,0911 764 372,"K·ª≥ V√¢n Studio & Concept cho thu√™ trang ph·ª•c c·ªï trang C·∫ßn Th∆°, 115 C√°ch M·∫°ng Th√°ng T√°m/69A ƒê. C√°ch M·∫°ng Th√°ng 8, An Th·ªõi, B√¨nh Th·ªßy, C·∫ßn Th∆° 94000","An Th·ªõi, B√¨nh Th·ªßy",115 C√°ch M·∫°ng Th√°ng T√°m/69A ƒê. C√°ch M·∫°ng Th√°ng 8,C·∫ßn Th∆°,94000.0,"B√¨nh Th·ªßy, C·∫ßn Th∆°",VN,"10.067402,105.7548655"
216,ChIJB2yXclmJoDERF-6b46n7WJM,14Degree Studio,Studio nhi·∫øp ·∫£nh,,"XPRW+F7J 14Degree Studio, ƒê∆∞·ªùng L√™ H·ªìng Nhi, Ba L√°ng, C√°i RƒÉng, C·∫ßn Th∆°","Ba L√°ng, C√°i RƒÉng","XPRW+F7J, ƒê∆∞·ªùng L√™ H·ªìng Nhi",C·∫ßn Th∆°,,"C√°i RƒÉng, C·∫ßn Th∆°",VN,"9.9912051,105.7456399"
231,ChIJ1-2nlX6JoDER_tJkvdDYTsk,Phim Tr∆∞·ªùng SEOUL,Studio nhi·∫øp ·∫£nh,0902 494 606,"Phim Tr∆∞·ªùng SEOUL, 325 V√µ VƒÉn Ki·ªát, An Th·ªõi, B√¨nh Th·ªßy, C·∫ßn Th∆° 94000","An Th·ªõi, B√¨nh Th·ªßy",325 V√µ VƒÉn Ki·ªát,C·∫ßn Th∆°,94000.0,"B√¨nh Th·ªßy, C·∫ßn Th∆°",VN,"10.0506472,105.7538581"
238,ChIJ3TwKx5yJoDERQe9NO1gq1Io,Mjn Baby Studio,Studio nhi·∫øp ·∫£nh,0902 494 606,"Mjn Baby Studio, 325 V√µ VƒÉn Ki·ªát, An Th·ªõi, B√¨nh Th·ªßy, C·∫ßn Th∆°","An Th·ªõi, B√¨nh Th·ªßy",325 V√µ VƒÉn Ki·ªát,C·∫ßn Th∆°,,"B√¨nh Th·ªßy, C·∫ßn Th∆°",VN,"10.0506472,105.7538581"
247,ChIJxxUwkICJoDERww0soiT9gXA,N·∫Øng √°o c∆∞·ªõi - Makeup - T√¢y Studio,Studio nhi·∫øp ·∫£nh,0914 212 212,"N·∫Øng √°o c∆∞·ªõi - Makeup - T√¢y Studio, S·ªë 36 ƒê∆∞·ªùng Tr·∫ßn Minh S∆°n, Ph∆∞·ªùng An Kh√°nh, Ninh Ki·ªÅu, C·∫ßn Th∆°","Ph∆∞·ªùng An Kh√°nh, Ninh Ki·ªÅu",S·ªë 36 ƒê∆∞·ªùng Tr·∫ßn Minh S∆°n,C·∫ßn Th∆°,,"Ninh Ki·ªÅu, C·∫ßn Th∆°",VN,"10.0416892,105.75219519999999"
262,ChIJZednohiIoDERhP8C6_S7ti0,Nguy·ªÖn D≈©ng Studio - ch·ª•p ·∫£nh c∆∞·ªõi C·∫ßn Th∆°,Studio nhi·∫øp ·∫£nh,0917 979 499,"Nguy·ªÖn D≈©ng Studio - ch·ª•p ·∫£nh c∆∞·ªõi C·∫ßn Th∆°, 186 ƒê. Tr·∫ßn H∆∞ng ƒê·∫°o, An Ph√∫, Ninh Ki·ªÅu, C·∫ßn Th∆°","An Ph√∫, Ninh Ki·ªÅu",186 ƒê. Tr·∫ßn H∆∞ng ƒê·∫°o,C·∫ßn Th∆°,,"Ninh Ki·ªÅu, C·∫ßn Th∆°",VN,"10.0363241,105.7757123"
276,ChIJ82HBhOOJoDERrwtn6xMkNUo,Ng·ªçc Tr√¢m Studio,D·ªãch v·ª• nhi·∫øp ·∫£nh,0364 256 442,"Ng·ªçc Tr√¢m Studio, 49/7 ƒê. Tr·∫ßn Ho√†ng Na, H∆∞ng L·ª£i, Ninh Ki·ªÅu, C·∫ßn Th∆°","H∆∞ng L·ª£i, Ninh Ki·ªÅu",49/7 ƒê. Tr·∫ßn Ho√†ng Na,C·∫ßn Th∆°,,"Ninh Ki·ªÅu, C·∫ßn Th∆°",VN,"10.0112255,105.7642324"
278,ChIJh2lMr9mJoDEROfZEE1CsapY,TuÃÄng Nguy√™ÃÉn Studio,Studio nhi·∫øp ·∫£nh,0918 761 030,"TuÃÄng Nguy√™ÃÉn Studio, 23b ƒê. M·∫≠u Th√¢n, Xu√¢n Kh√°nh, Ninh Ki·ªÅu, C·∫ßn Th∆° 900000","Xu√¢n Kh√°nh, Ninh Ki·ªÅu",23b ƒê. M·∫≠u Th√¢n,C·∫ßn Th∆°,900000.0,"Ninh Ki·ªÅu, C·∫ßn Th∆°",VN,"10.0358492,105.77238729999999"
280,ChIJxfW0Z-CJoDERZoCSrT7sG5k,PHIM TR∆Ø·ªúNG VIP,Studio nhi·∫øp ·∫£nh,0914 066 277,"PHIM TR∆Ø·ªúNG VIP, 12/23C ƒê. 3 Th√°ng 2, H∆∞ng L·ª£i, Ninh Ki·ªÅu, C·∫ßn Th∆° 94116","H∆∞ng L·ª£i, Ninh Ki·ªÅu",12/23C ƒê. 3 Th√°ng 2,C·∫ßn Th∆°,94116.0,"Ninh Ki·ªÅu, C·∫ßn Th∆°",VN,"10.0148192,105.75466779999999"
286,ChIJs_YS9SljoDER28SLP_VeyLM,INS Studio,Studio nhi·∫øp ·∫£nh,0388 999 993,"INS Studio, 49/15a ƒê. Tr·∫ßn Ho√†ng Na, H∆∞ng L·ª£i, Ninh Ki·ªÅu, C·∫ßn Th∆°","H∆∞ng L·ª£i, Ninh Ki·ªÅu",49/15a ƒê. Tr·∫ßn Ho√†ng Na,C·∫ßn Th∆°,,"Ninh Ki·ªÅu, C·∫ßn Th∆°",VN,"10.0107634,105.7637242"
309,ChIJ1fx8UrCJoDERTJX2RtO_J0o,NICE STUDIO,Studio nhi·∫øp ·∫£nh,0936 755 765,"NICE STUDIO, 8 ƒê∆∞·ªùng s·ªë 12, Khu Nh√† ·ªû GVƒêH, Ninh Ki·ªÅu, C·∫ßn Th∆°","Khu Nh√† ·ªû GVƒêH, Ninh Ki·ªÅu",8 ƒê∆∞·ªùng s·ªë 12,C·∫ßn Th∆°,,"Ninh Ki·ªÅu, C·∫ßn Th∆°",VN,"10.025884699999999,105.76189529999999"
324,ChIJZYT2GASJoDERH2ifCjLiz0s,Studio Nguy·ªÖn H·ªõn,Studio nhi·∫øp ·∫£nh,0939 006 861,"Studio Nguy·ªÖn H·ªõn, 211/16C ƒê. Nguy·ªÖn VƒÉn Linh, H∆∞ng L·ª£i, Ninh Ki·ªÅu, C·∫ßn Th∆°","H∆∞ng L·ª£i, Ninh Ki·ªÅu",211/16C ƒê. Nguy·ªÖn VƒÉn Linh,C·∫ßn Th∆°,,"Ninh Ki·ªÅu, C·∫ßn Th∆°",VN,"10.0208532,105.7656658"
339,ChIJxxIdb2aJoDEROW_CFACc7Ew,H·∫° Long Wedding C·∫ßn Th∆° - Kh·ªâ Studio,Studio nhi·∫øp ·∫£nh,0333 176 565,"H·∫° Long Wedding C·∫ßn Th∆° - Kh·ªâ Studio, 19A ƒê. M·∫≠u Th√¢n, P, Ninh Ki·ªÅu, C·∫ßn Th∆° 94000","P, Ninh Ki·ªÅu",19A ƒê. M·∫≠u Th√¢n,C·∫ßn Th∆°,94000.0,"Ninh Ki·ªÅu, C·∫ßn Th∆°",VN,"10.039845,105.76822709999999"
343,ChIJ-St3b46JoDER33omcDar3kI,Daisy Studio,Studio nhi·∫øp ·∫£nh,0962 994 644,"Daisy Studio, 73 ƒê∆∞·ªùng B30, Khu d√¢n c∆∞ 91B, Ninh Ki·ªÅu, C·∫ßn Th∆°","Khu d√¢n c∆∞ 91B, Ninh Ki·ªÅu",73 ƒê∆∞·ªùng B30,C·∫ßn Th∆°,,"Ninh Ki·ªÅu, C·∫ßn Th∆°",VN,"10.0203619,105.75438589999999"
347,ChIJtcxVPtKJoDERFUZOkY2EPCs,Soul Step Studio,Studio nhi·∫øp ·∫£nh,,"Soul Step Studio, 482/31a H·∫ªm 482, H∆∞ng L·ª£i, Ninh Ki·ªÅu, C·∫ßn Th∆°","H∆∞ng L·ª£i, Ninh Ki·ªÅu",482/31a H·∫ªm 482,C·∫ßn Th∆°,,"Ninh Ki·ªÅu, C·∫ßn Th∆°",VN,"10.0191138,105.76567809999999"
348,ChIJH-4F7rCJoDERxsePJaJxN94,Studio Elite Bridal L√™ Ph∆∞∆°ng,Studio nhi·∫øp ·∫£nh,0944 675 673,"Studio Elite Bridal L√™ Ph∆∞∆°ng, 149/3 Y√™n B√¨nh, L√™ B√¨nh, C√°i RƒÉng, C·∫ßn Th∆°","L√™ B√¨nh, C√°i RƒÉng",149/3 Y√™n B√¨nh,C·∫ßn Th∆°,,"C√°i RƒÉng, C·∫ßn Th∆°",VN,"10.0033911,105.75042529999999"
357,ChIJ68yQAauJoDER47iHVvUsLlA,Ti·ªám ch·ª•p ·∫£nh Duy√™n D√°ng,Studio nhi·∫øp ·∫£nh,0906 737 136,"Ti·ªám ch·ª•p ·∫£nh Duy√™n D√°ng, 614 ƒê. 30 Th√°ng 4, H∆∞ng L·ª£i, Ninh Ki·ªÅu, C·∫ßn Th∆°","H∆∞ng L·ª£i, Ninh Ki·ªÅu",614 ƒê. 30 Th√°ng 4,C·∫ßn Th∆°,,"Ninh Ki·ªÅu, C·∫ßn Th∆°",VN,"10.0147891,105.7626148"
365,ChIJ06l5t42JoDER0hXMga-aGy8,Qu·ªëc L√™ Studio,Studio nhi·∫øp ·∫£nh,0932 978 400,"Qu·ªëc L√™ Studio, 4a ƒê. ƒêinh Ti√™n Ho√†ng, An H·ªôi, Ninh Ki·ªÅu, C·∫ßn Th∆° 94106","An H·ªôi, Ninh Ki·ªÅu",4a ƒê. ƒêinh Ti√™n Ho√†ng,C·∫ßn Th∆°,94106.0,"Ninh Ki·ªÅu, C·∫ßn Th∆°",VN,"10.0430224,105.7794187"
366,ChIJZzTBVDJjoDERZtTFcjWHRx8,Ch·ª•p ·∫¢nh C∆∞·ªõi - Trang ƒêi·ªÉm ƒê·∫πp C·∫ßn Th∆°,Studio nhi·∫øp ·∫£nh,0898 527 505,"Ch·ª•p ·∫¢nh C∆∞·ªõi - Trang ƒêi·ªÉm ƒê·∫πp C·∫ßn Th∆°, 19 L√Ω H·ªìng Thanh, C√°i Kh·∫ø, Ninh Ki·ªÅu, C·∫ßn Th∆°","C√°i Kh·∫ø, Ninh Ki·ªÅu",19 L√Ω H·ªìng Thanh,C·∫ßn Th∆°,,"Ninh Ki·ªÅu, C·∫ßn Th∆°",VN,"10.046730799999999,105.78305329999999"
367,ChIJdZi8MGCJoDER3mgn-ssk8FQ,ùêçùêé.ùüï ùê¨ùê≠ùêÆùêùùê¢ùê®,Studio nhi·∫øp ·∫£nh,0799 521 225,"ùêçùêé.ùüï ùê¨ùê≠ùêÆùêùùê¢ùê®, 117A ƒê. M·∫≠u Th√¢n, An Ho√†, Ninh Ki·ªÅu, C·∫ßn Th∆° 94000","An Ho√†, Ninh Ki·ªÅu",117A ƒê. M·∫≠u Th√¢n,C·∫ßn Th∆°,94000.0,"Ninh Ki·ªÅu, C·∫ßn Th∆°",VN,"10.043257599999999,105.7727103"
368,ChIJF9qjksOJoDEROUXMmYLkbOk,Nh√† C·ªßa N·∫Øng - Studio Baby&family,Studio nhi·∫øp ·∫£nh,0907 085 085,"Nh√† C·ªßa N·∫Øng - Studio Baby&family, ƒê∆∞·ªùng s·ªë 5A,nh√†, s·ªë 30B kdc, Ph∆∞·ªùng An Kh√°nh, Ninh Ki·ªÅu, C·∫ßn Th∆° 90000","Ph∆∞·ªùng An Kh√°nh, Ninh Ki·ªÅu","ƒê∆∞·ªùng s·ªë 5A,nh√†, s·ªë 30B kdc",C·∫ßn Th∆°,90000.0,"Ninh Ki·ªÅu, C·∫ßn Th∆°",VN,"10.0384908,105.7564307"
369,ChIJV8aTYPZjoDERqE3RtDBlDXk,T√≠ N·ªã studio - ch·ª•p ·∫£nh b√© v√† gia ƒë√¨nh,Studio nhi·∫øp ·∫£nh,0936 250 503,"T√≠ N·ªã studio - ch·ª•p ·∫£nh b√© v√† gia ƒë√¨nh, E38 ƒë∆∞·ªùng s·ªë 3, KƒêT m·ªõi H∆∞ng Ph√∫, P, H∆∞ng Th√†nh, C√°i RƒÉng, C·∫ßn Th∆° 90000","H∆∞ng Th√†nh, C√°i RƒÉng","E38 ƒë∆∞·ªùng s·ªë 3, KƒêT m·ªõi H∆∞ng Ph√∫, P",C·∫ßn Th∆°,90000.0,"C√°i RƒÉng, C·∫ßn Th∆°",VN,"10.0156343,105.73696659999999"
374,ChIJj9xuwhSJoDERXqR0D2GEpSM,Maka Image Studio,Studio nhi·∫øp ·∫£nh,0978 582 987,"Maka Image Studio, 52 Ng√¥ Sƒ© Li√™n, H∆∞ng L·ª£i, Ninh Ki·ªÅu, C·∫ßn Th∆° 900000","H∆∞ng L·ª£i, Ninh Ki·ªÅu",52 Ng√¥ Sƒ© Li√™n,C·∫ßn Th∆°,900000.0,"Ninh Ki·ªÅu, C·∫ßn Th∆°",VN,"10.0213176,105.76077079999999"
404,ChIJY-9bkTCJoDERQ6_WGXYVT0w,YG Streaming Studio,Ph√≤ng thu √¢m,0768 840 331,"YG Streaming Studio, 81G1 khu v·ª±c 2, H·∫ªm L√≤ M·ªï, Ph∆∞·ªùng An Kh√°nh, Ninh Ki·ªÅu, C·∫ßn Th∆° 900000","Ph∆∞·ªùng An Kh√°nh, Ninh Ki·ªÅu","81G1 khu v·ª±c 2, H·∫ªm L√≤ M·ªï",C·∫ßn Th∆°,900000.0,"Ninh Ki·ªÅu, C·∫ßn Th∆°",VN,"10.0377105,105.76661999999999"
447,ChIJTyMWkFljoDERWZg5zbfJf5Q,WT studio,Studio nhi·∫øp ·∫£nh,0939 559 890,"WT studio, R34 ƒê∆∞·ªùng s·ªë 8, KƒêT m·ªõi, C√°i RƒÉng, C·∫ßn Th∆°","KƒêT m·ªõi, C√°i RƒÉng",R34 ƒê∆∞·ªùng s·ªë 8,C·∫ßn Th∆°,,"C√°i RƒÉng, C·∫ßn Th∆°",VN,"10.0113258,105.7920207"
448,ChIJk2N3cmRjoDERm8FHkMG5ztQ,65Hz Studio - Music Vibe,Studio nhi·∫øp ·∫£nh,,"65Hz Studio - Music Vibe, D15-4 ƒê∆∞·ªùng s·ªë 5, Long Th·ªãnh, C√°i RƒÉng, C·∫ßn Th∆°","Long Th·ªãnh, C√°i RƒÉng",D15-4 ƒê∆∞·ªùng s·ªë 5,C·∫ßn Th∆°,,"C√°i RƒÉng, C·∫ßn Th∆°",VN,"10.0015448,105.7980894"
457,ChIJz3DludBjoDERO8cgZ5pD1AA,IVY STUDIO,Studio nhi·∫øp ·∫£nh,0787 970 979,"IVY STUDIO, 235A ƒê. Nguy·ªÖn VƒÉn Linh, H∆∞ng L·ª£i, Ninh Ki·ªÅu, C·∫ßn Th∆° 94000","H∆∞ng L·ª£i, Ninh Ki·ªÅu",235A ƒê. Nguy·ªÖn VƒÉn Linh,C·∫ßn Th∆°,94000.0,"Ninh Ki·ªÅu, C·∫ßn Th∆°",VN,"10.019175299999999,105.7696764"
467,ChIJTbVJi4-NoDERpztrwM1HV3c,Studio Nguy·ªÖn Th·ªëng,Studio nhi·∫øp ·∫£nh,0947 787 701,"Studio Nguy·ªÖn Th·ªëng, Nh∆°n nghƒ©a A, Ch√¢u Th√†nh A, H·∫≠u Giang","Nh∆°n nghƒ©a A, Ch√¢u Th√†nh A",,H·∫≠u Giang,,"Ch√¢u Th√†nh A, H·∫≠u Giang",VN,"9.9316792,105.6386074"
474,ChIJb1LOeKZjoDERqywCMzfbnx0,Anna Studio - Ti·ªám ·∫¢nh Cho B√©,Studio nhi·∫øp ·∫£nh,0967 145 336,"Anna Studio - Ti·ªám ·∫¢nh Cho B√©, 49 ƒê∆∞·ªùng s·ªë 5, KƒêT Nam, C√°i RƒÉng, C·∫ßn Th∆° 900000","KƒêT Nam, C√°i RƒÉng",49 ƒê∆∞·ªùng s·ªë 5,C·∫ßn Th∆°,900000.0,"C√°i RƒÉng, C·∫ßn Th∆°",VN,"10.007803599999999,105.790482"
485,ChIJc4soP32JoDERMjA4A2ffu40,JUL studio,Studio nhi·∫øp ·∫£nh,,"JUL studio, 36 ƒê. Tr·∫ßn Vi·ªát Ch√¢u, Th·ªõi B√¨nh, Ninh Ki·ªÅu, C·∫ßn Th∆°","Th·ªõi B√¨nh, Ninh Ki·ªÅu",36 ƒê. Tr·∫ßn Vi·ªát Ch√¢u,C·∫ßn Th∆°,,"Ninh Ki·ªÅu, C·∫ßn Th∆°",VN,"10.047416199999999,105.776136"
486,ChIJJYYRhSGIoDER3hp_5ZLt7B4,Bao Duy Photo Studio,Studio nhi·∫øp ·∫£nh,0292 3835 601,"Bao Duy Photo Studio, 110/17 Nguyen Viet Hong Street, Ninh Kieu District, Can Tho City, Xu√¢n Kh√°nh, Ninh Ki·ªÅu, C·∫ßn Th∆°","Xu√¢n Kh√°nh, Ninh Ki·ªÅu","110/17 Nguyen Viet Hong Street, Ninh Kieu District, Can Tho City",C·∫ßn Th∆°,,"Ninh Ki·ªÅu, C·∫ßn Th∆°",VN,"10.0307313,105.7768028"
487,ChIJ38EcCeaJoDER5eiurO6HuDY,Trang Bridal Make Up Studio - TK Dance Studio,Studio nhi·∫øp ·∫£nh,0932 841 471,"Trang Bridal Make Up Studio - TK Dance Studio, C90B ƒê. Tr·∫ßn Kh√°nh D∆∞, Xu√¢n Kh√°nh, Ninh Ki·ªÅu, C·∫ßn Th∆°","Xu√¢n Kh√°nh, Ninh Ki·ªÅu",C90B ƒê. Tr·∫ßn Kh√°nh D∆∞,C·∫ßn Th∆°,,"Ninh Ki·ªÅu, C·∫ßn Th∆°",VN,"10.026306199999999,105.77300509999999"
489,ChIJdzG-h6FioDERf0zs6iHXA3k,Studio ƒêƒÉng Khoa,D·ªãch v·ª• nhi·∫øp ·∫£nh,0292 3829 429,"Studio ƒêƒÉng Khoa, 25 ƒê. L√Ω Th∆∞·ªùng Ki·ªát, T√¢n An, Ninh Ki·ªÅu, C·∫ßn Th∆°","T√¢n An, Ninh Ki·ªÅu",25 ƒê. L√Ω Th∆∞·ªùng Ki·ªát,C·∫ßn Th∆°,,"Ninh Ki·ªÅu, C·∫ßn Th∆°",VN,"10.0343558,105.7879298"
491,ChIJv5cRohiIoDERyAB54QwgL8E,Studio H∆∞∆°ng Giang,Studio nhi·∫øp ·∫£nh,0292 3731 815,"Studio H∆∞∆°ng Giang, 238 ƒê. Tr·∫ßn H∆∞ng ƒê·∫°o, An Ph√∫, Ninh Ki·ªÅu, C·∫ßn Th∆°","An Ph√∫, Ninh Ki·ªÅu",238 ƒê. Tr·∫ßn H∆∞ng ƒê·∫°o,C·∫ßn Th∆°,,"Ninh Ki·ªÅu, C·∫ßn Th∆°",VN,"10.0333769,105.77469219999999"
510,ChIJL6-ynDeIoDER9_dnDCNTMJI,M·∫†NH KHANG studio,Studio nhi·∫øp ·∫£nh,0978 582 987,"M·∫†NH KHANG studio, 88 Ng√¥ Sƒ© Li√™n, H∆∞ng L·ª£i, Ninh Ki·ªÅu, C·∫ßn Th∆°","H∆∞ng L·ª£i, Ninh Ki·ªÅu",88 Ng√¥ Sƒ© Li√™n,C·∫ßn Th∆°,,"Ninh Ki·ªÅu, C·∫ßn Th∆°",VN,"10.0206451,105.76030879999999"
512,ChIJ79mCSXmJoDERDi4OQXWOefM,KTIU STUDIO C·∫¶N TH∆†,Studio nhi·∫øp ·∫£nh,0909 022 545,"KTIU STUDIO C·∫¶N TH∆†, 131 ƒê. 3 Th√°ng 2, H∆∞ng L·ª£i, Ninh Ki·ªÅu, C·∫ßn Th∆° 90000","H∆∞ng L·ª£i, Ninh Ki·ªÅu",131 ƒê. 3 Th√°ng 2,C·∫ßn Th∆°,90000.0,"Ninh Ki·ªÅu, C·∫ßn Th∆°",VN,"10.0178613,105.7619644"
536,ChIJxa7qHLiHoDER3WN1vUXrPtA,Nira Bridal Studio,Studio nhi·∫øp ·∫£nh,0907 084 330,"Nira Bridal Studio, 44/60 ƒê. C√°ch M·∫°ng Th√°ng 8, C√°i Kh·∫ø, Ninh Ki·ªÅu, C·∫ßn Th∆°","C√°i Kh·∫ø, Ninh Ki·ªÅu",44/60 ƒê. C√°ch M·∫°ng Th√°ng 8,C·∫ßn Th∆°,,"Ninh Ki·ªÅu, C·∫ßn Th∆°",VN,"10.054743,105.7742991"
537,ChIJpwtBpd6JoDER34ndPQ51awo,MICHUSTUDIO,Studio nhi·∫øp ·∫£nh,0916 456 887,"MICHUSTUDIO, 91 ƒê. Tr·∫ßn Vi·ªát Ch√¢u, Th·ªõi B√¨nh, Ninh Ki·ªÅu, C·∫ßn Th∆°","Th·ªõi B√¨nh, Ninh Ki·ªÅu",91 ƒê. Tr·∫ßn Vi·ªát Ch√¢u,C·∫ßn Th∆°,,"Ninh Ki·ªÅu, C·∫ßn Th∆°",VN,"10.046729,105.77274399999999"
538,ChIJVSOwxl-JoDERz8OGUmXIa3E,FINN Studio,Studio nhi·∫øp ·∫£nh,0939 682 612,"FINN Studio, 43 ƒê. B√† Huy·ªán Thanh Quan, Th·ªõi B√¨nh, Ninh Ki·ªÅu, C·∫ßn Th∆°","Th·ªõi B√¨nh, Ninh Ki·ªÅu",43 ƒê. B√† Huy·ªán Thanh Quan,C·∫ßn Th∆°,,"Ninh Ki·ªÅu, C·∫ßn Th∆°",VN,"10.0462514,105.77790449999999"
539,ChIJIYJ-JdmJoDERHDlN2nzsIp8,Ch·ª•p H√¨nh C∆∞·ªõi Koues Studio C·∫ßn Th∆° - G·∫§U B√îNG ƒê√åNH MAY,Studio nhi·∫øp ·∫£nh,0939 645 676,"Ch·ª•p H√¨nh C∆∞·ªõi Koues Studio C·∫ßn Th∆° - G·∫§U B√îNG ƒê√åNH MAY, 88A Hu·ª≥nh C∆∞∆°ng, An C∆∞, Ninh Ki·ªÅu, C·∫ßn Th∆° 94000","An C∆∞, Ninh Ki·ªÅu",88A Hu·ª≥nh C∆∞∆°ng,C·∫ßn Th∆°,94000.0,"Ninh Ki·ªÅu, C·∫ßn Th∆°",VN,"10.037814899999999,105.77866159999999"
540,ChIJOaHrwyKJoDERFKeUwd_1B1g,Key Studio,Studio nhi·∫øp ·∫£nh,0774 111 189,"Key Studio, 184 ƒê. Nguy·ªÖn ƒê·ªá, An Ho√†, Ninh Ki·ªÅu, C·∫ßn Th∆° 900000","An Ho√†, Ninh Ki·ªÅu",184 ƒê. Nguy·ªÖn ƒê·ªá,C·∫ßn Th∆°,900000.0,"Ninh Ki·ªÅu, C·∫ßn Th∆°",VN,"10.048235499999999,105.76076859999999"
541,ChIJYX7GvOOHoDERyIZay2WAaFg,·∫¢nh K·ªπ Thu·∫≠t S·ªë ƒê·ªó Nguy·ªÖn,Studio nhi·∫øp ·∫£nh,0292 3823 148,"·∫¢nh K·ªπ Thu·∫≠t S·ªë ƒê·ªó Nguy·ªÖn, 264 ƒê. C√°ch M·∫°ng Th√°ng 8, B√πi H·ªØu Nghƒ©a, B√¨nh Th·ªßy, C·∫ßn Th∆°","B√πi H·ªØu Nghƒ©a, B√¨nh Th·ªßy",264 ƒê. C√°ch M·∫°ng Th√°ng 8,C·∫ßn Th∆°,,"B√¨nh Th·ªßy, C·∫ßn Th∆°",VN,"10.0589446,105.7666794"
542,ChIJ_WO5QgiJoDERBHXDJj1sLNQ,Ho√†ng huy studio,Studio nhi·∫øp ·∫£nh,,"Ho√†ng huy studio, 72 ƒê∆∞·ªùng Tr·∫ßn VƒÉn Long, Ph∆∞·ªùng An Kh√°nh, Ninh Ki·ªÅu, C·∫ßn Th∆°","Ph∆∞·ªùng An Kh√°nh, Ninh Ki·ªÅu",72 ƒê∆∞·ªùng Tr·∫ßn VƒÉn Long,C·∫ßn Th∆°,,"Ninh Ki·ªÅu, C·∫ßn Th∆°",VN,"10.0433342,105.7542007"
544,ChIJSUZ8JNxjoDERALI4OYZvaKQ,Floriane Studio,Studio nhi·∫øp ·∫£nh,0706 352 749,"Floriane Studio, T√¢n An, Ninh Ki·ªÅu, C·∫ßn Th∆° 900000","T√¢n An, Ninh Ki·ªÅu",,C·∫ßn Th∆°,900000.0,"Ninh Ki·ªÅu, C·∫ßn Th∆°",VN,"10.0431371,105.7867369"
554,ChIJj53OQP-JoDER8bvQo9j54Nw,√Åo c∆∞·ªõi OnlyYou,Studio nhi·∫øp ·∫£nh,0292 2222 069,"√Åo c∆∞·ªõi OnlyYou, 07 ƒê. ƒêinh Ti√™n Ho√†ng, An H·ªôi, Ninh Ki·ªÅu, C·∫ßn Th∆°","An H·ªôi, Ninh Ki·ªÅu",07 ƒê. ƒêinh Ti√™n Ho√†ng,C·∫ßn Th∆°,,"Ninh Ki·ªÅu, C·∫ßn Th∆°",VN,"10.043282399999999,105.7791953"
558,ChIJc1K0Zdg8gyIRdJsZpmXKDns,T√≠nh ƒê·ªó Studio,Th·ª£ ch·ª•p ·∫£nh ƒë√°m c∆∞·ªõi,0783 972 927,,,,,,,,"10.0461458,105.76615869999999"
562,ChIJ3yoFDG2IoDER9xosTnOWX3Q,Nk Studio,D·ªãch v·ª• nhi·∫øp ·∫£nh,,"Nk Studio, An Kh√°nh, Ninh Ki·ªÅu, C·∫ßn Th∆°","An Kh√°nh, Ninh Ki·ªÅu",,C·∫ßn Th∆°,,"Ninh Ki·ªÅu, C·∫ßn Th∆°",VN,"10.0425627,105.7565296"
565,ChIJMbCQBUCJoDERmEvNWreLP0Y,Dora Studio,Studio nhi·∫øp ·∫£nh,,"2P7W+VH7 Dora Studio, An B√¨nh, Ninh Ki·ªÅu, C·∫ßn Th∆°","An B√¨nh, Ninh Ki·ªÅu",2P7W+VH7,C·∫ßn Th∆°,,"Ninh Ki·ªÅu, C·∫ßn Th∆°",VN,"10.014658599999999,105.7464205"
566,ChIJkYaOnLeJoDER0h25RDEuAiY,Quang Huy Studio Record,Studio nhi·∫øp ·∫£nh,0918 196 874,"Quang Huy Studio Record, 91/44 E, ƒê. 30 Th√°ng 4, H∆∞ng L·ª£i, Ninh Ki·ªÅu, C·∫ßn Th∆°","H∆∞ng L·ª£i, Ninh Ki·ªÅu","91/44 E, ƒê. 30 Th√°ng 4",C·∫ßn Th∆°,,"Ninh Ki·ªÅu, C·∫ßn Th∆°",VN,"10.012176199999999,105.7604477"
567,ChIJm4bAMiiJoDERHEOBmDF_pIQ,V Studios,Studio nhi·∫øp ·∫£nh,0933 333 543,"V Studios, 148/98 H∆∞ng L·ª£i, Ninh Ki·ªÅu, C·∫ßn Th∆°","H∆∞ng L·ª£i, Ninh Ki·ªÅu",148/98 H∆∞ng L·ª£i,C·∫ßn Th∆°,,"Ninh Ki·ªÅu, C·∫ßn Th∆°",VN,"10.0213036,105.7607539"
570,ChIJ1T06MzGJoDERuOm2BdM1xRA,Studio HuuQuoc Y.Retainer,Studio nhi·∫øp ·∫£nh,0847 299 001,"Studio HuuQuoc Y.Retainer, 66 ƒê∆∞·ªùng Tr·∫ßn Ho√†ng Na, H∆∞ng L·ª£i, Ninh Ki·ªÅu, C·∫ßn Th∆°","H∆∞ng L·ª£i, Ninh Ki·ªÅu",66 ƒê∆∞·ªùng Tr·∫ßn Ho√†ng Na,C·∫ßn Th∆°,,"Ninh Ki·ªÅu, C·∫ßn Th∆°",VN,"10.009816899999999,105.76668819999999"
573,ChIJoae_ZSKIoDERl0LWGvdQqps,Studio S∆°n H√†,D·ªãch v·ª• nhi·∫øp ·∫£nh,0292 3832 917,"Studio S∆°n H√†, 15 ƒê. 3 Th√°ng 2, An Ph√∫, Ninh Ki·ªÅu, C·∫ßn Th∆°","An Ph√∫, Ninh Ki·ªÅu",15 ƒê. 3 Th√°ng 2,C·∫ßn Th∆°,,"Ninh Ki·ªÅu, C·∫ßn Th∆°",VN,"10.031693299999999,105.7739185"
574,ChIJDTmeR0OJoDERUzL5yDA6ef8,MT Studio - D·ªãch V·ª• Ch·ª•p ·∫¢nh S·∫£n Ph·∫©m,Studio nhi·∫øp ·∫£nh,0939 384 189,"MT Studio - D·ªãch V·ª• Ch·ª•p ·∫¢nh S·∫£n Ph·∫©m, 26 ƒê. 3 Th√°ng 2, Xu√¢n Kh√°nh, Ninh Ki·ªÅu, C·∫ßn Th∆° 94000","Xu√¢n Kh√°nh, Ninh Ki·ªÅu",26 ƒê. 3 Th√°ng 2,C·∫ßn Th∆°,94000.0,"Ninh Ki·ªÅu, C·∫ßn Th∆°",VN,"10.0297047,105.774732"
575,ChIJo7gbEzaJoDERQEYC3MhrVko,Studio C∆∞·ªùng,Studio nhi·∫øp ·∫£nh,0939 009 268,"Studio C∆∞·ªùng, 46 ƒê. Tr·∫ßn H∆∞ng ƒê·∫°o, An Ph√∫, Ninh Ki·ªÅu, C·∫ßn Th∆°","An Ph√∫, Ninh Ki·ªÅu",46 ƒê. Tr·∫ßn H∆∞ng ƒê·∫°o,C·∫ßn Th∆°,,"Ninh Ki·ªÅu, C·∫ßn Th∆°",VN,"10.034080999999999,105.77519339999999"
577,ChIJi08Q9Z-HoDERRTKMVY5d91Y,LEDI Studio - Ch·ª•p ·∫¢nh Ph√≥ng S·ª± C∆∞·ªõi,Studio nhi·∫øp ·∫£nh,0794 657 528,"LEDI Studio - Ch·ª•p ·∫¢nh Ph√≥ng S·ª± C∆∞·ªõi, 158 L√™ VƒÉn S√¥, An Th·ªõi, B√¨nh Th·ªßy, C·∫ßn Th∆°","An Th·ªõi, B√¨nh Th·ªßy",158 L√™ VƒÉn S√¥,C·∫ßn Th∆°,,"B√¨nh Th·ªßy, C·∫ßn Th∆°",VN,"10.060694699999999,105.7543683"
578,ChIJE_PCXiGIoDERS0HYN2aHfEc,Studio OhTiTi & Cty Camera An T√¢m,Studio nhi·∫øp ·∫£nh,0939 900 508,"Studio OhTiTi & Cty Camera An T√¢m, 19 ƒê. M·∫≠u Th√¢n, An Nghi·ªáp, Ninh Ki·ªÅu, C·∫ßn Th∆° 900000","An Nghi·ªáp, Ninh Ki·ªÅu",19 ƒê. M·∫≠u Th√¢n,C·∫ßn Th∆°,900000.0,"Ninh Ki·ªÅu, C·∫ßn Th∆°",VN,"10.0397877,105.7682966"
580,ChIJNyzXMgKJoDERpBzWxbVz2xw,CR Studio,Studio nhi·∫øp ·∫£nh,,"XQM4+FP4 CR Studio, ƒê∆∞·ªùng s·ªë 24, Th∆∞·ªùng Th·∫°nh, C√°i RƒÉng, C·∫ßn Th∆°","Th∆∞·ªùng Th·∫°nh, C√°i RƒÉng","XQM4+FP4, ƒê∆∞·ªùng s·ªë 24",C·∫ßn Th∆°,,"C√°i RƒÉng, C·∫ßn Th∆°",VN,"9.9837019,105.7568798"
581,ChIJkQBHrnGJoDERDy2inqSrvB8,BABY Studio,Studio nhi·∫øp ·∫£nh,0292 2213 908,"BABY Studio, 439 ƒê. Ph·∫°m H√πng, L√™ B√¨nh, C√°i RƒÉng, C·∫ßn Th∆° 900000","L√™ B√¨nh, C√°i RƒÉng",439 ƒê. Ph·∫°m H√πng,C·∫ßn Th∆°,900000.0,"C√°i RƒÉng, C·∫ßn Th∆°",VN,"9.9967163,105.74966049999999"
582,ChIJwU4prRWJoDERQDUO3_g9JJg,Thi·ªán Ph√∫c Studio,Studio nhi·∫øp ·∫£nh,0899 008 826,"Thi·ªán Ph√∫c Studio, 286 H√†ng G√≤n, Th∆∞·ªùng Th·∫°nh, C√°i RƒÉng, C·∫ßn Th∆° 94000","Th∆∞·ªùng Th·∫°nh, C√°i RƒÉng",286 H√†ng G√≤n,C·∫ßn Th∆°,94000.0,"C√°i RƒÉng, C·∫ßn Th∆°",VN,"9.991512,105.749297"
584,ChIJD3PQZuuJoDERzYC56tytnvk,Doty Studio - Food Photography,Studio nhi·∫øp ·∫£nh,0932 852 541,"Doty Studio - Food Photography, 9D Tr·∫ßn Chi√™n, Khu v·ª±c Th·∫°nh M·ªπ, C√°i RƒÉng, C·∫ßn Th∆° 902072","Khu v·ª±c Th·∫°nh M·ªπ, C√°i RƒÉng",9D Tr·∫ßn Chi√™n,C·∫ßn Th∆°,902072.0,"C√°i RƒÉng, C·∫ßn Th∆°",VN,"10.0041163,105.755324"
