,place_id,name,main_category,phone,address,address_ward,address_street,address_city,address_postal_code,address_state,address_country_code,coordinates
0,ChIJF4ZpWdyJoDERzRN84j08ma8,Cà phê Sữa Đá,Quán cà phê,0859 995 359,"Cà phê Sữa Đá, 79/21 Hùng Vương, An Cư, Ninh Kiều, Cần Thơ","An Cư, Ninh Kiều",79/21 Hùng Vương,Cần Thơ,,"Ninh Kiều, Cần Thơ",VN,"10.0407785,105.778515"
9,ChIJSy1BuqFioDERu4ZlbRPORVo,Trà Sữa ToCoToCo Sense City Cần Thơ,Quán cà phê,0292 2485 858,"Trà Sữa ToCoToCo Sense City Cần Thơ, TTTM Sense City, 1 Đại lộ Hoà Bình, Tân An, Ninh Kiều, Cần Thơ","Tân An, Ninh Kiều","TTTM Sense City, 1 Đại lộ Hoà Bình",Cần Thơ,,"Ninh Kiều, Cần Thơ",VN,"10.0344933,105.78575079999999"
10,ChIJP4falBWJoDERz6_bRtCOBHA,Trà Sữa Ô Long Lasimi Cần Thơ,Trà trân châu,0981 975 565,"Trà Sữa Ô Long Lasimi Cần Thơ, 66 Đ. Lý Tự Trọng, An Cư, Ninh Kiều, Cần Thơ 900000","An Cư, Ninh Kiều",66 Đ. Lý Tự Trọng,Cần Thơ,900000.0,"Ninh Kiều, Cần Thơ",VN,"10.035209499999999,105.77899629999999"
11,ChIJJb1-72SJoDERh3P6EpoBQqs,By Ken Le - Cafe Sữa Bọt,Quán cà phê,,"By Ken Le - Cafe Sữa Bọt, 65 Đ.Xô Viết Nghệ Tĩnh, Tân An, Ninh Kiều, Cần Thơ 900022","Tân An, Ninh Kiều",65 Đ.Xô Viết Nghệ Tĩnh,Cần Thơ,900022.0,"Ninh Kiều, Cần Thơ",VN,"10.0366583,105.7853203"
12,ChIJl-KogmGHoDER-NW7NwV3fSc,Thế Giới Sữa Trần Quang Diệu,Siêu thị,,"Thế Giới Sữa Trần Quang Diệu, 198 Trần Quang Diệu, An Thới, Bình Thủy, Cần Thơ","An Thới, Bình Thủy",198 Trần Quang Diệu,Cần Thơ,,"Bình Thủy, Cần Thơ",VN,"10.058455499999999,105.7664806"
13,ChIJD6soBtmJoDERBEgm9LzM4WI,Trà sữa IKIGAI,Quán cà phê,0792 244 082,"Trà sữa IKIGAI, 43d Đường 3/2, Xuân Khánh, Ninh Kiều, Cần Thơ","Xuân Khánh, Ninh Kiều",43d Đường 3/2,Cần Thơ,,"Ninh Kiều, Cần Thơ",VN,"10.0271242,105.7694576"
27,ChIJHyPNHyGJoDERjSEtA0eTiMg,"Sữa mát nhất l Sữa giúp trẻ tăng chiều cao, cân nặng | Sữa giúp trẻ hết ốm vặt, không táo bón | Sữa PureLac nhập khẩu nguyên hộp New Zealand",Cửa hàng đồ trẻ em,1900 633632,"Sữa mát nhất l Sữa giúp trẻ tăng chiều cao, cân nặng | Sữa giúp trẻ hết ốm vặt, không táo bón | Sữa PureLac nhập khẩu nguyên hộp New Zealand, Tầng 1, Vincom Plaza Hùng Vương, Số 2 Hùng Vương, Q. Ninh Kiều Cần Thơ Can Tho City","Thới Bình, Ninh Kiều","Tầng 1, Vincom Plaza Hùng Vương, Số 2 Hùng Vương, Q. Ninh Kiều Cần Thơ Can Tho City",Cần Thơ,,"Ninh Kiều, Cần Thơ",VN,"10.0454948,105.7794857"
28,ChIJMwvEBmiIoDERVt9jiNFrE6Q,Thế Giới Sữa,Cửa hàng bách hóa,0292 3610 909,"Thế Giới Sữa, C310B/4, Đ. Nguyễn Văn Linh, Phường An Khánh, Ninh Kiều, Cần Thơ","Phường An Khánh, Ninh Kiều","C310B/4, Đ. Nguyễn Văn Linh",Cần Thơ,,"Ninh Kiều, Cần Thơ",VN,"10.0347925,105.7471996"
42,ChIJM7OCUxKJoDERuCCxdefdnIM,Thế Giới Sữa An Bình,Siêu thị,0292 3627 373,"Thế Giới Sữa An Bình, 12 Hẻm 132 Đ. 3 Tháng 2, Hưng Lợi, Ninh Kiều, Cần Thơ","Hưng Lợi, Ninh Kiều",12 Hẻm 132 Đ. 3 Tháng 2,Cần Thơ,,"Ninh Kiều, Cần Thơ",VN,"10.0135045,105.7554304"
48,ChIJi6_Uw4uJoDERwA1B3-b20UA,Tiệm Trà Sữa Tháng Tư,Quán cà phê,0907 154 540,"Tiệm Trà Sữa Tháng Tư, Đ. Số 1/539 Khu dân cư Hậu Thạnh Mỹ, Lê Bình, Cái Răng, Cần Thơ","Lê Bình, Cái Răng",Đ. Số 1/539 Khu dân cư Hậu Thạnh Mỹ,Cần Thơ,,"Cái Răng, Cần Thơ",VN,"10.0033972,105.7574077"
58,ChIJ37TPrzCJoDER82LhGVLiqXo,Thế Giới Sữa Tầm Vu,Siêu thị,0966 300 171,"Thế Giới Sữa Tầm Vu, 230 Tầm Vu, Hưng Lợi, Ninh Kiều, Cần Thơ","Hưng Lợi, Ninh Kiều",230 Tầm Vu,Cần Thơ,,"Ninh Kiều, Cần Thơ",VN,"10.0134139,105.7708483"
60,ChIJeYxOnVeJoDEROGEWvCkb0rI,Trà Sữa Cha Tee,Quán cà phê,0823 658 456,"Trà Sữa Cha Tee, 88 Huỳnh Cương, An Cư, Ninh Kiều, Cần Thơ","An Cư, Ninh Kiều",88 Huỳnh Cương,Cần Thơ,,"Ninh Kiều, Cần Thơ",VN,"10.0379125,105.7787031"
64,ChIJgbz6eh6IoDERA7ZbA3FFNco,Trà Sữa Matcha 6,Quán cà phê,0906 131 294,"Trà Sữa Matcha 6, 69 Đ. Huỳnh Thúc Kháng, An Cư, Ninh Kiều, Cần Thơ","An Cư, Ninh Kiều",69 Đ. Huỳnh Thúc Kháng,Cần Thơ,,"Ninh Kiều, Cần Thơ",VN,"10.0401901,105.77523889999999"
69,ChIJ5_9lIiaJoDERpEKVQDAF5l0,Trà sữa IKIGAI,Quán cà phê,0907 506 201,"Trà sữa IKIGAI, 138/20 Nguyễn Văn Cừ Nối Dài, Phường An Khánh, Ninh Kiều, Cần Thơ","Phường An Khánh, Ninh Kiều",138/20 Nguyễn Văn Cừ Nối Dài,Cần Thơ,,"Ninh Kiều, Cần Thơ",VN,"10.0393142,105.76057829999999"
70,ChIJxzuXdGyIoDER3P-HrjtuNN4,Thế Giới Sữa An Khánh,Cửa hàng trẻ em,0988 497 121,"Thế Giới Sữa An Khánh, 23-25 Đ. Tô Hiến Thành, Phường An Khánh, Ninh Kiều, Cần Thơ","Phường An Khánh, Ninh Kiều",23-25 Đ. Tô Hiến Thành,Cần Thơ,,"Ninh Kiều, Cần Thơ",VN,"10.0397322,105.75463599999999"
76,ChIJY1VZ37-JoDERNI5PVey8lxg,Trà sữa IKIGAI,Quán cà phê,0764 817 860,"Trà sữa IKIGAI, 107 Đ. Nguyễn Văn Cừ, An Hoà, Ninh Kiều, Cần Thơ","An Hoà, Ninh Kiều",107 Đ. Nguyễn Văn Cừ,Cần Thơ,,"Ninh Kiều, Cần Thơ",VN,"10.0496787,105.77168879999999"
82,ChIJ3T9gZMGJoDERA6f0cSLphSs,Trà sữa Cô Vy 2,Cửa hàng trà,0972 739 799,"Trà sữa Cô Vy 2, 33 Tran Hoang Na, Hung Loi ward Can Tho Can Tho City, 94116","Hưng Lợi, Ninh Kiều","33 Tran Hoang Na, Hung Loi ward Can Tho Can Tho City",Cần Thơ,94116.0,"Ninh Kiều, Cần Thơ",VN,"10.012226199999999,105.7640126"
84,ChIJeeefHEuJoDERhyZvmXiQQyY,Thế Giới Sữa Cái Răng,Siêu thị,0989 723 121,"Thế Giới Sữa Cái Răng, 468 Trần Hưng Đạo, Lê Bình, Cái Răng, Cần Thơ","Lê Bình, Cái Răng",468 Trần Hưng Đạo,Cần Thơ,,"Cái Răng, Cần Thơ",VN,"10.003256499999999,105.7514305"
85,ChIJE_x99iWJoDERjAUQe4DDLVk,Chin - Milktea & Macchiato (Trà sữa Chin),Quán cà phê,1900 868602,"Chin - Milktea & Macchiato (Trà sữa Chin), 724, Hưng Lợi, Ninh Kiều, Cần Thơ","Hưng Lợi, Ninh Kiều",724,Cần Thơ,,"Ninh Kiều, Cần Thơ",VN,"10.0123029,105.7597272"
93,ChIJD9B-MQpjoDERXCgU9x7LSWU,Sữa Bắp SuBa chi nhánh Bến Ninh Kiều,Quán cà phê,,"2QJP+MXQ Sữa Bắp SuBa chi nhánh Bến Ninh Kiều, Phan Bội Châu, Tân An, Ninh Kiều, Cần Thơ","Tân An, Ninh Kiều","2QJP+MXQ, Phan Bội Châu",Cần Thơ,,"Ninh Kiều, Cần Thơ",VN,"10.0317168,105.7874933"
94,ChIJC38ePwmIoDERG74sFU_yC8s,"Cửa hàng ""Giấc mơ sữa Việt""",Cửa hàng bơ sữa,1900 636979,"Cửa hàng ""Giấc mơ sữa Việt"", Số 158 Đường 30/4, P. An Phú, Q. Ninh Kiều, TP. Cần Thơ, Cần Thơ, 900014","An Hoà, Cần Thơ","Số 158 Đường 30/4, P. An Phú, Q. Ninh Kiều, TP. Cần Thơ",Cần Thơ,900014.0,Cần Thơ,VN,"10.0507717,105.76609959999999"
95,ChIJA3SNqCKJoDERxDtOHJbeLA0,Trà sữa STAR,Cửa hàng cà phê,0939 255 008,"Trà sữa STAR, Số 71 Đường Số 2, KDC Thới Nhựt (Trà Sữa STAR Ninh Kiều Can Tho City, 90000","Phường An Khánh, Ninh Kiều","Số 71 Đường Số 2, KDC Thới Nhựt (Trà Sữa STAR Ninh Kiều Can Tho City",Cần Thơ,90000.0,"Ninh Kiều, Cần Thơ",VN,"10.0423762,105.7544386"
96,ChIJ9cZltm6JoDERP0KT91DaHfg,Him's - Cơm gà & Trà sữa,Quán cà phê,0378 040 419,"Him's - Cơm gà & Trà sữa, 116a Đ. 3 Tháng 2, Xuân Khánh, Ninh Kiều, Cần Thơ 930000","Xuân Khánh, Ninh Kiều",116a Đ. 3 Tháng 2,Cần Thơ,930000.0,"Ninh Kiều, Cần Thơ",VN,"10.0292009,105.77192319999999"
97,ChIJR5Ah4yqJoDERIyjeccQ-Gj4,Trà Sữa Đậm Cần Thơ - 88 Trần Việt Châu,Trà trân châu,0794 323 999,"Trà Sữa Đậm Cần Thơ - 88 Trần Việt Châu, 88 Đ. Trần Việt Châu, An Hoà, Ninh Kiều, Cần Thơ 94108","An Hoà, Ninh Kiều",88 Đ. Trần Việt Châu,Cần Thơ,94108.0,"Ninh Kiều, Cần Thơ",VN,"10.050665,105.772831"
98,ChIJc3FgNSSJoDER0c7x_cOB3BE,Sữa chữa điện nước Cần Thơ,Cửa hàng thiết bị điện,0396 793 866,"Sữa chữa điện nước Cần Thơ, Đ. Nguyễn Văn Cừ, Phường An Khánh, Ninh Kiều, Cần Thơ 900000","Phường An Khánh, Ninh Kiều",Đ. Nguyễn Văn Cừ,Cần Thơ,900000.0,"Ninh Kiều, Cần Thơ",VN,"10.0419684,105.76046319999999"
101,ChIJuwXmwpaJoDERaSCCmluiwZk,Trà 255 - Trà Sữa & Trà Trái Cây ngon tại Cần Thơ,Quán cà phê,,"Trà 255 - Trà Sữa & Trà Trái Cây ngon tại Cần Thơ, 595 Đ. 30 Tháng 4, Hưng Lợi, Ninh Kiều, Cần Thơ 960000","Hưng Lợi, Ninh Kiều",595 Đ. 30 Tháng 4,Cần Thơ,960000.0,"Ninh Kiều, Cần Thơ",VN,"10.0115921,105.75861809999999"
102,ChIJq6fyMgCJoDERJVAoU3hKFlM,"TOMI SHOP - Sữa, Tã, Mẹ và Bé",Cửa hàng,,"TOMI SHOP - Sữa, Tã, Mẹ và Bé, 103/3 KDC 3A, KV5, Ninh Kiều, Cần Thơ","KV5, Ninh Kiều",103/3 KDC 3A,Cần Thơ,,"Ninh Kiều, Cần Thơ",VN,"10.0043382,105.74347519999999"
107,ChIJTV1AuwVjoDERhkknB4I216g,Máy thông tắc tia sữa tự làm tại nhà Lavie Mom - Chi nhánh Cần Thơ,Cửa hàng trẻ em,0708 588 534,"Máy thông tắc tia sữa tự làm tại nhà Lavie Mom - Chi nhánh Cần Thơ, 278 Tầm Vu, Hưng Lợi, Ninh Kiều, Cần Thơ 94000","Hưng Lợi, Ninh Kiều",278 Tầm Vu,Cần Thơ,94000.0,"Ninh Kiều, Cần Thơ",VN,"10.0164566,105.770856"
111,ChIJ4zaQ_huHoDERp4vCG_lCEL4,Trà Sữa Mến Dink&Food,Quán cà phê,0333 285 566,"Trà Sữa Mến Dink&Food, 260 Đ. Cách Mạng Tháng 8, Bùi Hữu Nghĩa, Bình Thủy, Cần Thơ","Bùi Hữu Nghĩa, Bình Thủy",260 Đ. Cách Mạng Tháng 8,Cần Thơ,,"Bình Thủy, Cần Thơ",VN,"10.058943,105.7667132"
112,ChIJoaDKPX-JoDERB9ZFmrec07c,Trà sữa & Cafe Laxy Takeaway - đường 30 tháng 4,Quán cà phê,,"Trà sữa & Cafe Laxy Takeaway - đường 30 tháng 4, 82 Đ. 30 Tháng 4, An Lạc, Ninh Kiều, Cần Thơ","An Lạc, Ninh Kiều",82 Đ. 30 Tháng 4,Cần Thơ,,"Ninh Kiều, Cần Thơ",VN,"10.029798,105.7797873"
114,ChIJ6cB3o46JoDERq_BdvzTMWvs,Trà Sữa NGÕ (Nguyễn Văn Cừ),Quán cà phê,0768 602 684,"Trà Sữa NGÕ (Nguyễn Văn Cừ), 502 Đ. Nguyễn Văn Cừ, An Hoà, TP, Cần Thơ","An Hoà, TP",502 Đ. Nguyễn Văn Cừ,Cần Thơ,,"TP, Cần Thơ",VN,"10.0445257,105.7659927"
118,ChIJq66IBg-IoDERT_bneZY0FBQ,"Cửa hàng ""Giấc mơ sữa Việt""",Cửa hàng bơ sữa,1900 636979,"Cửa hàng ""Giấc mơ sữa Việt"", Số 311 Nguyễn Văn Cừ, P. An Hòa, Q. Ninh Kiều, TP. Cần Thơ, Cần Thơ, 900014","An Hoà, Cần Thơ","Số 311 Nguyễn Văn Cừ, P. An Hòa, Q. Ninh Kiều, TP. Cần Thơ",Cần Thơ,900014.0,Cần Thơ,VN,"10.047146099999999,105.7679229"
120,ChIJwVt6GEWIoDER0nUKPPVFy_Y,Máy Hút Sữa Cần Thơ,Cửa hàng,0911 611 657,"Máy Hút Sữa Cần Thơ, 48 Đ.Xuân Thủy, An Bình, Ninh Kiều, Cần Thơ","An Bình, Ninh Kiều",48 Đ.Xuân Thủy,Cần Thơ,,"Ninh Kiều, Cần Thơ",VN,"10.0255826,105.74834489999999"
124,ChIJt4u4SEKIoDERR6Dehr84E1Q,Quán Cà Phê Hoa Sữa,Quán cà phê,,"Quán Cà Phê Hoa Sữa, 80 KDC Thới Nhựt, Quận Ninh Kiều, Tp Cần Thơ, Phường An Khánh, Ninh Kiều, Cần Thơ","Phường An Khánh, Ninh Kiều","80 KDC Thới Nhựt, Quận Ninh Kiều, Tp Cần Thơ",Cần Thơ,,"Ninh Kiều, Cần Thơ",VN,"10.030717,105.75233279999999"
131,ChIJ80-9fz2JoDERhoH6sR1D0NE,Sancha-Trà Sữa,Quán cà phê,,"Sancha-Trà Sữa, 19b Trần Bạch Đằng, Phường An Khánh, Ninh Kiều, Cần Thơ","Phường An Khánh, Ninh Kiều",19b Trần Bạch Đằng,Cần Thơ,,"Ninh Kiều, Cần Thơ",VN,"10.040033399999999,105.7514503"
134,ChIJI8SmTnqJoDERFPzfcyWXSI0,Trà sữa DUFANG,Quán cà phê,0859 204 698,"Trà sữa DUFANG, 160b Đ. 3 Tháng 2, Xuân Khánh, Ninh Kiều, Cần Thơ 900000","Xuân Khánh, Ninh Kiều",160b Đ. 3 Tháng 2,Cần Thơ,900000.0,"Ninh Kiều, Cần Thơ",VN,"10.0258109,105.76884679999999"
143,ChIJM_Vk4jSIoDERyS4vAweexIE,Trà sữa Lắng,Quán cà phê,0982 808 870,"Trà sữa Lắng, 108 Đ. 30 Tháng 4, Hưng Lợi, Ninh Kiều, Cần Thơ","Hưng Lợi, Ninh Kiều",108 Đ. 30 Tháng 4,Cần Thơ,,"Ninh Kiều, Cần Thơ",VN,"10.0135694,105.76184599999999"
146,ChIJe9sIQQqJoDERERCmcj5X9So,Trà sữa ACE,Quán cà phê,0355 737 078,"Trà sữa ACE, Hẻm 51 Đ. 3-2, Phường An Khánh, Ninh Kiều, Cần Thơ","Phường An Khánh, Ninh Kiều",Hẻm 51 Đ. 3-2,Cần Thơ,,"Ninh Kiều, Cần Thơ",VN,"10.0284927,105.7628979"
154,ChIJ5QaeOeaHoDERjVRonU--Vp4,Trà sữa - Cà phê Thanh Châu,Cửa hàng,0919 080 409,"Trà sữa - Cà phê Thanh Châu, 54 Trần Quang Diệu, An Thới, Bình Thủy, Cần Thơ","An Thới, Bình Thủy",54 Trần Quang Diệu,Cần Thơ,,"Bình Thủy, Cần Thơ",VN,"10.056587799999999,105.7550467"
156,ChIJAecydnpjoDERDyh6LzA_CNE,Trà sữa Singapore - Nguyễn Khuyến,Trà trân châu,0909 102 183,"Trà sữa Singapore - Nguyễn Khuyến, 02 Đ. Nguyễn Khuyến, Tân An, Ninh Kiều, Cần Thơ 94000","Tân An, Ninh Kiều",02 Đ. Nguyễn Khuyến,Cần Thơ,94000.0,"Ninh Kiều, Cần Thơ",VN,"10.035566099999999,105.7837945"
157,ChIJKbckeCGJoDERrbEFQvgJc0M,TheClass - Tiệm trà sữa trân châu,Quán cà phê,0789 051 997,"TheClass - Tiệm trà sữa trân châu, 232 Đ. 30 Tháng 4, Xuân Khánh, Ninh Kiều, Cần Thơ","Xuân Khánh, Ninh Kiều",232 Đ. 30 Tháng 4,Cần Thơ,,"Ninh Kiều, Cần Thơ",VN,"10.026588499999999,105.7760564"
158,ChIJH9QMGQhjoDERVAq0d-Sq6iI,Trà Sữa Oolong Tea & Milk,Quán cà phê,0833 395 900,"Trà Sữa Oolong Tea & Milk, 136 Đường Hai Bà Trưng, Street, Ninh Kiều, Cần Thơ","Street, Ninh Kiều",136 Đường Hai Bà Trưng,Cần Thơ,,"Ninh Kiều, Cần Thơ",VN,"10.0315517,105.7880632"
163,ChIJj8M-T6KJoDERiiWUAfWxEEc,Trà Sữa QING CHUN,Trà trân châu,0774 883 386,"Trà Sữa QING CHUN, 163d/10 Nguyễn Văn Cừ Nối Dài, Phường An Khánh, Ninh Kiều, Cần Thơ","Phường An Khánh, Ninh Kiều",163d/10 Nguyễn Văn Cừ Nối Dài,Cần Thơ,,"Ninh Kiều, Cần Thơ",VN,"10.0377075,105.75904779999999"
170,ChIJibIYUBuJoDERTrPcq52vNhw,Trà sữa Kendy-Tea Cần Thơ,Trà trân châu,0938 980 756,"Trà sữa Kendy-Tea Cần Thơ, 24 Đ. Phan Văn Trị, An Phú, Ninh Kiều, Cần Thơ 94000","An Phú, Ninh Kiều",24 Đ. Phan Văn Trị,Cần Thơ,94000.0,"Ninh Kiều, Cần Thơ",VN,"10.0324923,105.7806576"
172,ChIJvfp5GFSJoDERebz4teQySks,Sữa Coffee,Quán cà phê,,"Sữa Coffee, Quang Trung, Hưng Phú, Ninh Kiều, Cần Thơ","Hưng Phú, Ninh Kiều",Quang Trung,Cần Thơ,,"Ninh Kiều, Cần Thơ",VN,"10.0229942,105.7778136"
176,ChIJU5QwiT6JoDERYZU0ZB8P7Ts,Trà sữa QING CHUN - Nguyễn Văn Cừ,Trà trân châu,0939 469 389,"Trà sữa QING CHUN - Nguyễn Văn Cừ, 400 Đ. Nguyễn Văn Cừ, An Hoà, Ninh Kiều, Cần Thơ","An Hoà, Ninh Kiều",400 Đ. Nguyễn Văn Cừ,Cần Thơ,,"Ninh Kiều, Cần Thơ",VN,"10.0480933,105.7695207"
182,ChIJfQsbNUCJoDERx5xIFFAX0u0,Trà Sữa QING CHUN - Chi nhánh An Bình,Cửa hàng trà truyền thống,0706 757 268,"Trà Sữa QING CHUN - Chi nhánh An Bình, 90A/3 Đường 3/2 nối dài, P, Ninh Kiều, Cần Thơ","P, Ninh Kiều",90A/3 Đường 3/2 nối dài,Cần Thơ,,"Ninh Kiều, Cần Thơ",VN,"10.0104388,105.7511105"
188,ChIJhQdP-L-JoDERftcvENRETZw,TRÀ SỮA DUFANG,Cửa hàng trà,0971 972 234,"TRÀ SỮA DUFANG, 381c Đ. Nguyễn Văn Cừ, An Hoà, Ninh Kiều, Cần Thơ","An Hoà, Ninh Kiều",381c Đ. Nguyễn Văn Cừ,Cần Thơ,,"Ninh Kiều, Cần Thơ",VN,"10.0444082,105.7663013"
190,ChIJxdxYg8uJoDERqF7KcBAAUFM,Trà Sữa Ếch Tea Cần Thơ,Quán cà phê,0907 031 413,"Trà Sữa Ếch Tea Cần Thơ, 2 Hẻm 51, 3/2, Ninh Kiều, Cần Thơ 900000","3/2, Ninh Kiều",2 Hẻm 51,Cần Thơ,900000.0,"Ninh Kiều, Cần Thơ",VN,"10.030162599999999,105.7618457"
191,ChIJEewZk3SJoDERusHvjLfwGEY,Trà Sữa Chin (Phạm Hùng),Quán cà phê,,"Trà Sữa Chin (Phạm Hùng), 234 Đ. Phạm Hùng, Lê Bình, Cái Răng, Cần Thơ","Lê Bình, Cái Răng",234 Đ. Phạm Hùng,Cần Thơ,,"Cái Răng, Cần Thơ",VN,"10.0002169,105.75017919999999"
193,ChIJp5kKZDiIoDER5ZIAgXGFBZU,Trà sữa Bo Bo,Trà trân châu,,"Trà sữa Bo Bo, QL91B, Hưng Lợi, Ninh Kiều, Cần Thơ","Hưng Lợi, Ninh Kiều",QL91B,Cần Thơ,,"Ninh Kiều, Cần Thơ",VN,"10.0252331,105.7596061"
195,ChIJm6FP_T2JoDERvBJOlxI8nWE,Sữa Chua Trân Châu Phúc Long,Quán cà phê,,"Sữa Chua Trân Châu Phúc Long, 12 Hẻm 51, Xuân Khánh, Ninh Kiều, Cần Thơ","Xuân Khánh, Ninh Kiều",12 Hẻm 51,Cần Thơ,,"Ninh Kiều, Cần Thơ",VN,"10.026157099999999,105.7658577"
198,ChIJh4ybFTaJoDERMAaZrydVW4w,Trà Sữa Nè Ný,Quán cà phê,0939 161 165,"Trà Sữa Nè Ný, QL91B, Phường An Khánh, Ninh Kiều, Cần Thơ","Phường An Khánh, Ninh Kiều",QL91B,Cần Thơ,,"Ninh Kiều, Cần Thơ",VN,"10.027491,105.7556055"
199,ChIJc-siGMKJoDERPDja18chePw,Vinamilk - Giấc Mơ Sữa Việt,Cửa hàng bơ sữa,0292 3828 689,"Vinamilk - Giấc Mơ Sữa Việt, 700 Đ. 30 Tháng 4, Hưng Lợi, Ninh Kiều, Cần Thơ","Hưng Lợi, Ninh Kiều",700 Đ. 30 Tháng 4,Cần Thơ,,"Ninh Kiều, Cần Thơ",VN,"10.012721899999999,105.76023409999999"
204,ChIJwTIsGyOIoDERoTTOwfBh784,Trà sữa Paris,Quán cà phê,0932 938 151,"Trà sữa Paris, 94 Hẻm 43 3 Tháng 2, Xuân Khánh, Ninh Kiều, Cần Thơ","Xuân Khánh, Ninh Kiều",94 Hẻm 43 3 Tháng 2,Cần Thơ,,"Ninh Kiều, Cần Thơ",VN,"10.027300499999999,105.7694995"
212,ChIJ5-I1cUdjoDERqPk1qabP-eU,TRÀ SỮA ĐỐM,Trà trân châu,0907 239 492,"TRÀ SỮA ĐỐM, 9 Đ. Nguyễn Khuyến, Tân An, Ninh Kiều, Cần Thơ","Tân An, Ninh Kiều",9 Đ. Nguyễn Khuyến,Cần Thơ,,"Ninh Kiều, Cần Thơ",VN,"10.0353114,105.7838457"
215,ChIJTXaDMqBioDERRFZJmpFSk6Q,Đại Lý Cầu Tre sữa bò Long Thành,Cửa hàng trà,0292 3825 609,"Đại Lý Cầu Tre sữa bò Long Thành, 19 Đ. Đồng Khởi, Tân An, Ninh Kiều, Cần Thơ","Tân An, Ninh Kiều",19 Đ. Đồng Khởi,Cần Thơ,,"Ninh Kiều, Cần Thơ",VN,"10.033152099999999,105.7850888"
219,ChIJ48LnReWJoDERSwhTPO8diRY,Trà Sữa Su Kem - Trần Nam Phú,Quán cà phê,0939 066 535,"2QM6+7X6 Trà Sữa Su Kem - Trần Nam Phú, Phường An Khánh, Ninh Kiều, Cần Thơ","Phường An Khánh, Ninh Kiều",2QM6+7X6,Cần Thơ,,"Ninh Kiều, Cần Thơ",VN,"10.0331532,105.76238869999999"
224,ChIJh-AivtSJoDERDGMrzX0Le94,Cà Phê Trà Sữa,Quán cà phê,,"2Q9G+H49 Cà Phê Trà Sữa, Hưng Lợi, Cái Răng, Cần Thơ","Hưng Lợi, Cái Răng",2Q9G+H49,Cần Thơ,,"Cái Răng, Cần Thơ",VN,"10.0147491,105.77188819999999"
232,ChIJec75v5SJoDER0LCkz02Tkrg,Vinamilk Giấc Mơ Sữa Việt,Cửa hàng bơ sữa,0899 300 222,"Vinamilk Giấc Mơ Sữa Việt, 100 Đ. Mậu Thân, An Phú, Ninh Kiều, Cần Thơ","An Phú, Ninh Kiều",100 Đ. Mậu Thân,Cần Thơ,,"Ninh Kiều, Cần Thơ",VN,"10.0294855,105.77629499999999"
237,ChIJEWq5BJeJoDERuxBsp4sxsxY,Sữa Dừa 1991,Trà trân châu,0907 080 891,"Sữa Dừa 1991, Hẻm liên tổ 12-20, đường, Nguyễn Văn Cừ Nối Dài, Phường An Khánh, Ninh Kiều, Cần Thơ","Phường An Khánh, Ninh Kiều","Hẻm liên tổ 12-20, đường, Nguyễn Văn Cừ Nối Dài",Cần Thơ,,"Ninh Kiều, Cần Thơ",VN,"10.0420531,105.76340499999999"
238,ChIJuToJsH6JoDERiGqNpfO4qbE,Sữa bò thanh trùng ATMilk Cần Thơ,Cửa hàng tạp phẩm,0938 334 027,"Sữa bò thanh trùng ATMilk Cần Thơ, 113 Đ. Nguyễn Tri Phương, Phường An Khánh, Ninh Kiều, Cần Thơ","Phường An Khánh, Ninh Kiều",113 Đ. Nguyễn Tri Phương,Cần Thơ,,"Ninh Kiều, Cần Thơ",VN,"10.0420341,105.75271749999999"
245,ChIJkzMOK1aJoDERDpIggiZtvlI,Trà sữa Nguyên Tâm,Quán cà phê,,"Trà sữa Nguyên Tâm, 360 đường, Lê Bình, Cái Răng, Cần Thơ","Lê Bình, Cái Răng",360 đường,Cần Thơ,,"Cái Răng, Cần Thơ",VN,"9.9992281,105.7509225"
253,ChIJCwVsDSmJoDERWydaijy5YJo,Trà Sữa Béo,Quán cà phê,0396 401 284,"Trà Sữa Béo, 3/11K2/5 Đường vào Sân Cầu Lông, Phường An Khánh, Ninh Kiều, Cần Thơ 70000","Phường An Khánh, Ninh Kiều",3/11K2/5 Đường vào Sân Cầu Lông,Cần Thơ,70000.0,"Ninh Kiều, Cần Thơ",VN,"10.0254993,105.76259209999999"
255,ChIJx6QI-DOIoDERDotHxmuCP50,Trà Sữa 07,Quán cà phê,0907 993 967,"Trà Sữa 07, 568 Đ. 30 Tháng 4, Hưng Lợi, Ninh Kiều, Cần Thơ","Hưng Lợi, Ninh Kiều",568 Đ. 30 Tháng 4,Cần Thơ,,"Ninh Kiều, Cần Thơ",VN,"10.0165946,105.76444199999999"
263,ChIJHQbZq7ZjoDERStnFFygzjuY,Trà sữa Gold Tea,Quán cà phê,0942 990 676,"Trà sữa Gold Tea, 10 Phan Bội Châu, Tân An, Ninh Kiều, Cần Thơ","Tân An, Ninh Kiều",10 Phan Bội Châu,Cần Thơ,,"Ninh Kiều, Cần Thơ",VN,"10.03171,105.78779829999999"
267,ChIJeWfUhbaJoDERgEDVw6LkYgg,Trà Sữa Hippopo - Nguyễn Tri Phương,Trà trân châu,0931 020 323,"Trà Sữa Hippopo - Nguyễn Tri Phương, 63 Đ. Nguyễn Tri Phương, Phường An Khánh, Ninh Kiều, Cần Thơ 90000","Phường An Khánh, Ninh Kiều",63 Đ. Nguyễn Tri Phương,Cần Thơ,90000.0,"Ninh Kiều, Cần Thơ",VN,"10.0401677,105.75684079999999"
268,ChIJe0XZwP6JoDER22WVlyv-S0U,Trà sữa Muối House,Trà trân châu,,"Trà sữa Muối House, 126 Đ. Nguyễn Văn Cừ, Phường An Khánh, Ninh Kiều, Cần Thơ","Phường An Khánh, Ninh Kiều",126 Đ. Nguyễn Văn Cừ,Cần Thơ,,"Ninh Kiều, Cần Thơ",VN,"10.0414155,105.7628225"
269,ChIJOWtQzhiJoDERZRtJZ-FgU1Y,CHÈ BƯỞI - SỮA BẮP HỒNG PHÁT,Quán cà phê,,"CHÈ BƯỞI - SỮA BẮP HỒNG PHÁT, 34b Đ. Trần Hoàng Na, Phường An Khánh, Ninh Kiều, Cần Thơ","Phường An Khánh, Ninh Kiều",34b Đ. Trần Hoàng Na,Cần Thơ,,"Ninh Kiều, Cần Thơ",VN,"10.023960899999999,105.7509261"
271,ChIJ597HUh2JoDERVPS71d0K77o,PiTi Milk - Sữa Đậu Nành và Trà trái cây,Cửa hàng trà,0939 593 876,"2Q97+RWW PiTi Milk - Sữa Đậu Nành và Trà trái cây, Hẻm 195 Đ. 3 Tháng 2, Hưng Lợi, Ninh Kiều, Cần Thơ","Hưng Lợi, Ninh Kiều","2Q97+RWW, Hẻm 195 Đ. 3 Tháng 2",Cần Thơ,,"Ninh Kiều, Cần Thơ",VN,"10.0196022,105.7648219"
274,ChIJQVAfJ6iJoDERZzP6bI8v4dI,Trà Sữa QING CHUN,Trà trân châu,0707 424 078,"Trà Sữa QING CHUN, 114 Đ. Mậu Thân, An Nghiệp, Ninh Kiều, Cần Thơ 900000","An Nghiệp, Ninh Kiều",114 Đ. Mậu Thân,Cần Thơ,900000.0,"Ninh Kiều, Cần Thơ",VN,"10.0373588,105.7717696"
276,ChIJVYpFOjeIoDEROoAb0tVsK2w,Cửa Hàng Sữa Meiji Gold,Cửa hàng thực phẩm,0292 3832 262,"Cửa Hàng Sữa Meiji Gold, 200, Đường Ba Tháng Hai, Phường Hưng Lợi, Quận Ninh Kiều, Hưng Lợi, Ninh Kiều, Cần Thơ","Hưng Lợi, Ninh Kiều","200, Đường Ba Tháng Hai, Phường Hưng Lợi, Quận Ninh Kiều",Cần Thơ,,"Ninh Kiều, Cần Thơ",VN,"10.0208662,105.76358909999999"
277,ChIJj2VtTkSJoDERzRdixr1Fm1w,Cửa hàng sữa TH truemilk,Cửa hàng,0292 3890 016,"Cửa hàng sữa TH truemilk, 36 Đ. Trần Việt Châu, Thới Bình, Ninh Kiều, Cần Thơ","Thới Bình, Ninh Kiều",36 Đ. Trần Việt Châu,Cần Thơ,,"Ninh Kiều, Cần Thơ",VN,"10.0478296,105.7750263"
278,ChIJzR7n4_6HoDERMcQT-kFtOJs,Trà Sữa TEEN TEEN,Quán cà phê,,"Trà Sữa TEEN TEEN, 28 Phạm Công Trứ, Cái Khế, Ninh Kiều, Cần Thơ","Cái Khế, Ninh Kiều",28 Phạm Công Trứ,Cần Thơ,,"Ninh Kiều, Cần Thơ",VN,"10.0581514,105.7788475"
287,ChIJyaiQQWGJoDERBUpOEjM1ODI,Trà sữa hạt Bách Nguyên,,0939 963 632,"Trà sữa hạt Bách Nguyên, 138B1 Nguyễn Văn Cừ Nối Dài, Phường An Khánh, Ninh Kiều, Cần Thơ 900000","Phường An Khánh, Ninh Kiều",138B1 Nguyễn Văn Cừ Nối Dài,Cần Thơ,900000.0,"Ninh Kiều, Cần Thơ",VN,"10.0407159,105.7620111"
290,ChIJzdpZFC-JoDERoptrURDDhbI,"Cửa hàng ""Giấc mơ sữa Việt""",Cửa hàng bơ sữa,,"Cửa hàng ""Giấc mơ sữa Việt"", 372/14 Nguyễn Văn Cừ Nối Dài, Phường An Khánh, Ninh Kiều, Cần Thơ","Phường An Khánh, Ninh Kiều",372/14 Nguyễn Văn Cừ Nối Dài,Cần Thơ,,"Ninh Kiều, Cần Thơ",VN,"10.033114,105.7546979"
295,ChIJ0XO4fJSJoDER0hpUnjXw-h0,GIẤC MƠ SỮA VIỆT,Cửa hàng,0907 707 383,"GIẤC MƠ SỮA VIỆT, 54 Trần Chiên, Lê Bình, Cái Răng, Cần Thơ","Lê Bình, Cái Răng",54 Trần Chiên,Cần Thơ,,"Cái Răng, Cần Thơ",VN,"10.0017584,105.75679889999999"
296,ChIJ2XYYpUWJoDERKGC9VM4Y5Jg,"CLASSTEA - Trà Sữa, Trà Trái Cây",Quán cà phê,,"CLASSTEA - Trà Sữa, Trà Trái Cây, 56 Đ. Nguyễn Hiền, Hưng Lợi, Ninh Kiều, Cần Thơ","Hưng Lợi, Ninh Kiều",56 Đ. Nguyễn Hiền,Cần Thơ,,"Ninh Kiều, Cần Thơ",VN,"10.0241916,105.7570085"
307,ChIJ5aW6rpCJoDERC1Ls6pr3-u0,Trà Sữa Cool 18⁰C,Quán cà phê,0345 066 389,"2QF6+C8M Trà Sữa Cool 18⁰C, Đ. Nguyễn Văn Linh, Hưng Lợi, Ninh Kiều, Cần Thơ","Hưng Lợi, Ninh Kiều","2QF6+C8M, Đ. Nguyễn Văn Linh",Cần Thơ,,"Ninh Kiều, Cần Thơ",VN,"10.0235925,105.76078659999999"
312,ChIJC8S3rcqJoDEROhgX2lGO6xU,Trà Sữa Funny,Quán cà phê,,"Trà Sữa Funny, 744 Đ. 30 Tháng 4, Hưng Lợi, Ninh Kiều, Cần Thơ","Hưng Lợi, Ninh Kiều",744 Đ. 30 Tháng 4,Cần Thơ,,"Ninh Kiều, Cần Thơ",VN,"10.0117967,105.7591796"
319,ChIJfdiirqNjoDERxBjdYI99mL0,Quán Sữa Đậu Nành Bảo Tàng Quân Khu 9,Quán cà phê,,"Quán Sữa Đậu Nành Bảo Tàng Quân Khu 9, 88 Đ. Xô Viết Nghệ Tĩnh, Tân An, Ninh Kiều, Cần Thơ","Tân An, Ninh Kiều",88 Đ. Xô Viết Nghệ Tĩnh,Cần Thơ,,"Ninh Kiều, Cần Thơ",VN,"10.0360515,105.7858553"
320,ChIJDWznj3iJoDER6ptYnijEe9A,Kem - Trà sữa Mixue 30/4,Cửa hàng kem,0981 323 979,"Kem - Trà sữa Mixue 30/4, 72-74 Đ. 30 Tháng 4, An Lạc, Ninh Kiều, Cần Thơ 900000","An Lạc, Ninh Kiều",72-74 Đ. 30 Tháng 4,Cần Thơ,900000.0,"Ninh Kiều, Cần Thơ",VN,"10.0299099,105.7799946"
322,ChIJ74vYBFuJoDERwQqy2RNaqTE,Vinamilk - Giấc mơ sữa Việt,Cửa hàng bơ sữa,,"Vinamilk - Giấc mơ sữa Việt, 38 Đ. Trần Việt Châu, An Hoà, Ninh Kiều, Cần Thơ","An Hoà, Ninh Kiều",38 Đ. Trần Việt Châu,Cần Thơ,,"Ninh Kiều, Cần Thơ",VN,"10.0494641,105.773747"
323,ChIJ7_0DhAWHoDERhpFoApRRfLM,Cà phê Sữa Đậu Nành,Quán cà phê,,"3Q68+7QX Cà phê Sữa Đậu Nành, Hẻm 286, Bùi Hữu Nghĩa, Bình Thủy, Cần Thơ","Bùi Hữu Nghĩa, Bình Thủy","3Q68+7QX, Hẻm 286",Cần Thơ,,"Bình Thủy, Cần Thơ",VN,"10.060727799999999,105.7669832"
324,ChIJkXiC_S9joDERzpPhLdl1w1A,BOSS Cafe Trà Sữa Ăn Vặt,Quán cà phê,,"2QRV+MHG BOSS Cafe Trà Sữa Ăn Vặt, Sông Hậu, Cái Khế, Ninh Kiều, Cần Thơ","Cái Khế, Ninh Kiều","2QRV+MHG, Sông Hậu",Cần Thơ,,"Ninh Kiều, Cần Thơ",VN,"10.0416995,105.7939548"
325,ChIJTaeRqFhjoDERqMqRH5dO4C4,Đại lý sữa chua đông Thạnh Cần Thơ,Cửa hàng sữa chua đông lạnh,0929 187 038,"Đại lý sữa chua đông Thạnh Cần Thơ, 36 Đ. Trương Định, Tân An, Ninh Kiều, Cần Thơ","Tân An, Ninh Kiều",36 Đ. Trương Định,Cần Thơ,,"Ninh Kiều, Cần Thơ",VN,"10.036054499999999,105.7829534"
327,ChIJIxGCehyIoDERlnZJRroGbao,Cửa Hàng Sữa Liên Hưng,Cửa hàng,,"Cửa Hàng Sữa Liên Hưng, 15 Đ. Huỳnh Thúc Kháng, An Cư, Ninh Kiều, Cần Thơ","An Cư, Ninh Kiều",15 Đ. Huỳnh Thúc Kháng,Cần Thơ,,"Ninh Kiều, Cần Thơ",VN,"10.0402933,105.7767777"
328,ChIJ72sqY8OJoDER97tt-S-F8As,Trà sữa Kaori,Quán cà phê,,"Trà sữa Kaori, 77 Đ. Nguyễn Việt Hồng, An Lạc, Ninh Kiều, Cần Thơ","An Lạc, Ninh Kiều",77 Đ. Nguyễn Việt Hồng,Cần Thơ,,"Ninh Kiều, Cần Thơ",VN,"10.0309393,105.7785023"
329,ChIJu38hZLOJoDERv6n4VDTwuVo,Trà Sữa ACE,Quán cà phê,,"Trà Sữa ACE, 278 Đ. 30 Tháng 4, Xuân Khánh, Ninh Kiều, Cần Thơ 94000","Xuân Khánh, Ninh Kiều",278 Đ. 30 Tháng 4,Cần Thơ,94000.0,"Ninh Kiều, Cần Thơ",VN,"10.0255605,105.7749125"
338,ChIJlQ2s6pCJoDERCDltdmBK0Gs,Vinamilk Giấc Mơ Sữa Việt,Cửa hàng bơ sữa,0899 300 899,"Vinamilk Giấc Mơ Sữa Việt, 16 Đ. Trần Hoàng Na, Phường An Khánh, Ninh Kiều, Cần Thơ 00084","Phường An Khánh, Ninh Kiều",16 Đ. Trần Hoàng Na,Cần Thơ,84.0,"Ninh Kiều, Cần Thơ",VN,"10.0202589,105.75549649999999"
341,ChIJtbLBZN-JoDEReV0euhCVhd0,BiBi Sữa Chua - Sữa Sen - Trà Sữa,Quán cà phê,0907 938 955,"BiBi Sữa Chua - Sữa Sen - Trà Sữa, 29/9 Đ. Cách Mạng Tháng 8, Thới Bình, Ninh Kiều, Cần Thơ","Thới Bình, Ninh Kiều",29/9 Đ. Cách Mạng Tháng 8,Cần Thơ,,"Ninh Kiều, Cần Thơ",VN,"10.046654499999999,105.7778689"
351,ChIJWy1vIOiJoDERq27VkxOWjk4,Trà sữa - Chè thái AN AN,Quán cà phê,0932 808 162,"Trà sữa - Chè thái AN AN, 372/10D, Đ. Nguyễn Văn Cừ, Phường An Khánh, Ninh Kiều, Cần Thơ","Phường An Khánh, Ninh Kiều","372/10D, Đ. Nguyễn Văn Cừ",Cần Thơ,,"Ninh Kiều, Cần Thơ",VN,"10.031614,105.75358999999999"
352,ChIJITH1SsaJoDERvSLfUjIaILs,"Cửa hàng ""Giấc mơ sữa Việt""",Cửa hàng bơ sữa,,"Cửa hàng ""Giấc mơ sữa Việt"", Lô LK2, 22 Nguyễn Văn Cừ Nối Dài, An Bình, Ninh Kiều, Cần Thơ","An Bình, Ninh Kiều","Lô LK2, 22 Nguyễn Văn Cừ Nối Dài",Cần Thơ,,"Ninh Kiều, Cần Thơ",VN,"10.0172732,105.73797599999999"
355,ChIJjZqStrOJoDERaS_-fWhd8O8,Cơ Sở Sữa Chữa Ô Tô Đồng Tiến,Đại lý ô tô,0292 3912 782,"Cơ Sở Sữa Chữa Ô Tô Đồng Tiến, 8, Quốc Lộ 1A, Quận Cái Răng, An Bình, Ninh Kiều, Cần Thơ","An Bình, Ninh Kiều","8, Quốc Lộ 1A, Quận Cái Răng",Cần Thơ,,"Ninh Kiều, Cần Thơ",VN,"10.0086157,105.75023089999999"
356,ChIJcyXhgbGJoDER-mJTPWqD89A,Trà sữa Tre,Quán cà phê,0939 852 327,"Trà sữa Tre, 291 Nguyễn Văn Trường, An Bình, Bình Thủy, Cần Thơ","An Bình, Bình Thủy",291 Nguyễn Văn Trường,Cần Thơ,,"Bình Thủy, Cần Thơ",VN,"10.014826,105.728971"
357,ChIJGVY3XbOJoDER6f_xOOVrhA8,Đại Lý Bõ Sữa Long Thành,Cửa hàng,,"Đại Lý Bõ Sữa Long Thành, 108 Đ. 3 Tháng 2, An Bình, Ninh Kiều, Cần Thơ","An Bình, Ninh Kiều",108 Đ. 3 Tháng 2,Cần Thơ,,"Ninh Kiều, Cần Thơ",VN,"10.0111656,105.75197709999999"
359,ChIJSUSCRXSJoDERkGf6FumBpZM,Bánh mì bơ sữa,Tiệm bánh,,"Bánh mì bơ sữa, 85-85 Bông Vang, Mỹ Khánh, Phong Điền, Cần Thơ","Mỹ Khánh, Phong Điền",85-85 Bông Vang,Cần Thơ,,"Phong Điền, Cần Thơ",VN,"9.996721299999999,105.71487259999999"
363,ChIJQ9qd6rCJoDER1cjVz26ST0s,Cửa Hàng Sữa Dutch Lady,Cửa hàng,0292 3846 426,"Cửa Hàng Sữa Dutch Lady, 459 Nguyễn Trãi, Lê Bình, Cái Răng, Cần Thơ","Lê Bình, Cái Răng",459 Nguyễn Trãi,Cần Thơ,,"Cái Răng, Cần Thơ",VN,"10.003143399999999,105.7511373"
373,ChIJa0CpNQGJoDER0sT9fToZ6aQ,Sữa Chua Nhà Bún - Cần Thơ,Cửa hàng kem,0896 643 327,"Sữa Chua Nhà Bún - Cần Thơ, 14 Dãy A, 17 Đ. Trần Hoàng Na, Hưng Lợi, Ninh Kiều, Cần Thơ","Hưng Lợi, Ninh Kiều","14 Dãy A, 17 Đ. Trần Hoàng Na",Cần Thơ,,"Ninh Kiều, Cần Thơ",VN,"10.0122521,105.76346339999999"
379,ChIJNfJcJwCJoDERJqqA0R_qmW4,Trà sữa Cham Ocha,Quán cà phê,0775 867 951,"Trà sữa Cham Ocha, 14 Đ. 3 Tháng 2, Hưng Lợi, Ninh Kiều, Cần Thơ","Hưng Lợi, Ninh Kiều",14 Đ. 3 Tháng 2,Cần Thơ,,"Ninh Kiều, Cần Thơ",VN,"10.019867699999999,105.76179499999999"
381,ChIJR0pQAziJoDERemzpHOZ0cqo,TRÀ SỮA COOL 18 ĐỘ,Quán cà phê,0355 360 305,"TRÀ SỮA COOL 18 ĐỘ, KHU VỰC 5, Đ. Nguyễn Văn Linh, Hưng Lợi, Ninh Kiều, Cần Thơ","Hưng Lợi, Ninh Kiều","KHU VỰC 5, Đ. Nguyễn Văn Linh",Cần Thơ,,"Ninh Kiều, Cần Thơ",VN,"10.023284199999999,105.76105109999999"
401,ChIJvzUTHp1joDERxDVpv_u2cFA,Tiệm Bánh Kem Sữa Tươi Kim Huệ,Cửa hàng bánh,0292 3825 215,"Tiệm Bánh Kem Sữa Tươi Kim Huệ, 16A Phan Đình Phùng, Tân An, Ninh Kiều, Cần Thơ","Tân An, Ninh Kiều",16A Phan Đình Phùng,Cần Thơ,,"Ninh Kiều, Cần Thơ",VN,"10.033072299999999,105.786932"
402,ChIJZ7LOPKBioDEReXvj0oIWFCI,Cửa Hàng Sữa 42,Cửa hàng,,"Cửa Hàng Sữa 42, 42 Đại lộ Hoà Bình, Tân An, Ninh Kiều, Cần Thơ","Tân An, Ninh Kiều",42 Đại lộ Hoà Bình,Cần Thơ,,"Ninh Kiều, Cần Thơ",VN,"10.0339722,105.78430949999999"
403,ChIJmzwlra5ioDERUD407MLvs80,Shop Sữa Minh Thư,Cửa hàng,,"Shop Sữa Minh Thư, 56 Lê Lợi, Cái Khế, Ninh Kiều, Cần Thơ","Cái Khế, Ninh Kiều",56 Lê Lợi,Cần Thơ,,"Ninh Kiều, Cần Thơ",VN,"10.0480311,105.78797209999999"
404,ChIJq6qqBw-IoDER9fAWYW_jb5s,Công Ty Cổ Phần Sữa Việt Nam Vinamilk,Cửa hàng thực phẩm,0292 3815 900,"Công Ty Cổ Phần Sữa Việt Nam Vinamilk, 160, 30/4, Quận Ninh Kiều, Tp Cần Thơ, An Hoà, Ninh Kiều, Cần Thơ","An Hoà, Ninh Kiều","160, 30/4, Quận Ninh Kiều, Tp Cần Thơ",Cần Thơ,,"Ninh Kiều, Cần Thơ",VN,"10.047019299999999,105.76794439999999"
405,ChIJQ4rAYhGJoDERorUlJ91BFsI,Sữa Chua Dẻo Cậu Út 273 NVC,Cửa hàng sữa chua đông lạnh,0585 071 234,"Sữa Chua Dẻo Cậu Út 273 NVC, 273 Đ. Nguyễn Văn Cừ, An Hoà, Ninh Kiều, Cần Thơ","An Hoà, Ninh Kiều",273 Đ. Nguyễn Văn Cừ,Cần Thơ,,"Ninh Kiều, Cần Thơ",VN,"10.0469408,105.7688068"
406,ChIJnSaAg9aHoDERB-elOB-Gl_U,Sữa chua - Kem chuối TIẾN PHÁT,Cửa hàng kem,0938 313 677,"Sữa chua - Kem chuối TIẾN PHÁT, Đường Đặng Thị Nhường, Bùi Hữu Nghĩa, Bình Thủy, Cần Thơ","Bùi Hữu Nghĩa, Bình Thủy",Đường Đặng Thị Nhường,Cần Thơ,,"Bình Thủy, Cần Thơ",VN,"10.063702,105.7667122"
407,ChIJWS77q_WJoDERTDlwc2YEXn8,Vinamilk Giấc Mơ Sữa Việt,Cửa hàng bơ sữa,,"Vinamilk Giấc Mơ Sữa Việt, 164 Đ. Trần Ngọc Quế, Xuân Khánh, Ninh Kiều, Cần Thơ","Xuân Khánh, Ninh Kiều",164 Đ. Trần Ngọc Quế,Cần Thơ,,"Ninh Kiều, Cần Thơ",VN,"10.0247993,105.7681971"
408,ChIJiSAnzwSIoDERVRLgbOeZvTI,Cửa Hàng Sữa Non Natrumax,Cửa hàng bán thực phẩm sạch,0901 094 700,"Cửa Hàng Sữa Non Natrumax, 117 Đ. Phạm Ngũ Lão, Thới Bình, Ninh Kiều, Cần Thơ","Thới Bình, Ninh Kiều",117 Đ. Phạm Ngũ Lão,Cần Thơ,,"Ninh Kiều, Cần Thơ",VN,"10.044341099999999,105.77446479999999"
409,ChIJUbGiWhqJoDER_xWNnNsFzac,Trà Sữa KoMi,Quán cà phê,0904 050 215,"Trà Sữa KoMi, 188/36/1, Bế Văn Đàn, P, Ninh Kiều, Cần Thơ","P, Ninh Kiều","188/36/1, Bế Văn Đàn",Cần Thơ,,"Ninh Kiều, Cần Thơ",VN,"10.049224899999999,105.7690824"
410,ChIJl9pDJs2HoDER8rgw1Rx9Gk8,Vinamilk Giấc Mơ Sữa Việt,Cửa hàng bơ sữa,0856 399 103,"Vinamilk Giấc Mơ Sữa Việt, 9/8B Lê Hồng Phong, Trà Nóc, Bình Thủy, Cần Thơ","Trà Nóc, Bình Thủy",9/8B Lê Hồng Phong,Cần Thơ,,"Bình Thủy, Cần Thơ",VN,"10.0991953,105.71590289999999"
413,ChIJicmBFieIoDERCD53JSJF1ic,Shop Sữa & Bỉm Minh Anh,Cửa hàng bán thực phẩm sạch,0988 476 318,"Shop Sữa & Bỉm Minh Anh, 191 Nguyễn Thị Minh Khai, An Lạc, Ninh Kiều, Cần Thơ","An Lạc, Ninh Kiều",191 Nguyễn Thị Minh Khai,Cần Thơ,,"Ninh Kiều, Cần Thơ",VN,"10.0256936,105.7802301"
414,ChIJA-7fqdCJoDERg-9qi9i9YM8,Sữa Chua Dẻo Cậu Út,Cửa hàng sữa chua đông lạnh,0585 071 234,"Sữa Chua Dẻo Cậu Út, 44 Đ. 3 Tháng 2, Xuân Khánh, Ninh Kiều, Cần Thơ","Xuân Khánh, Ninh Kiều",44 Đ. 3 Tháng 2,Cần Thơ,,"Ninh Kiều, Cần Thơ",VN,"10.031697,105.7738457"
415,ChIJc_UI2lyJoDERzQtDWLpMYBs,A Cường sữa điện gia dụng cần thơ,Cửa hàng đồ gia dụng,0939 415 215,"A Cường sữa điện gia dụng cần thơ, 455c Đ. Lý Thái Tổ, kv2, Cái Răng, Cần Thơ","kv2, Cái Răng",455c Đ. Lý Thái Tổ,Cần Thơ,,"Cái Răng, Cần Thơ",VN,"10.0324584,105.7931215"
417,ChIJS2ZOdNpjoDERlFsaUlrjPbE,Cà phê Trà sữa Cô Ba Co Tư,Quán cà phê,,"Cà phê Trà sữa Cô Ba Co Tư, 21A Ngô Gia Tự, Tân An, Ninh Kiều, Cần Thơ","Tân An, Ninh Kiều",21A Ngô Gia Tự,Cần Thơ,,"Ninh Kiều, Cần Thơ",VN,"10.035627999999999,105.78833759999999"
418,ChIJf4bnfdhjoDER-QQI95oxI1I,Trà sữa NT,Quán cà phê,,"Trà sữa NT, 162 Phan Đình Phùng, Tân An, Ninh Kiều, Cần Thơ","Tân An, Ninh Kiều",162 Phan Đình Phùng,Cần Thơ,,"Ninh Kiều, Cần Thơ",VN,"10.028276799999999,105.78629199999999"
420,ChIJd2S-XAGJoDERX01hD_1Hp3U,Binh Tea - Trà Sữa Vị Sữa Tươi,Quán cà phê,0968 659 498,"Binh Tea - Trà Sữa Vị Sữa Tươi, 124 Đ. Trần Hưng Đạo, An Phú, Ninh Kiều, Cần Thơ","An Phú, Ninh Kiều",124 Đ. Trần Hưng Đạo,Cần Thơ,,"Ninh Kiều, Cần Thơ",VN,"10.0373255,105.7761067"
421,ChIJr44qJ5xjoDERaJcJiqJ3hPY,Trà sữa 3 Anh Em,Trà trân châu,0902 823 099,"Trà sữa 3 Anh Em, 2 Đ. Nguyễn Khuyến, Tân An, Ninh Kiều, Cần Thơ","Tân An, Ninh Kiều",2 Đ. Nguyễn Khuyến,Cần Thơ,,"Ninh Kiều, Cần Thơ",VN,"10.0351514,105.78395409999999"
422,ChIJd20T225joDERQxe1t6bW1rk,Trà sữa 2000's Cần Thơ,Quán cà phê,,"Trà sữa 2000's Cần Thơ, 52 Đ. Đề Thám, An Cư, Ninh Kiều, Cần Thơ","An Cư, Ninh Kiều",52 Đ. Đề Thám,Cần Thơ,,"Ninh Kiều, Cần Thơ",VN,"10.033961999999999,105.782663"
423,ChIJ6bPItiGIoDERtnm1ua8XsG8,Cửa Hàng Sữa Bình Nguyên,Cửa hàng,,"Cửa Hàng Sữa Bình Nguyên, 98 Đ. Nguyễn Việt Hồng, An Lạc, Ninh Kiều, Cần Thơ","An Lạc, Ninh Kiều",98 Đ. Nguyễn Việt Hồng,Cần Thơ,,"Ninh Kiều, Cần Thơ",VN,"10.0310388,105.7787724"
424,ChIJUYBWIM2JoDER3B8icbjt-rY,Cà phê - Trà sữa PANDA,Quán cà phê,,"Cà phê - Trà sữa PANDA, Đ. Trần Hưng Đạo, An Phú, Ninh Kiều, Cần Thơ","An Phú, Ninh Kiều",Đ. Trần Hưng Đạo,Cần Thơ,,"Ninh Kiều, Cần Thơ",VN,"10.0352869,105.773681"
426,ChIJA2ZJFB-IoDERYb3A1MmYMRg,Công Ty TNHH Chuyên Doanh Sữa Minh Phát,Cửa hàng bán thực phẩm sạch,0939 578 488,"Công Ty TNHH Chuyên Doanh Sữa Minh Phát, 19 Đ. Trần Bình Trọng, An Phú, Ninh Kiều, Cần Thơ","An Phú, Ninh Kiều",19 Đ. Trần Bình Trọng,Cần Thơ,,"Ninh Kiều, Cần Thơ",VN,"10.0343965,105.7778893"
433,ChIJlav1faxioDERZBPuxqAtaKE,Homemade Trà Sữa - Ăn Vặt,Quán cà phê,,"3Q2Q+JCW Homemade Trà Sữa - Ăn Vặt, Sông Hậu, Ninh Kiều, Cần Thơ","Sông Hậu, Ninh Kiều",3Q2Q+JCW,Cần Thơ,,"Ninh Kiều, Cần Thơ",VN,"10.0516068,105.788586"
465,ChIJEYV7XC2JoDERiiCWFrpR8yQ,Sữa Chua Dẻo Cậu Út Đối Diện Lotte,Cửa hàng sữa chua đông lạnh,0585 071 234,"Sữa Chua Dẻo Cậu Út Đối Diện Lotte, 41t1 Đ. Mậu Thân, An Hoà, Ninh Kiều, Cần Thơ","An Hoà, Ninh Kiều",41t1 Đ. Mậu Thân,Cần Thơ,,"Ninh Kiều, Cần Thơ",VN,"10.042002799999999,105.7663135"
472,ChIJO6y9GqCJoDERv_0FTLIMWUI,Trà sữa home,Quán cà phê,0902 360 791,"Trà sữa home, 52f Đ. 3/2, Xuân Khánh, Ninh Kiều, Cần Thơ","Xuân Khánh, Ninh Kiều",52f Đ. 3/2,Cần Thơ,,"Ninh Kiều, Cần Thơ",VN,"10.0283914,105.7745882"
478,ChIJJ6Tb45yJoDERzS2k35w1v8s,SỮA CHUA DẺO HANIL,Quán cà phê,0389 310 089,"SỮA CHUA DẺO HANIL, 87a Đ. Mạc Thiên Tích, Xuân Khánh, Ninh Kiều, Cần Thơ","Xuân Khánh, Ninh Kiều",87a Đ. Mạc Thiên Tích,Cần Thơ,,"Ninh Kiều, Cần Thơ",VN,"10.028053,105.77292779999999"
483,ChIJHX8raWqJoDERXGrIDR3lWfg,Sữa Chua Dẻo Cậu Út 138z NVC,Cửa hàng sữa chua đông lạnh,0585 071 234,"Sữa Chua Dẻo Cậu Út 138z NVC, 138z Đ. Nguyễn Văn Cừ, Phường An Khánh, Ninh Kiều, Cần Thơ","Phường An Khánh, Ninh Kiều",138z Đ. Nguyễn Văn Cừ,Cần Thơ,,"Ninh Kiều, Cần Thơ",VN,"10.0396875,105.76099099999999"
484,ChIJ0QxkeOSJoDERChtHBm6D4ok,Sữa Chua Dẻo Cậu Út,Cửa hàng sữa chua đông lạnh,0585 071 234,"Sữa Chua Dẻo Cậu Út, 388S Đ. Nguyễn Văn Cừ, Phường An Khánh, Ninh Kiều, Cần Thơ","Phường An Khánh, Ninh Kiều",388S Đ. Nguyễn Văn Cừ,Cần Thơ,,"Ninh Kiều, Cần Thơ",VN,"10.0368665,105.75862959999999"
485,ChIJFdhoFaaJoDERmQ4gsiJtZF4,Trà sữa Ú Nu,Quán cà phê,,"Trà sữa Ú Nu, 18 Đường số 12, Phường An Khánh, Ninh Kiều, Cần Thơ","Phường An Khánh, Ninh Kiều",18 Đường số 12,Cần Thơ,,"Ninh Kiều, Cần Thơ",VN,"10.0427368,105.7569829"
490,ChIJL2ps8KOJoDEReGZQYFF2bfY,YOUTH Trà sữa - mì cay - ăn vặt,Cửa hàng bán đồ ăn nấu sẵn,0819 369 219,"YOUTH Trà sữa - mì cay - ăn vặt, 109 Đường Trần Văn Long, Kdc Thới Nhựt 2, Ninh Kiều, Cần Thơ 900000","Kdc Thới Nhựt 2, Ninh Kiều",109 Đường Trần Văn Long,Cần Thơ,900000.0,"Ninh Kiều, Cần Thơ",VN,"10.042618599999999,105.7564347"
492,ChIJiRSTaoeJoDERczIMIFmLa84,"Cafe,Trà sữa Hưng phát",Quán cà phê,,"2QQ8+RCX Cafe,Trà sữa Hưng phát, Hẻm Lò Mổ, Phường An Khánh, Ninh Kiều, Cần Thơ","Phường An Khánh, Ninh Kiều","2QQ8+RCX, Hẻm Lò Mổ",Cần Thơ,,"Ninh Kiều, Cần Thơ",VN,"10.039607799999999,105.7661047"
493,ChIJCaWcZF-JoDER7b0m92z6-PI,Trà sữa CLOWER,Quán cà phê,0778 701 827,"Trà sữa CLOWER, 4b Ngô Thì Nhậm, Phường An Khánh, Ninh Kiều, Cần Thơ","Phường An Khánh, Ninh Kiều",4b Ngô Thì Nhậm,Cần Thơ,,"Ninh Kiều, Cần Thơ",VN,"10.0401005,105.75854369999999"
494,ChIJtcnImnSIoDERTWHdDerpuog,Máy Hút Sữa Medela Cần Thơ,Cửa hàng trẻ em,,"Máy Hút Sữa Medela Cần Thơ, 28 Đ. Đồng Văn Cống, An Thới, Ninh Kiều, Cần Thơ","An Thới, Ninh Kiều",28 Đ. Đồng Văn Cống,Cần Thơ,,"Ninh Kiều, Cần Thơ",VN,"10.0506952,105.75646049999999"
496,ChIJ__J9-w2JoDERNKatKudJi4g,Trà Sữa Catchy House,Quán cà phê,,"Trà Sữa Catchy House, 388 Đ. Nguyễn Văn Cừ, Phường An Khánh, Ninh Kiều, Cần Thơ","Phường An Khánh, Ninh Kiều",388 Đ. Nguyễn Văn Cừ,Cần Thơ,,"Ninh Kiều, Cần Thơ",VN,"10.0361181,105.7578216"
497,ChIJFWKZwa-JoDERJMEJ7GM5svk,Trà sữa Bánh lăn,Quán cà phê,,"2QR4+49P Trà sữa Bánh lăn, Đ. Số 20, Phường An Khánh, Ninh Kiều, Cần Thơ","Phường An Khánh, Ninh Kiều","2QR4+49P, Đ. Số 20",Cần Thơ,,"Ninh Kiều, Cần Thơ",VN,"10.0403305,105.7559455"
506,ChIJ5d0A-4GJoDER9_A5GVGhG_E,"Tiệm trà sữa, bông, cây giống Hoa Cúc",Quán cà phê,0787 919 918,"Tiệm trà sữa, bông, cây giống Hoa Cúc, Đường số 6, khu vực 1, Ninh Kiều, Cần Thơ","khu vực 1, Ninh Kiều",Đường số 6,Cần Thơ,,"Ninh Kiều, Cần Thơ",VN,"10.0440553,105.7566616"
507,ChIJ0dueYm6JoDERki41dyuUaVo,Trà sữa NócTea - Milk Tea,Trà trân châu,0939 369 333,"2QV6+C42 Trà sữa NócTea - Milk Tea, Phường An Khánh, Ninh Kiều, Cần Thơ","Phường An Khánh, Ninh Kiều",2QV6+C42,Cần Thơ,,"Ninh Kiều, Cần Thơ",VN,"10.0434856,105.7602654"
508,ChIJSQ4iIQ2IoDERYgMbHGBi-5o,Trà Sữa Rosalina,Trà trân châu,,"Trà Sữa Rosalina, 179 Võ Văn Kiệt, Phường An Khánh, Ninh Kiều, Cần Thơ","Phường An Khánh, Ninh Kiều",179 Võ Văn Kiệt,Cần Thơ,,"Ninh Kiều, Cần Thơ",VN,"10.0468791,105.7597686"
509,ChIJcwVSgWuIoDER6jtdUoE61Gs,Tiệm Bánh - Trà Sữa Thu Hiền,Cửa hàng bán thực phẩm sạch,0704 804 203,"Tiệm Bánh - Trà Sữa Thu Hiền, 45 Đ. Số 5A, khu dân cư, Ninh Kiều, Cần Thơ","khu dân cư, Ninh Kiều",45 Đ. Số 5A,Cần Thơ,,"Ninh Kiều, Cần Thơ",VN,"10.039086099999999,105.7551908"
511,ChIJ25oX0CiJoDERzCaljVekQkU,CH sữa bò Long Thành Lothamilk,Cửa hàng tạp phẩm,,"2QF2+67J CH sữa bò Long Thành Lothamilk, Phường An Khánh, Ninh Kiều, Cần Thơ","Phường An Khánh, Ninh Kiều",2QF2+67J,Cần Thơ,,"Ninh Kiều, Cần Thơ",VN,"10.0230917,105.75063779999999"
513,ChIJ8720Ul2IoDERv2fZmvV4wZg,Tiệm Sữa Chữa Điện Tử Xuân Điểm,Cửa hàng bán đồ điện tử,0907 419 073,"Tiệm Sữa Chữa Điện Tử Xuân Điểm, 80B1 KDC Thới Nhựt, Phường An Khánh, Ninh Kiều, Cần Thơ","Phường An Khánh, Ninh Kiều",80B1 KDC Thới Nhựt,Cần Thơ,,"Ninh Kiều, Cần Thơ",VN,"10.033717,105.7468536"
520,ChIJJQSfMVSIoDERfwud7zlghN4,Cửa Hàng Siêu Thị Sữa Mẹ & Bé. Com,Cửa hàng phụ kiện thời trang,0939 949 647,"Cửa Hàng Siêu Thị Sữa Mẹ & Bé. Com, LK3-7, Nguyễn Văn Cừ Nối Dài, An Bình, Ninh Kiều, Cần Thơ","An Bình, Ninh Kiều","LK3-7, Nguyễn Văn Cừ Nối Dài",Cần Thơ,,"Ninh Kiều, Cần Thơ",VN,"10.017651899999999,105.73838719999999"
521,ChIJOYXierOJoDEREUJgGzxO984,Cửa Hàng Sữa Long Thành,Cửa hàng thực phẩm,0292 3846 384,"Cửa Hàng Sữa Long Thành, 108/3, Quốc Lộ 1A, P. An Bình, Quận Ninh Kiều, An Bình, Ninh Kiều, Cần Thơ","An Bình, Ninh Kiều","108/3, Quốc Lộ 1A, P. An Bình, Quận Ninh Kiều",Cần Thơ,,"Ninh Kiều, Cần Thơ",VN,"10.0102503,105.75216979999999"
523,ChIJ-VR8iiqJoDERXiz1QVBxrYE,Nhà Sam Sữa,Cửa hàng,0948 612 639,"Nhà Sam Sữa, 69/47b, Hẻm 583, Hưng Lợi, Ninh Kiều, Cần Thơ","Hưng Lợi, Ninh Kiều","69/47b, Hẻm 583",Cần Thơ,,"Ninh Kiều, Cần Thơ",VN,"10.010864999999999,105.7570586"
525,ChIJMdV4mp-JoDERtR8OFHPtVpM,Coffee Hoa Sữa,Cửa hàng cà phê,,"Coffee Hoa Sữa, 37 Đ. Xuân Hồng, An Bình, Bình Thủy, Cần Thơ 94000","An Bình, Bình Thủy",37 Đ. Xuân Hồng,Cần Thơ,94000.0,"Bình Thủy, Cần Thơ",VN,"10.0175225,105.73747209999999"
526,ChIJLfeCJryJoDER1JgP6AD9eVA,Sicula Sữa Chua Hạt Đác,Quán cà phê,0857 060 755,"Sicula Sữa Chua Hạt Đác, 35 Đ. Nguyễn Văn Linh, Hưng Lợi, Ninh Kiều, Cần Thơ","Hưng Lợi, Ninh Kiều",35 Đ. Nguyễn Văn Linh,Cần Thơ,,"Ninh Kiều, Cần Thơ",VN,"10.0250007,105.75938339999999"
529,ChIJZRVWjV2JoDERWjLjw9pJ5B0,Phụ kiện Út Sữa,Cửa hàng điện thoại di động,0909 983 565,"Phụ kiện Út Sữa, 58 Hẻm 112 Đ. 3 Tháng 2, Hưng Lợi, Ninh Kiều, Cần Thơ","Hưng Lợi, Ninh Kiều",58 Hẻm 112 Đ. 3 Tháng 2,Cần Thơ,,"Ninh Kiều, Cần Thơ",VN,"10.0182583,105.7577326"
540,ChIJn09xURyJoDERuQpeqoxoaeE,Trà Sữa & Mì cay MYTEA,Quán cà phê,,"Trà Sữa & Mì cay MYTEA, 397 Lê Bình, Cái Răng, Cần Thơ","Lê Bình, Cái Răng",397 Lê Bình,Cần Thơ,,"Cái Răng, Cần Thơ",VN,"9.9993471,105.75118769999999"
548,ChIJjzenjoiJoDERb8KjR_8el2M,SỮA GAFO - CN CẦN THƠ 1,Cửa hàng bơ sữa,0976 599 293,"SỮA GAFO - CN CẦN THƠ 1, 32 Đ. Trần Hoàng Na, P, Ninh Kiều, Cần Thơ 94000","P, Ninh Kiều",32 Đ. Trần Hoàng Na,Cần Thơ,94000.0,"Ninh Kiều, Cần Thơ",VN,"10.0124513,105.7642894"
550,ChIJ5c5IBlmJoDERsdQttgoG2Xg,Tiệm Cafe Sữa - Clothings,Cửa hàng quần áo nữ,0763 931 662,"Tiệm Cafe Sữa - Clothings, 132/36C Hẻm 132 Đ. 3 Tháng 2, Hưng Lợi, Ninh Kiều, Cần Thơ 900000","Hưng Lợi, Ninh Kiều",132/36C Hẻm 132 Đ. 3 Tháng 2,Cần Thơ,900000.0,"Ninh Kiều, Cần Thơ",VN,"10.0217552,105.7582248"
551,ChIJH5O4z1uJoDERelYH6f09mYI,Cafe - Trà sữa Zhu Cha,Quán cà phê,0939 028 288,"Cafe - Trà sữa Zhu Cha, 115c/3, 115 Đ. Trần Vĩnh Kiết, An Bình, Ninh Kiều, Cần Thơ","An Bình, Ninh Kiều","115c/3, 115 Đ. Trần Vĩnh Kiết",Cần Thơ,,"Ninh Kiều, Cần Thơ",VN,"10.0122827,105.751232"
553,ChIJvb922TCJoDER7HZPA5EXjRI,Trà sữa GaGa 3,Quán cà phê,0907 168 701,"Trà sữa GaGa 3, 63 Trần Chiên, Thạnh Mỹ, Cái Răng, Cần Thơ","Thạnh Mỹ, Cái Răng",63 Trần Chiên,Cần Thơ,,"Cái Răng, Cần Thơ",VN,"10.0029747,105.7557018"
555,ChIJ-To7rsyJoDERRdVkHnG20CI,Quán Lẩu Nướng Sườn Sữa Grill,Cửa hàng bán đồ ăn nấu sẵn,0949 614 684,"Quán Lẩu Nướng Sườn Sữa Grill, 47 Đ. Trần Hoàng Na, Hưng Lợi, Ninh Kiều, Cần Thơ 94000","Hưng Lợi, Ninh Kiều",47 Đ. Trần Hoàng Na,Cần Thơ,94000.0,"Ninh Kiều, Cần Thơ",VN,"10.011194099999999,105.76507889999999"
557,ChIJiTYk8-GJoDERMLSeGvx05sc,Shop Sam Sữa,Cửa hàng,,"Shop Sam Sữa, 69/47b Hẻm 553, Hưng Lợi, Ninh Kiều, Cần Thơ","Hưng Lợi, Ninh Kiều",69/47b Hẻm 553,Cần Thơ,,"Ninh Kiều, Cần Thơ",VN,"10.0112796,105.7603704"
563,ChIJ-XgbcomJoDERYwlsWE54mAE,SỮA CHUA DẺO CẬU ÚT,Cửa hàng sữa chua đông lạnh,0585 071 234,"SỮA CHUA DẺO CẬU ÚT, 54c Đ. 3 Tháng 2, Xuân Khánh, Ninh Kiều, Cần Thơ","Xuân Khánh, Ninh Kiều",54c Đ. 3 Tháng 2,Cần Thơ,,"Ninh Kiều, Cần Thơ",VN,"10.0238336,105.76660899999999"
566,ChIJc3JkH4WJoDEROpyzz9Fsiog,Meow Sữa Chua,Cửa hàng kem,0385 352 059,"Meow Sữa Chua, 51 51H1 Đ. 3 Tháng 2, Xuân Khánh, Ninh Kiều, Cần Thơ","Xuân Khánh, Ninh Kiều",51 51H1 Đ. 3 Tháng 2,Cần Thơ,,"Ninh Kiều, Cần Thơ",VN,"10.026620699999999,105.7663511"
567,ChIJx8pUQfaJoDERdDqwyGum_v8,Quán Thốt Nốt Sữa 8 ÔKÊ,Quán cà phê,0913 788 181,"Quán Thốt Nốt Sữa 8 ÔKÊ, Số 5B5 Đường Bờ Hồ Bún Xáng, Tổ 1, Khu Vực 3, P, Ninh Kiều, Cần Thơ","P, Ninh Kiều","Số 5B5 Đường Bờ Hồ Bún Xáng, Tổ 1, Khu Vực 3",Cần Thơ,,"Ninh Kiều, Cần Thơ",VN,"10.025817799999999,105.76557199999999"
569,ChIJZ5UzZ_OJoDER16x1KLOv5Jg,TRÀ SỮA TRÂM ĐÀO,Trà trân châu,,"TRÀ SỮA TRÂM ĐÀO, 91 Hẻm 132 Đ. 3 Tháng 2, Hưng Lợi, Ninh Kiều, Cần Thơ","Hưng Lợi, Ninh Kiều",91 Hẻm 132 Đ. 3 Tháng 2,Cần Thơ,,"Ninh Kiều, Cần Thơ",VN,"10.0196875,105.7576764"
570,ChIJbWzXwACJoDERy6dVjWwp16Q,Sữa hạt Mộc An,Quán cà phê,0939 892 151,"Sữa hạt Mộc An, 31 Đ. Lê Bình, Hưng Lợi, Ninh Kiều, Cần Thơ","Hưng Lợi, Ninh Kiều",31 Đ. Lê Bình,Cần Thơ,,"Ninh Kiều, Cần Thơ",VN,"10.0228374,105.7678327"
573,ChIJvYhRhgOJoDERPfI1AuEmpZA,Trà sữa 2 khoai,Quán cà phê,0947 397 899,"Trà sữa 2 khoai, 190 Đ. 30 Tháng 4, Hưng Lợi, Ninh Kiều, Cần Thơ","Hưng Lợi, Ninh Kiều",190 Đ. 30 Tháng 4,Cần Thơ,,"Ninh Kiều, Cần Thơ",VN,"10.0180016,105.7645561"
574,ChIJ-1BwLA2JoDERrUZaIXZOt-o,Trà sữa Cô Vy Tầm Vu,Quán cà phê,,"Trà sữa Cô Vy Tầm Vu, 40U1 Tầm Vu, Hưng Lợi, Ninh Kiều, Cần Thơ","Hưng Lợi, Ninh Kiều",40U1 Tầm Vu,Cần Thơ,,"Ninh Kiều, Cần Thơ",VN,"10.0128533,105.7676968"
576,ChIJT6-l7vaJoDERYu-waQx_zOw,Trà Sữa Mì Trộn Cô Tỵ,Quán cà phê,,"Trà Sữa Mì Trộn Cô Tỵ, 403f/12 Đ. Nguyễn Văn Linh, Phường An Khánh, Ninh Kiều, Cần Thơ","Phường An Khánh, Ninh Kiều",403f/12 Đ. Nguyễn Văn Linh,Cần Thơ,,"Ninh Kiều, Cần Thơ",VN,"10.0248101,105.760217"
579,ChIJYTQL2jWIoDERkzCTtEHsaAo,Trà Sữa Up Now,Quán cà phê,,"Trà Sữa Up Now, 178B Đ. 3 Tháng 2, Hưng Lợi, Ninh Kiều, Cần Thơ","Hưng Lợi, Ninh Kiều",178B Đ. 3 Tháng 2,Cần Thơ,,"Ninh Kiều, Cần Thơ",VN,"10.016965899999999,105.7607755"
590,ChIJKZdQjtiJoDERMbLDth81kZY,TRÀ SỮA DIỄM MY,Trà trân châu,,"TRÀ SỮA DIỄM MY, 190/15 Đ. 30 Tháng 4, Hưng Lợi, Ninh Kiều, Cần Thơ","Hưng Lợi, Ninh Kiều",190/15 Đ. 30 Tháng 4,Cần Thơ,,"Ninh Kiều, Cần Thơ",VN,"10.017104,105.765614"
593,ChIJnUFB7TSIoDERYW7qcoR856k,Cà Phê - Trà Sữa Zest Town,Quán cà phê,0292 6253 070,"Cà Phê - Trà Sữa Zest Town, 151 Đ. Trần Hoàng Na, Hưng Lợi, Ninh Kiều, Cần Thơ","Hưng Lợi, Ninh Kiều",151 Đ. Trần Hoàng Na,Cần Thơ,,"Ninh Kiều, Cần Thơ",VN,"10.0138769,105.7626434"
594,ChIJ8WqQb9GJoDERvyLPlNjPQr8,Trà Sữa Bydiemle,Quán cà phê,,"Trà Sữa Bydiemle, 672 Đ. 30 Tháng 4, Hưng Lợi, Ninh Kiều, Cần Thơ","Hưng Lợi, Ninh Kiều",672 Đ. 30 Tháng 4,Cần Thơ,,"Ninh Kiều, Cần Thơ",VN,"10.0131778,105.76077049999999"
623,ChIJu5hZ9UuJoDERrpqqGXscyBQ,Trà sữa Ole,Cửa hàng trà,0939 061 661,"Trà sữa Ole, 121 Đ. 30 Tháng 4, Xuân Khánh, Ninh Kiều, Cần Thơ","Xuân Khánh, Ninh Kiều",121 Đ. 30 Tháng 4,Cần Thơ,,"Ninh Kiều, Cần Thơ",VN,"10.028013,105.7784611"
626,ChIJHRrgTKBioDERVzL-EPlI3WA,Trà Sữa Two Ti,Quán cà phê,,"Trà Sữa Two Ti, 14A Đại lộ Hoà Bình, Tân An, Ninh Kiều, Cần Thơ","Tân An, Ninh Kiều",14A Đại lộ Hoà Bình,Cần Thơ,,"Ninh Kiều, Cần Thơ",VN,"10.0344113,105.7849117"
630,ChIJKdmLOqBioDERfKznfe-GlQ4,Trà Sữa Mây,Quán cà phê,,"Trà Sữa Mây, 11 Đại lộ Hoà Bình, Tân An, Ninh Kiều, Cần Thơ","Tân An, Ninh Kiều",11 Đại lộ Hoà Bình,Cần Thơ,,"Ninh Kiều, Cần Thơ",VN,"10.0326119,105.7837122"
633,ChIJcW-kXixjoDERR3D92M986JI,Trà Sữa làm nhà Gem,Quán cà phê,0939 348 840,"Trà Sữa làm nhà Gem, 32 Đại lộ Hoà Bình, Tân An, Ninh Kiều, Cần Thơ","Tân An, Ninh Kiều",32 Đại lộ Hoà Bình,Cần Thơ,,"Ninh Kiều, Cần Thơ",VN,"10.0337946,105.7842864"
