,place_id,name,main_category,phone,address,address_ward,address_street,address_city,address_postal_code,address_state,address_country_code
0,ChIJEe1wKhYvdTERgd8TzdsMc_A,Tadashi Tattoo,Cá»­a hÃ ng xÄƒm hÃ¬nh,0917 775 885,"Tadashi Tattoo, 96/6 Ä. LÃª Thá»‹ RiÃªng, PhÆ°á»ng Pháº¡m NgÅ© LÃ£o, Quáº­n 1, ThÃ nh phá»‘ Há»“ ChÃ­ Minh 700000","PhÆ°á»ng Pháº¡m NgÅ© LÃ£o, Quáº­n 1",96/6 Ä. LÃª Thá»‹ RiÃªng,ThÃ nh phá»‘ Há»“ ChÃ­ Minh,700000.0,"Quáº­n 1, ThÃ nh phá»‘ Há»“ ChÃ­ Minh",VN
15,ChIJ5X8QAxMvdTERcURiKu1Bs9E,Tiá»‡m xÄƒm BÃ¡nh Donut ğŸ©,Cá»­a hÃ ng xÄƒm mÃ¬nh vÃ  xá» lá»—,0975 065 013,"Tiá»‡m xÄƒm BÃ¡nh Donut ğŸ©, 12C Ä. Nguyá»…n Thá»‹ Minh Khai, Äa Kao, Quáº­n 1, ThÃ nh phá»‘ Há»“ ChÃ­ Minh","Äa Kao, Quáº­n 1",12C Ä. Nguyá»…n Thá»‹ Minh Khai,ThÃ nh phá»‘ Há»“ ChÃ­ Minh,,"Quáº­n 1, ThÃ nh phá»‘ Há»“ ChÃ­ Minh",VN
28,ChIJm9pS3_8vdTERJKTB63Tw4zo,Tattoonista,Cá»­a hÃ ng xÄƒm hÃ¬nh,0908 359 725,"Tattoonista, 331A Ä. Tráº§n HÆ°ng Äáº¡o, PhÆ°á»ng CÃ´ Giang, Quáº­n 1, ThÃ nh phá»‘ Há»“ ChÃ­ Minh","PhÆ°á»ng CÃ´ Giang, Quáº­n 1",331A Ä. Tráº§n HÆ°ng Äáº¡o,ThÃ nh phá»‘ Há»“ ChÃ­ Minh,,"Quáº­n 1, ThÃ nh phá»‘ Há»“ ChÃ­ Minh",VN
29,ChIJZ3KfslIvdTERKsNfD2KSpdE,TROY B TAT Saigon Tattoo,Cá»­a hÃ ng xÄƒm hÃ¬nh,0898 871 881,"TROY B TAT Saigon Tattoo, 200 Ä. 3 ThÃ¡ng 2, PhÆ°á»ng 12, Quáº­n 10, ThÃ nh phá»‘ Há»“ ChÃ­ Minh","PhÆ°á»ng 12, Quáº­n 10",200 Ä. 3 ThÃ¡ng 2,ThÃ nh phá»‘ Há»“ ChÃ­ Minh,,"Quáº­n 10, ThÃ nh phá»‘ Há»“ ChÃ­ Minh",VN
31,ChIJ21k5ay4pdTERfSwWBqyhLq0,Recycle Tattoo,Cá»­a hÃ ng xÄƒm mÃ¬nh vÃ  xá» lá»—,0907 470 779,"Recycle Tattoo, 176 Huá»³nh VÄƒn BÃ¡nh, PhÆ°á»ng 12, PhÃº Nhuáº­n, ThÃ nh phá»‘ Há»“ ChÃ­ Minh","PhÆ°á»ng 12, PhÃº Nhuáº­n",176 Huá»³nh VÄƒn BÃ¡nh,ThÃ nh phá»‘ Há»“ ChÃ­ Minh,,"PhÃº Nhuáº­n, ThÃ nh phá»‘ Há»“ ChÃ­ Minh",VN
36,ChIJ6cfGIcUpdTERzbIDXi7iWwo,SAIGON TATTOO CLUB,Cá»­a hÃ ng xÄƒm mÃ¬nh vÃ  xá» lá»—,0939 083 683,"SAIGON TATTOO CLUB, 5/6 Tráº§n Cao VÃ¢n, PhÆ°á»ng 12, PhÃº Nhuáº­n, ThÃ nh phá»‘ Há»“ ChÃ­ Minh","PhÆ°á»ng 12, PhÃº Nhuáº­n",5/6 Tráº§n Cao VÃ¢n,ThÃ nh phá»‘ Há»“ ChÃ­ Minh,,"PhÃº Nhuáº­n, ThÃ nh phá»‘ Há»“ ChÃ­ Minh",VN
50,ChIJQ170GI9joDERt5u7etL3BS4,VÅ© tattoo cáº§n thÆ¡,Cá»­a hÃ ng xÄƒm hÃ¬nh,0978 424 535,"VÅ© tattoo cáº§n thÆ¡, 56 Ä. Ung VÄƒn KhiÃªm, An Há»™i, Ninh Kiá»u, Cáº§n ThÆ¡ 94100","An Há»™i, Ninh Kiá»u",56 Ä. Ung VÄƒn KhiÃªm,Cáº§n ThÆ¡,94100.0,"Ninh Kiá»u, Cáº§n ThÆ¡",VN
65,ChIJOxCh7mQpdTER0zToCTrgEbs,Kem Che HÃ¬nh XÄƒm - Tattoo Long TÃ¢m - XÄƒm HÃ¬nh Nghá»‡ Thuáº­t,Cá»­a hÃ ng xÄƒm hÃ¬nh,0903 333 900,"Kem Che HÃ¬nh XÄƒm - Tattoo Long TÃ¢m - XÄƒm HÃ¬nh Nghá»‡ Thuáº­t, 221/1 Phan Huy Ãch, PhÆ°á»ng 14, GÃ² Váº¥p, ThÃ nh phá»‘ Há»“ ChÃ­ Minh 700000","PhÆ°á»ng 14, GÃ² Váº¥p",221/1 Phan Huy Ãch,ThÃ nh phá»‘ Há»“ ChÃ­ Minh,700000.0,"GÃ² Váº¥p, ThÃ nh phá»‘ Há»“ ChÃ­ Minh",VN
79,ChIJ-4q-Lf4odTERQiRd5H9YwMI,Tattoo GÃ  GÃ² Váº¥p,Cá»­a hÃ ng xÄƒm mÃ¬nh vÃ  xá» lá»—,0933 227 767,"Tattoo GÃ  GÃ² Váº¥p, 106 Quang Trung, PhÆ°á»ng 10, GÃ² Váº¥p, ThÃ nh phá»‘ Há»“ ChÃ­ Minh 700000","PhÆ°á»ng 10, GÃ² Váº¥p",106 Quang Trung,ThÃ nh phá»‘ Há»“ ChÃ­ Minh,700000.0,"GÃ² Váº¥p, ThÃ nh phá»‘ Há»“ ChÃ­ Minh",VN
94,ChIJlZVP5MwvdTERplbV0638ZSc,Alchemist Tattoo,Cá»­a hÃ ng xÄƒm mÃ¬nh vÃ  xá» lá»—,0908 518 977,"Alchemist Tattoo, 158D Pasteur, Báº¿n NghÃ©, Quáº­n 1, ThÃ nh phá»‘ Há»“ ChÃ­ Minh","Báº¿n NghÃ©, Quáº­n 1",158D Pasteur,ThÃ nh phá»‘ Há»“ ChÃ­ Minh,,"Quáº­n 1, ThÃ nh phá»‘ Há»“ ChÃ­ Minh",VN
109,ChIJ9zSsfJ-JoDEREN1-HOkyX-8,Tiá»‡m XÄƒm TN 1997 Tattoo,Cá»­a hÃ ng xÄƒm hÃ¬nh,0901 085 892,"Tiá»‡m XÄƒm TN 1997 Tattoo, Ä. Nguyá»…n VÄƒn Linh, Long Tuyá»n, BÃ¬nh Thá»§y, Cáº§n ThÆ¡ 94211","Long Tuyá»n, BÃ¬nh Thá»§y",Ä. Nguyá»…n VÄƒn Linh,Cáº§n ThÆ¡,94211.0,"BÃ¬nh Thá»§y, Cáº§n ThÆ¡",VN
124,ChIJw43yUE4vdTER08opXNVxxyk,TÃ‚N TRáº¦N TATTOO - XÄƒm HÃ¬nh nghá»‡ thuáº­t quáº­n 5,Cá»­a hÃ ng xÄƒm mÃ¬nh vÃ  xá» lá»—,0938 790 793,"TÃ‚N TRáº¦N TATTOO - XÄƒm HÃ¬nh nghá»‡ thuáº­t quáº­n 5, 741 Ä. Tráº§n HÆ°ng Äáº¡o, PhÆ°á»ng 1, Quáº­n 5, ThÃ nh phá»‘ Há»“ ChÃ­ Minh 700000","PhÆ°á»ng 1, Quáº­n 5",741 Ä. Tráº§n HÆ°ng Äáº¡o,ThÃ nh phá»‘ Há»“ ChÃ­ Minh,700000.0,"Quáº­n 5, ThÃ nh phá»‘ Há»“ ChÃ­ Minh",VN
139,ChIJoRpTwf2JoDERn60XxvFsHAY,Chan tattoo Cáº§n ThÆ¡,Cá»­a hÃ ng xÄƒm mÃ¬nh vÃ  xá» lá»—,0939 800 493,"Chan tattoo Cáº§n ThÆ¡, LÃ´ 23 Ä. Nguyá»…n Äá»‡, An HoÃ , BÃ¬nh Thá»§y, Cáº§n ThÆ¡ 900000","An HoÃ , BÃ¬nh Thá»§y",LÃ´ 23 Ä. Nguyá»…n Äá»‡,Cáº§n ThÆ¡,900000.0,"BÃ¬nh Thá»§y, Cáº§n ThÆ¡",VN
154,ChIJvbQNCR2JoDERaKAXOQI5Lqk,Trung ÄÃ¬a Tattoo - XÄƒm HÃ¬nh Nghá»‡ Thuáº­t Cáº§n ThÆ¡,Cá»­a hÃ ng xÄƒm hÃ¬nh,0878 519 519,"Trung ÄÃ¬a Tattoo - XÄƒm HÃ¬nh Nghá»‡ Thuáº­t Cáº§n ThÆ¡, 65/15A Ä. Tráº§n HÆ°ng Äáº¡o, An CÆ°, Ninh Kiá»u, Cáº§n ThÆ¡ 900000","An CÆ°, Ninh Kiá»u",65/15A Ä. Tráº§n HÆ°ng Äáº¡o,Cáº§n ThÆ¡,900000.0,"Ninh Kiá»u, Cáº§n ThÆ¡",VN
169,ChIJIfB4JCSIoDERTLDijMJ8g3Q,ThÃ©p Tattoo - XÄƒm Nghá»‡ Thuáº­t Cáº§n ThÆ¡,Cá»­a hÃ ng xÄƒm hÃ¬nh,,"ThÃ©p Tattoo - XÄƒm Nghá»‡ Thuáº­t Cáº§n ThÆ¡, 483/1T Ä. 30 ThÃ¡ng 4, HÆ°ng Lá»£i, Ninh Kiá»u, Cáº§n ThÆ¡ 910000","HÆ°ng Lá»£i, Ninh Kiá»u",483/1T Ä. 30 ThÃ¡ng 4,Cáº§n ThÆ¡,910000.0,"Ninh Kiá»u, Cáº§n ThÆ¡",VN
184,ChIJR8eoQPKJoDEREp2Z_0uUm5o,Tiá»ƒu Tráº§n Tattoo Studio,Cá»­a hÃ ng xÄƒm mÃ¬nh vÃ  xá» lá»—,0931 116 500,"Tiá»ƒu Tráº§n Tattoo Studio, 006 Háº­u Tháº¡nh Má»¹, LÃª BÃ¬nh, CÃ¡i RÄƒng, Cáº§n ThÆ¡","LÃª BÃ¬nh, CÃ¡i RÄƒng",006 Háº­u Tháº¡nh Má»¹,Cáº§n ThÆ¡,,"CÃ¡i RÄƒng, Cáº§n ThÆ¡",VN
188,ChIJXXrbVFyJoDER9x26uIbA4_8,XÄƒm HÃ¬nh Nghá»‡ Thuáº­t Cáº§n ThÆ¡,Cá»­a hÃ ng xÄƒm hÃ¬nh,0777 011 199,"XÄƒm HÃ¬nh Nghá»‡ Thuáº­t Cáº§n ThÆ¡, 40/21 Ä. VÃµ TrÆ°á»ng Toáº£n, An HoÃ , Ninh Kiá»u, Cáº§n ThÆ¡ 900000","An HoÃ , Ninh Kiá»u",40/21 Ä. VÃµ TrÆ°á»ng Toáº£n,Cáº§n ThÆ¡,900000.0,"Ninh Kiá»u, Cáº§n ThÆ¡",VN
203,ChIJtQy_brUodTERm2RfZUoO6ts,Tiá»‡m xÄƒm Con Má»±c,Cá»­a hÃ ng xÄƒm hÃ¬nh,0936 671 492,"Tiá»‡m xÄƒm Con Má»±c, 194D Ä. Tráº§n Quang Kháº£i, PhÆ°á»ng TÃ¢n Äá»‹nh, Quáº­n 1, ThÃ nh phá»‘ Há»“ ChÃ­ Minh","PhÆ°á»ng TÃ¢n Äá»‹nh, Quáº­n 1",194D Ä. Tráº§n Quang Kháº£i,ThÃ nh phá»‘ Há»“ ChÃ­ Minh,,"Quáº­n 1, ThÃ nh phá»‘ Há»“ ChÃ­ Minh",VN
209,ChIJ3WO40T-JoDERVoQXGel_cbY,Huá»³nh NhÆ° - Phun XÄƒm Tháº©m Má»¹ & Ná»‘i Mi,Tháº©m má»¹ viá»‡n,0945 167 986,"Huá»³nh NhÆ° - Phun XÄƒm Tháº©m Má»¹ & Ná»‘i Mi, 8 Ä. TÃ´ Hiáº¿n ThÃ nh, PhÆ°á»ng An KhÃ¡nh, Ninh Kiá»u, Cáº§n ThÆ¡","PhÆ°á»ng An KhÃ¡nh, Ninh Kiá»u",8 Ä. TÃ´ Hiáº¿n ThÃ nh,Cáº§n ThÆ¡,,"Ninh Kiá»u, Cáº§n ThÆ¡",VN
219,ChIJFcZz3ZhjoDERCyeYVKggSu0,Tiá»‡m xÄƒm biáº¿t váº½ - V'manbun,Cá»­a hÃ ng xÄƒm hÃ¬nh,0794 981 649,"Tiá»‡m xÄƒm biáº¿t váº½ - V'manbun, 19A Ä. Máº¡c ThiÃªn TÃ­ch, XuÃ¢n KhÃ¡nh, Ninh Kiá»u, Cáº§n ThÆ¡ 900000","XuÃ¢n KhÃ¡nh, Ninh Kiá»u",19A Ä. Máº¡c ThiÃªn TÃ­ch,Cáº§n ThÆ¡,900000.0,"Ninh Kiá»u, Cáº§n ThÆ¡",VN
234,ChIJ55LKziEvdTERczMi_E2MDXY,Xam hinh nghÃª thuat,Cá»­a hÃ ng xÄƒm hÃ¬nh,0924 789 879,"Xam hinh nghÃª thuat, 530 Ä. TrÆ°á»ng Chinh, PhÆ°á»ng 13, TÃ¢n BÃ¬nh, ThÃ nh phá»‘ Há»“ ChÃ­ Minh","PhÆ°á»ng 13, TÃ¢n BÃ¬nh",530 Ä. TrÆ°á»ng Chinh,ThÃ nh phá»‘ Há»“ ChÃ­ Minh,,"TÃ¢n BÃ¬nh, ThÃ nh phá»‘ Há»“ ChÃ­ Minh",VN
237,ChIJ2ZV4yzApdTERi-5gYJ1U2X4,XÄƒm hÃ¬nh Ä‘áº¹p gÃ² váº¥p - perfect tattoo !,Cá»­a hÃ ng xÄƒm hÃ¬nh,0904 429 128,"XÄƒm hÃ¬nh Ä‘áº¹p gÃ² váº¥p - perfect tattoo !, 818 Nguyá»…n Kiá»‡m, PhÆ°á»ng 3, GÃ² Váº¥p, ThÃ nh phá»‘ Há»“ ChÃ­ Minh 700000","PhÆ°á»ng 3, GÃ² Váº¥p",818 Nguyá»…n Kiá»‡m,ThÃ nh phá»‘ Há»“ ChÃ­ Minh,700000.0,"GÃ² Váº¥p, ThÃ nh phá»‘ Há»“ ChÃ­ Minh",VN
238,ChIJi3AASQcvdTERvvQ3qi4zJGU,"DÅ©ng tattoo XÄƒm nghá»‡ thuáº­t ráº» Ä‘áº¹p 629/18 Nguyá»…nÄÃ¬nhChiá»ƒu,p2,q3,hcm",Cá»­a hÃ ng xÄƒm hÃ¬nh,0907 775 670,"DÅ©ng tattoo XÄƒm nghá»‡ thuáº­t ráº» Ä‘áº¹p 629/18 Nguyá»…nÄÃ¬nhChiá»ƒu,p2,q3,hcm, 629 Nguyá»…n ÄÃ¬nh Chiá»ƒu, PhÆ°á»ng 2, Quáº­n 3, ThÃ nh phá»‘ Há»“ ChÃ­ Minh","PhÆ°á»ng 2, Quáº­n 3",629 Nguyá»…n ÄÃ¬nh Chiá»ƒu,ThÃ nh phá»‘ Há»“ ChÃ­ Minh,,"Quáº­n 3, ThÃ nh phá»‘ Há»“ ChÃ­ Minh",VN
239,ChIJZXbuEqCJoDEReGQZM9UOyY4,ANT Tattoo - XÄƒm Nghá»‡ Thuáº­t Cáº§n ThÆ¡,Cá»­a hÃ ng xÄƒm mÃ¬nh vÃ  xá» lá»—,0898 099 196,"ANT Tattoo - XÄƒm Nghá»‡ Thuáº­t Cáº§n ThÆ¡, 79/57/25B HÃ¹ng VÆ°Æ¡ng, An CÆ°, Ninh Kiá»u, Cáº§n ThÆ¡ 94000","An CÆ°, Ninh Kiá»u",79/57/25B HÃ¹ng VÆ°Æ¡ng,Cáº§n ThÆ¡,94000.0,"Ninh Kiá»u, Cáº§n ThÆ¡",VN
252,ChIJxfjPYNBjoDERBUF9jh4teZ4,LÃª khang Tattoo,Cá»­a hÃ ng xÄƒm hÃ¬nh,0969 452 230,"LÃª khang Tattoo, háº»m 130 ÄÆ°á»ng, Nguyá»…n Thá»‹ Minh Khai, TÃ¢n An, Ninh Kiá»u, Cáº§n ThÆ¡ 90000","TÃ¢n An, Ninh Kiá»u","háº»m 130 ÄÆ°á»ng, Nguyá»…n Thá»‹ Minh Khai",Cáº§n ThÆ¡,90000.0,"Ninh Kiá»u, Cáº§n ThÆ¡",VN
267,ChIJyywPdc-FoDERJrtIkEcfm2g,Tiá»‡m XÄƒm Huá»³nh Äáº·ng-Tattoo Cáº§n ThÆ¡,Cá»­a hÃ ng xÄƒm hÃ¬nh,0898 888 159,"Tiá»‡m XÄƒm Huá»³nh Äáº·ng-Tattoo Cáº§n ThÆ¡, 91 55, Khu Vá»±c Thá»›i Thuáº­n, Ã” MÃ´n, Cáº§n ThÆ¡","Khu Vá»±c Thá»›i Thuáº­n, Ã” MÃ´n",91 55,Cáº§n ThÆ¡,,"Ã” MÃ´n, Cáº§n ThÆ¡",VN
282,ChIJR3oFrmtjoDER3yhOcrH2hRo,9613 Tattoo & Body Piercing,Cá»­a hÃ ng xÄƒm hÃ¬nh,,"9613 Tattoo & Body Piercing, 18 Nguyá»…n TrÃ£i, TÃ¢n An, Ninh Kiá»u, Cáº§n ThÆ¡ 900000","TÃ¢n An, Ninh Kiá»u",18 Nguyá»…n TrÃ£i,Cáº§n ThÆ¡,900000.0,"Ninh Kiá»u, Cáº§n ThÆ¡",VN
284,ChIJ_0O3dX2JoDER-GGKHeqjV2o,HT - INK TATTOO XÄ‚M HÃŒNH NGHá»† THUáº¬T Cáº¦N THÆ ,Cá»­a hÃ ng xÄƒm mÃ¬nh vÃ  xá» lá»—,0939 568 241,"HT - INK TATTOO XÄ‚M HÃŒNH NGHá»† THUáº¬T Cáº¦N THÆ , 123 HoÃ ng VÄƒn Thá»¥, An CÆ°, Ninh Kiá»u, Cáº§n ThÆ¡","An CÆ°, Ninh Kiá»u",123 HoÃ ng VÄƒn Thá»¥,Cáº§n ThÆ¡,,"Ninh Kiá»u, Cáº§n ThÆ¡",VN
301,ChIJ48kMqMaHoDERm4DRQbuS4_8,Tiá»‡m XÄƒm Há»‡n Nguyá»…n,Cá»­a hÃ ng xÄƒm hÃ¬nh,0335 968 088,"Tiá»‡m XÄƒm Há»‡n Nguyá»…n, 7 LÃª Quang Chiá»ƒu, An Thá»›i, BÃ¬nh Thá»§y, Cáº§n ThÆ¡","An Thá»›i, BÃ¬nh Thá»§y",7 LÃª Quang Chiá»ƒu,Cáº§n ThÆ¡,,"BÃ¬nh Thá»§y, Cáº§n ThÆ¡",VN
307,ChIJeexz4CahoDERpejb4dmV4rs,Tiá»‡m XÄƒm Tiáº¿n Magic,Cá»­a hÃ ng xÄƒm hÃ¬nh,0931 031 900,"Tiá»‡m XÄƒm Tiáº¿n Magic, 488 áº¤p VÄ©nh Tiáº¿n, Thá»‹ tráº¥n VÄ©nh Tháº¡nh, VÄ©nh Tháº¡nh, Cáº§n ThÆ¡","Thá»‹ tráº¥n VÄ©nh Tháº¡nh, VÄ©nh Tháº¡nh",488 áº¤p VÄ©nh Tiáº¿n,Cáº§n ThÆ¡,,"VÄ©nh Tháº¡nh, Cáº§n ThÆ¡",VN
323,ChIJZV-8jBRjoDERwf0T1a1Bi7o,Heart ink,Cá»­a hÃ ng xÄƒm hÃ¬nh,,"Heart ink, 71 ÄÆ°á»ng ChÃ¢u VÄƒn LiÃªm, An Láº¡c, Ninh Kiá»u, Cáº§n ThÆ¡","An Láº¡c, Ninh Kiá»u",71 ÄÆ°á»ng ChÃ¢u VÄƒn LiÃªm,Cáº§n ThÆ¡,,"Ninh Kiá»u, Cáº§n ThÆ¡",VN
325,ChIJFderZeiJoDER7y2ecS8I_p4,Heo Rá»«ng Tattoo - XÄƒm Nghá»‡ Thuáº­t Cáº§n ThÆ¡,Cá»­a hÃ ng xÄƒm hÃ¬nh,0856 789 521,"Heo Rá»«ng Tattoo - XÄƒm Nghá»‡ Thuáº­t Cáº§n ThÆ¡, 158/2 Ä. Nguyá»…n Viá»‡t Há»“ng, XuÃ¢n KhÃ¡nh, Ninh Kiá»u, Cáº§n ThÆ¡ 94114","XuÃ¢n KhÃ¡nh, Ninh Kiá»u",158/2 Ä. Nguyá»…n Viá»‡t Há»“ng,Cáº§n ThÆ¡,94114.0,"Ninh Kiá»u, Cáº§n ThÆ¡",VN
347,ChIJo1N4jDWJoDERZ-yBXvFlx6U,Tattoo Hiáº¿u,Cá»­a hÃ ng xÄƒm hÃ¬nh,0939 434 548,"Tattoo Hiáº¿u, 140/47d, Ä. LÃ½ Tá»± Trá»ng, An CÆ°, Ninh Kiá»u, Cáº§n ThÆ¡","An CÆ°, Ninh Kiá»u","140/47d, Ä. LÃ½ Tá»± Trá»ng",Cáº§n ThÆ¡,,"Ninh Kiá»u, Cáº§n ThÆ¡",VN
348,ChIJzcSRkE5loDER2xpsgz0koVw,Tiá»‡m XÄƒm HÃ¬nh Vinh TATTOO,Cá»­a hÃ ng xÄƒm hÃ¬nh,0899 843 626,"XWQ4+GRJ Tiá»‡m XÄƒm HÃ¬nh Vinh TATTOO, NgÃ£i Tá»©, ÄÃ´ng Tháº¡nh, NgÃ£i Tá»©, Tam BÃ¬nh, VÄ©nh Long","NgÃ£i Tá»©, Tam BÃ¬nh","XWQ4+GRJ, NgÃ£i Tá»©, ÄÃ´ng Tháº¡nh",VÄ©nh Long,,"Tam BÃ¬nh, VÄ©nh Long",VN
350,ChIJa_uZGxljoDERS2kDDW3TXsU,Ãšt Ty XÄƒm,Cá»­a hÃ ng xÄƒm hÃ¬nh,0774 020 154,"Ãšt Ty XÄƒm, 17 Ä. NgÃ´ Quyá»n, TÃ¢n An, Ninh Kiá»u, Cáº§n ThÆ¡ 900000","TÃ¢n An, Ninh Kiá»u",17 Ä. NgÃ´ Quyá»n,Cáº§n ThÆ¡,900000.0,"Ninh Kiá»u, Cáº§n ThÆ¡",VN
376,ChIJj1NYIsEodTER5r2oPhhC_38,Vnstyle Tattoo & Piercing,Cá»­a hÃ ng xÄƒm hÃ¬nh,0908 587 381,"Vnstyle Tattoo & Piercing, 20 ThÃ­ch Minh Nguyá»‡t, PhÆ°á»ng 2, TÃ¢n BÃ¬nh, ThÃ nh phá»‘ Há»“ ChÃ­ Minh","PhÆ°á»ng 2, TÃ¢n BÃ¬nh",20 ThÃ­ch Minh Nguyá»‡t,ThÃ nh phá»‘ Há»“ ChÃ­ Minh,,"TÃ¢n BÃ¬nh, ThÃ nh phá»‘ Há»“ ChÃ­ Minh",VN
384,ChIJuZNiUTiIoDERSkkqlhf6URg,K3nT Tattoo,Cá»­a hÃ ng xÄƒm mÃ¬nh vÃ  xá» lá»—,0906 966 266,"K3nT Tattoo, 21 Ä. LÆ°Æ¡ng Äá»‹nh Cá»§a, CÃ¡i Kháº¿, Ninh Kiá»u, Cáº§n ThÆ¡ 900000","CÃ¡i Kháº¿, Ninh Kiá»u",21 Ä. LÆ°Æ¡ng Äá»‹nh Cá»§a,Cáº§n ThÆ¡,900000.0,"Ninh Kiá»u, Cáº§n ThÆ¡",VN
388,ChIJJYY8Z74udTERyxpVSTeJq1w,Äá»— NhÃ¢n Tattoo,Cá»­a hÃ ng xÄƒm hÃ¬nh,0888 466 166,"Äá»— NhÃ¢n Tattoo, 480/10 Láº¡c Long QuÃ¢n , PhÆ°á»ng 5, Quáº­n 11, Tp, ThÃ nh phá»‘ Há»“ ChÃ­ Minh 700000","PhÆ°á»ng 5, Tp","480/10 Láº¡c Long QuÃ¢n , PhÆ°á»ng 5, Quáº­n 11",ThÃ nh phá»‘ Há»“ ChÃ­ Minh,700000.0,"Tp, ThÃ nh phá»‘ Há»“ ChÃ­ Minh",VN
403,ChIJL2WP87aJoDERKNeBeCdjfFU,MonkeyTattoo,Cá»­a hÃ ng xÄƒm mÃ¬nh vÃ  xá» lá»—,,"2QRF+VG6 MonkeyTattoo, An Nghiá»‡p, Ninh Kiá»u, Cáº§n ThÆ¡","An Nghiá»‡p, Ninh Kiá»u",2QRF+VG6,Cáº§n ThÆ¡,,"Ninh Kiá»u, Cáº§n ThÆ¡",VN
417,ChIJ9z4oY-qJoDERZcJ7L9jduXc,TÃ¢n Tattoo,Cá»­a hÃ ng xÄƒm mÃ¬nh vÃ  xá» lá»—,0899 688 229,"TÃ¢n Tattoo, 86/39BIS Ä. CÃ¡ch Máº¡ng ThÃ¡ng 8, CÃ¡i Kháº¿, Ninh Kiá»u, Cáº§n ThÆ¡","CÃ¡i Kháº¿, Ninh Kiá»u",86/39BIS Ä. CÃ¡ch Máº¡ng ThÃ¡ng 8,Cáº§n ThÆ¡,,"Ninh Kiá»u, Cáº§n ThÆ¡",VN
426,ChIJ5603hNYIJSoRVG4mBss9xiI,Monkey Tattoo,Cá»­a hÃ ng xÄƒm hÃ¬nh,0939 252 646,,,,,,,
440,ChIJZafZK5yJoDERebPZiRo6ygk,DH Tattoo Cáº§n ThÆ¡,Cá»­a hÃ ng xÄƒm hÃ¬nh,0939 506 604,"DH Tattoo Cáº§n ThÆ¡, khu dÃ¢n cÆ° 3a, cuá»‘i, Ä. A4, An BÃ¬nh, Ninh Kiá»u, Cáº§n ThÆ¡","An BÃ¬nh, Ninh Kiá»u","khu dÃ¢n cÆ° 3a, cuá»‘i, Ä. A4",Cáº§n ThÆ¡,,"Ninh Kiá»u, Cáº§n ThÆ¡",VN
444,ChIJ3QDxRPaFoDERO1pnIBegj-I,Tiá»‡m XÄƒm TÃ½ Anh,Tháº©m má»¹ viá»‡n,0931 088 662,"Tiá»‡m XÄƒm TÃ½ Anh, 423 ÄÆ°á»ng Tráº§n HÆ°ng Äáº¡o, ChÃ¢u VÄƒn LiÃªm, Ã” MÃ´n, Cáº§n ThÆ¡","ChÃ¢u VÄƒn LiÃªm, Ã” MÃ´n",423 ÄÆ°á»ng Tráº§n HÆ°ng Äáº¡o,Cáº§n ThÆ¡,,"Ã” MÃ´n, Cáº§n ThÆ¡",VN
445,ChIJI1WccPk7dTERw1_wK5mH2yM,"Tiá»‡m xÄƒm Ä‘áº¹p á»Ÿ Long háº­u ,Hiá»‡p phÆ°á»›c",Cá»­a hÃ ng xÄƒm hÃ¬nh,0939 219 143,"Tiá»‡m xÄƒm Ä‘áº¹p á»Ÿ Long háº­u ,Hiá»‡p phÆ°á»›c, JPMH M62, Long Háº­u, Cáº§n Giuá»™c, Long An 853000","Long Háº­u, Cáº§n Giuá»™c",JPMH M62,Long An,853000.0,"Cáº§n Giuá»™c, Long An",VN
446,ChIJAyaGxGGJoDERNzcnnZczSJQ,Mon&ChrisTattoo,Cá»­a hÃ ng xÄƒm hÃ¬nh,0773 782 660,"Mon&ChrisTattoo, ÄÆ°á»ng sá»‘ 3- 132F9 Tá»• 2 - KV 2, Nguyá»…n VÄƒn Cá»« Ná»‘i DÃ i, PhÆ°á»ng An KhÃ¡nh, Ninh Kiá»u, Cáº§n ThÆ¡ 94000","PhÆ°á»ng An KhÃ¡nh, Ninh Kiá»u","ÄÆ°á»ng sá»‘ 3- 132F9 Tá»• 2 - KV 2, Nguyá»…n VÄƒn Cá»« Ná»‘i DÃ i",Cáº§n ThÆ¡,94000.0,"Ninh Kiá»u, Cáº§n ThÆ¡",VN
461,ChIJ_Ysf0vezoDERIItZbNDm5dY,tiá»‡m XÄ‚M,Cá»­a hÃ ng xÄƒm hÃ¬nh,0962 669 949,"tiá»‡m XÄ‚M, 22 Phan ÄÃ¬nh PhÃ¹ng, PhÆ°á»ng VÄ©nh Báº£o, Ráº¡ch GiÃ¡, KiÃªn Giang 921289","PhÆ°á»ng VÄ©nh Báº£o, Ráº¡ch GiÃ¡",22 Phan ÄÃ¬nh PhÃ¹ng,KiÃªn Giang,921289.0,"Ráº¡ch GiÃ¡, KiÃªn Giang",VN
462,ChIJpZo2jbGJoDER7E3M3z4B8Yg,Tattoo Studio,Cá»­a hÃ ng xÄƒm hÃ¬nh,0777 011 199,"Tattoo Studio, 77/2 Ä. Pháº¡m NgÅ© LÃ£o, Thá»›i BÃ¬nh, Ninh Kiá»u, Cáº§n ThÆ¡ 90000","Thá»›i BÃ¬nh, Ninh Kiá»u",77/2 Ä. Pháº¡m NgÅ© LÃ£o,Cáº§n ThÆ¡,90000.0,"Ninh Kiá»u, Cáº§n ThÆ¡",VN
464,ChIJH4E6OSSIoDERWIANOJ8bcYU,Tiá»‡m XÄƒm Nghá»‡ Thuáº­t Tin,Cá»­a hÃ ng quÃ  táº·ng,0909 667 090,"Tiá»‡m XÄƒm Nghá»‡ Thuáº­t Tin, 1, ÄÆ°á»ng 30/4, PhÆ°á»ng XuÃ¢n KhÃ¡nh, Quáº­n Ninh Kiá»u, ThÃ nh Phá»‘ Cáº§n ThÆ¡, XuÃ¢n KhÃ¡nh, Ninh Kiá»u, Cáº§n ThÆ¡","XuÃ¢n KhÃ¡nh, Ninh Kiá»u","1, ÄÆ°á»ng 30/4, PhÆ°á»ng XuÃ¢n KhÃ¡nh, Quáº­n Ninh Kiá»u, ThÃ nh Phá»‘ Cáº§n ThÆ¡",Cáº§n ThÆ¡,,"Ninh Kiá»u, Cáº§n ThÆ¡",VN
491,ChIJr7mZS2aJoDEReSWp0020epE,LÃ¢m ShangHai Tattoo Cáº§n ThÆ¡,Cá»­a hÃ ng xÄƒm hÃ¬nh,0348 127 751,"LÃ¢m ShangHai Tattoo Cáº§n ThÆ¡, Ä. Nguyá»…n VÄƒn Cá»«, CÃ¡i Kháº¿, Ninh Kiá»u, Cáº§n ThÆ¡ 94000","CÃ¡i Kháº¿, Ninh Kiá»u",Ä. Nguyá»…n VÄƒn Cá»«,Cáº§n ThÆ¡,94000.0,"Ninh Kiá»u, Cáº§n ThÆ¡",VN
492,ChIJ-bcsrB1FoDERkGCP8SONo_E,Cá»­a hÃ ng xÄƒm Vinh tattoo,Cá»­a hÃ ng xÄƒm hÃ¬nh,0708 543 420,"Cá»­a hÃ ng xÄƒm Vinh tattoo, ÄÆ°á»ng Phan VÄƒn HÃ¹ng, TT. Káº¿ SÃ¡ch, Káº¿ SÃ¡ch, SÃ³c TrÄƒng","TT. Káº¿ SÃ¡ch, Káº¿ SÃ¡ch",ÄÆ°á»ng Phan VÄƒn HÃ¹ng,SÃ³c TrÄƒng,,"Káº¿ SÃ¡ch, SÃ³c TrÄƒng",VN
503,ChIJOaKq75mJoDERBm44TvPJeBM,TattooTrieuHuynh,Cá»­a hÃ ng xÄƒm hÃ¬nh,,"TattooTrieuHuynh, 250/28A Táº§m Vu, HÆ°ng Lá»£i, Ninh Kiá»u, Cáº§n ThÆ¡","HÆ°ng Lá»£i, Ninh Kiá»u",250/28A Táº§m Vu,Cáº§n ThÆ¡,,"Ninh Kiá»u, Cáº§n ThÆ¡",VN
510,ChIJfbP3u7eJoDERc81vZ_Apmr0,"Bull Tattoo & gÄƒm bi, xá» khuyÃªn",Cá»­a hÃ ng xÄƒm mÃ¬nh vÃ  xá» lá»—,0766 911 191,"Bull Tattoo & gÄƒm bi, xá» khuyÃªn, Tráº§n ChiÃªn, LÃª BÃ¬nh, CÃ¡i RÄƒng, Cáº§n ThÆ¡","LÃª BÃ¬nh, CÃ¡i RÄƒng",Tráº§n ChiÃªn,Cáº§n ThÆ¡,,"CÃ¡i RÄƒng, Cáº§n ThÆ¡",VN
516,ChIJ1wDOJymHoDER6iistW60bT8,Tiá»‡m XÄƒm AVin,Cá»­a hÃ ng xÄƒm hÃ¬nh,0912 331 700,"Tiá»‡m XÄƒm AVin, 86 Tráº§n VÄƒn NghiÃªm, An Thá»›i, BÃ¬nh Thá»§y, Cáº§n ThÆ¡","An Thá»›i, BÃ¬nh Thá»§y",86 Tráº§n VÄƒn NghiÃªm,Cáº§n ThÆ¡,,"BÃ¬nh Thá»§y, Cáº§n ThÆ¡",VN
517,ChIJJ9-ptYaJoDERrlKhmT_jHVs,Tiá»‡m xÄƒm 12 December,Cá»­a hÃ ng xÄƒm hÃ¬nh,0939 932 303,"Tiá»‡m xÄƒm 12 December, 147h5/18, Ä. Nguyá»…n VÄƒn Cá»«, PhÆ°á»ng An KhÃ¡nh, Ninh Kiá»u, Cáº§n ThÆ¡","PhÆ°á»ng An KhÃ¡nh, Ninh Kiá»u","147h5/18, Ä. Nguyá»…n VÄƒn Cá»«",Cáº§n ThÆ¡,,"Ninh Kiá»u, Cáº§n ThÆ¡",VN
518,ChIJaaqKAjSJoDERmYRXtKK9GNE,Tiá»‡m TATTOO,Cá»­a hÃ ng xÄƒm hÃ¬nh,0961 629 911,"Tiá»‡m TATTOO, 11 Ä. Máº¡c ThiÃªn TÃ­ch, XuÃ¢n KhÃ¡nh, Ninh Kiá»u, Cáº§n ThÆ¡","XuÃ¢n KhÃ¡nh, Ninh Kiá»u",11 Ä. Máº¡c ThiÃªn TÃ­ch,Cáº§n ThÆ¡,,"Ninh Kiá»u, Cáº§n ThÆ¡",VN
519,ChIJx4ch2dGJoDERX5xdOC6wbjU,MÃ©o tatoo,Cá»­a hÃ ng xÄƒm hÃ¬nh,0919 599 012,"MÃ©o tatoo, Ä. Nguyá»…n VÄƒn Cá»«, XuÃ¢n KhÃ¡nh, Ninh Kiá»u, Cáº§n ThÆ¡ 94100","XuÃ¢n KhÃ¡nh, Ninh Kiá»u",Ä. Nguyá»…n VÄƒn Cá»«,Cáº§n ThÆ¡,94100.0,"Ninh Kiá»u, Cáº§n ThÆ¡",VN
520,ChIJ5QK4TM-JoDERfsxJ7_-zjzw,xÄƒm nghá»‡ thuáº­t cáº§n thÆ¡,Cá»­a hÃ ng xÄƒm hÃ¬nh,0933 000 327,"xÄƒm nghá»‡ thuáº­t cáº§n thÆ¡, 19a Ä. 3 ThÃ¡ng 2, XuÃ¢n KhÃ¡nh, Ninh Kiá»u, Cáº§n ThÆ¡","XuÃ¢n KhÃ¡nh, Ninh Kiá»u",19a Ä. 3 ThÃ¡ng 2,Cáº§n ThÆ¡,,"Ninh Kiá»u, Cáº§n ThÆ¡",VN
533,ChIJFbacjMZjoDERE3hZiG-PcQY,Tattoo Tráº§n Äáº¡t,Cá»­a hÃ ng xÄƒm hÃ¬nh,0787 864 907,"Tattoo Tráº§n Äáº¡t, 21 LÃª Lá»£i, CÃ¡i Kháº¿, Ninh Kiá»u, Cáº§n ThÆ¡","CÃ¡i Kháº¿, Ninh Kiá»u",21 LÃª Lá»£i,Cáº§n ThÆ¡,,"Ninh Kiá»u, Cáº§n ThÆ¡",VN
553,ChIJz_zftGqIoDERXjca5f3B-X0,Tiá»‡m Phun XÄƒm Thu BÃ¹i Brows,Tháº©m má»¹ viá»‡n,0939 006 598,"Tiá»‡m Phun XÄƒm Thu BÃ¹i Brows, 390N1/9, Ä. Nguyá»…n VÄƒn Cá»«, PhÆ°á»ng An KhÃ¡nh, Ninh Kiá»u, Cáº§n ThÆ¡","PhÆ°á»ng An KhÃ¡nh, Ninh Kiá»u","390N1/9, Ä. Nguyá»…n VÄƒn Cá»«",Cáº§n ThÆ¡,,"Ninh Kiá»u, Cáº§n ThÆ¡",VN
557,ChIJj2e9Gt6JoDERX1t-e6l4GYE,Tattoo HOÃ€NG NHá»š - XÄƒm HÃ¬nh Nghá»‡ Thuáº­t Cáº§n ThÆ¡,Cá»­a hÃ ng xÄƒm mÃ¬nh vÃ  xá» lá»—,0773 393 933,"Tattoo HOÃ€NG NHá»š - XÄƒm HÃ¬nh Nghá»‡ Thuáº­t Cáº§n ThÆ¡, 63 Ä. Tráº§n HoÃ ng Na, HÆ°ng Lá»£i, Ninh Kiá»u, Cáº§n ThÆ¡","HÆ°ng Lá»£i, Ninh Kiá»u",63 Ä. Tráº§n HoÃ ng Na,Cáº§n ThÆ¡,,"Ninh Kiá»u, Cáº§n ThÆ¡",VN
590,ChIJlRuZmqlioDERxsAiK3_CzQM,Hoanganhtattoo,Cá»­a hÃ ng xÄƒm hÃ¬nh,0909 811 477,"Hoanganhtattoo, 49/10 Quang Trung, An Láº¡c, Ninh Kiá»u, Cáº§n ThÆ¡","An Láº¡c, Ninh Kiá»u",49/10 Quang Trung,Cáº§n ThÆ¡,,"Ninh Kiá»u, Cáº§n ThÆ¡",VN
592,ChIJ_Sr1QVeJoDERWw8fRnCSizw,Dunz Tattoo & Pod Cáº§n ThÆ¡,Cá»­a hÃ ng xÄƒm hÃ¬nh,0939 396 164,"Dunz Tattoo & Pod Cáº§n ThÆ¡, Háº»m 387, PhÆ°á»ng An KhÃ¡nh, Ninh Kiá»u, Cáº§n ThÆ¡ 94117","PhÆ°á»ng An KhÃ¡nh, Ninh Kiá»u",Háº»m 387,Cáº§n ThÆ¡,94117.0,"Ninh Kiá»u, Cáº§n ThÆ¡",VN
