,place_id,name,main_category,phone,address,address_ward,address_street,address_city,address_postal_code,address_state,address_country_code,coordinates
0,ChIJWTvOSrqJoDERVnAMv9zLGO4,CÔNG TY CỔ PHẦN VẬT LIỆU CỬA NHÔM CẦN THƠ,Nhà cung cấp vật liệu xây dựng,,"CÔNG TY CỔ PHẦN VẬT LIỆU CỬA NHÔM CẦN THƠ, Nguyễn Văn Cừ Nối Dài, An Bình, Ninh Kiều, Cần Thơ 94118","An Bình, Ninh Kiều",Nguyễn Văn Cừ Nối Dài,Cần Thơ,94118.0,"Ninh Kiều, Cần Thơ",VN,"10.0262367,105.7450514"
2,ChIJrfG282uJoDERSAmR01FJvVw,Vật liệu xây dưng Chí Thanh,Cửa hàng vật liệu xây dựng,0987 871 966,"Vật liệu xây dưng Chí Thanh, 58 e Đ. 3 Tháng 2, Hưng Lợi, Ninh Kiều, Cần Thơ","Hưng Lợi, Ninh Kiều",58 e Đ. 3 Tháng 2,Cần Thơ,,"Ninh Kiều, Cần Thơ",VN,"10.0240704,105.7668243"
11,ChIJa5Ahn--JoDERLyJtt_NQyLw,DNTN Diễm Ngân - Trụ sở chính,Cửa hàng vật liệu xây dựng,0988 160 567,"DNTN Diễm Ngân - Trụ sở chính, 170 Đ. 3 Tháng 2, Hưng Lợi, Ninh Kiều, Cần Thơ","Hưng Lợi, Ninh Kiều",170 Đ. 3 Tháng 2,Cần Thơ,,"Ninh Kiều, Cần Thơ",VN,"10.0196262,105.7630009"
16,ChIJEZua-UaJoDERX8q9SgAh8I8,Vật liệu chống thấm Cần Thơ - Công ty TNHH Tín Minh Khoa,Cửa hàng vật liệu xây dựng,0916 869 091,"Vật liệu chống thấm Cần Thơ - Công ty TNHH Tín Minh Khoa, 52 Đ. Trần Hoàng Na, Hưng Lợi, Ninh Kiều, Cần Thơ 70000","Hưng Lợi, Ninh Kiều",52 Đ. Trần Hoàng Na,Cần Thơ,70000.0,"Ninh Kiều, Cần Thơ",VN,"10.011087,105.76568619999999"
30,ChIJh1aT_V-JoDERYUqfvIWPUNU,VẬT LIỆU XÂY DỰNG CẦN THƠ - VẬT LIỆU XANH,Cửa hàng vật liệu xây dựng,0941 405 259,"VẬT LIỆU XÂY DỰNG CẦN THƠ - VẬT LIỆU XANH, 278/13A Tầm Vu, Hưng Lợi, Ninh Kiều, Cần Thơ 90000","Hưng Lợi, Ninh Kiều",278/13A Tầm Vu,Cần Thơ,90000.0,"Ninh Kiều, Cần Thơ",VN,"10.0149665,105.77174339999999"
36,ChIJG6yYbyaJoDERAiMWGV4IWJs,Đại Lý Vòi Nước Cần Thơ,Cửa hàng vật liệu xây dựng,0798 076 057,"Đại Lý Vòi Nước Cần Thơ, 153 Hẻm 132 Đ. 3 Tháng 2, Hưng Lợi, Ninh Kiều, Cần Thơ 900000","Hưng Lợi, Ninh Kiều",153 Hẻm 132 Đ. 3 Tháng 2,Cần Thơ,900000.0,"Ninh Kiều, Cần Thơ",VN,"10.0196676,105.7576679"
37,ChIJtwPiG52JoDERf1L2bBIizg8,Thiết Bị Vệ Sinh Bồn Cầu Cần Thơ,Cửa hàng vật liệu xây dựng,0796 790 001,"Thiết Bị Vệ Sinh Bồn Cầu Cần Thơ, 33 Đ. Lê Chân, Hưng Lợi, Ninh Kiều, Cần Thơ","Hưng Lợi, Ninh Kiều",33 Đ. Lê Chân,Cần Thơ,,"Ninh Kiều, Cần Thơ",VN,"10.022886999999999,105.7567454"
41,ChIJS8hY9CeJoDERrBM6fT6N9bU,Công ty CP CN Vật Liệu Toàn Cầu,Nhà cung cấp vật liệu xây dựng,0909 898 150,"Công ty CP CN Vật Liệu Toàn Cầu, 5 Đ. Nguyễn Đệ, An Hoà, Bình Thủy, Cần Thơ","An Hoà, Bình Thủy",5 Đ. Nguyễn Đệ,Cần Thơ,,"Bình Thủy, Cần Thơ",VN,"10.0511097,105.76985789999999"
42,ChIJ0_tEoJOJoDERoYBolclGvN4,Cửa Hàng Vật Liệu Ốp Tường,Cửa hàng nội thất,0901 030 442,"Cửa Hàng Vật Liệu Ốp Tường, 96 Đ. Trần Hoàng Na, Khu dân cư 91B, Ninh Kiều, Cần Thơ","Khu dân cư 91B, Ninh Kiều",96 Đ. Trần Hoàng Na,Cần Thơ,,"Ninh Kiều, Cần Thơ",VN,"10.021846,105.7538479"
43,ChIJK6GvfzWIoDEROckYO_9VWI8,Cty TNHH thép Phương Nam 3,Cửa hàng vật liệu xây dựng,0292 3739 969,"Cty TNHH thép Phương Nam 3, 64A Đ. 3 Tháng 2, Hưng Lợi, Ninh Kiều, Cần Thơ 94000","Hưng Lợi, Ninh Kiều",64A Đ. 3 Tháng 2,Cần Thơ,94000.0,"Ninh Kiều, Cần Thơ",VN,"10.0146074,105.7587099"
44,ChIJD4vwrM2JoDERBbBPjC95GPg,VLXD Huệ Lộc Gạch Men Đẹp Uy Tín Cần Thơ - Vị Thanh - Sóc Trăng,Cửa hàng vật liệu xây dựng,0939 359 521,"VLXD Huệ Lộc Gạch Men Đẹp Uy Tín Cần Thơ - Vị Thanh - Sóc Trăng, 47 Đ. 3 Tháng 2, Hưng Lợi, Ninh Kiều, Cần Thơ","Hưng Lợi, Ninh Kiều",47 Đ. 3 Tháng 2,Cần Thơ,,"Ninh Kiều, Cần Thơ",VN,"10.0134543,105.7578558"
45,ChIJjR0GTayJoDERxsI-MiKRqjs,Công ty Ốp lát Trang trí Ngân Điền,Cửa hàng vật liệu xây dựng,0942 520 529,"Công ty Ốp lát Trang trí Ngân Điền, Canh 172 Đ. Nguyễn Văn Cừ, An Bình, Ninh Kiều, Cần Thơ","An Bình, Ninh Kiều",Canh 172 Đ. Nguyễn Văn Cừ,Cần Thơ,,"Ninh Kiều, Cần Thơ",VN,"10.0218078,105.7428157"
46,ChIJRW6QV3aIoDERDye78TPTFzU,DNTN VLXD MINH LONG 2,Cửa hàng vật liệu xây dựng,0292 3881 951,"DNTN VLXD MINH LONG 2, 56 Đường Trần Bạch Đằng, KV.An Bình ,P, Ninh Kiều, Cần Thơ","KV.An Bình ,P, Ninh Kiều",56 Đường Trần Bạch Đằng,Cần Thơ,,"Ninh Kiều, Cần Thơ",VN,"10.039831,105.751251"
47,ChIJ_6LJthOIoDER0lnScSvIDIU,CÔNG TY TNHH TMDV PHÁT TRIỂN ĐÔNG ĐÔNG,Cửa hàng vật liệu xây dựng,0907 310 073,"CÔNG TY TNHH TMDV PHÁT TRIỂN ĐÔNG ĐÔNG, 138H Đ. Nguyễn Văn Cừ, P, Ninh Kiều, Cần Thơ 900000","P, Ninh Kiều",138H Đ. Nguyễn Văn Cừ,Cần Thơ,900000.0,"Ninh Kiều, Cần Thơ",VN,"10.0416745,105.7629829"
48,ChIJ9-8EgrWJoDERXdx6QEhshTw,DNTN Diễm Ngân - Kho 19,Cửa hàng vật liệu xây dựng,0292 3838 239,"DNTN Diễm Ngân - Kho 19, 19 Tầm Vu, Hưng Lợi, Ninh Kiều, Cần Thơ","Hưng Lợi, Ninh Kiều",19 Tầm Vu,Cần Thơ,,"Ninh Kiều, Cần Thơ",VN,"10.009433699999999,105.7577869"
50,ChIJk7XqDa-JoDER9GK-pCuzp-8,Kho hàng Cty TNHH Phước Nguyên,Cửa hàng vật liệu xây dựng,0292 3740 043,"Kho hàng Cty TNHH Phước Nguyên, 1 Lộ Vòng Cung, An Bình, Ninh Kiều, Cần Thơ","An Bình, Ninh Kiều",1 Lộ Vòng Cung,Cần Thơ,,"Ninh Kiều, Cần Thơ",VN,"9.9953428,105.7392047"
51,ChIJY8m1wjaIoDERt0XlAkgkbBM,VLXD & TTNT Trường Giang,Cửa hàng vật liệu xây dựng,0292 3782 723,"VLXD & TTNT Trường Giang, 199c Đ. 3 Tháng 2, Hưng Lợi, Ninh Kiều, Cần Thơ","Hưng Lợi, Ninh Kiều",199c Đ. 3 Tháng 2,Cần Thơ,,"Ninh Kiều, Cần Thơ",VN,"10.0205149,105.7643027"
52,ChIJuU8kkzaIoDERILLReBhuRZE,Dntn Sx Tm Bích Thủy,Cửa hàng vật liệu xây dựng,0907 069 645,"Dntn Sx Tm Bích Thủy, 147 Đ. 3 Tháng 2, Hưng Lợi, Ninh Kiều, Cần Thơ","Hưng Lợi, Ninh Kiều",147 Đ. 3 Tháng 2,Cần Thơ,,"Ninh Kiều, Cần Thơ",VN,"10.018489299999999,105.7624826"
55,ChIJq6qqBw-IoDERFApE-TEcwho,Công Ty TNHH VLXD Sang Giàu,Cửa hàng vật liệu xây dựng,0292 3895 456,"Công Ty TNHH VLXD Sang Giàu, 140, Đường Nguyễn Văn Cừ, Phường An Hoà, Quận Ninh Kiều, Tp Cần Thơ, An Hoà, Ninh Kiều, Cần Thơ","An Hoà, Ninh Kiều","140, Đường Nguyễn Văn Cừ, Phường An Hoà, Quận Ninh Kiều, Tp Cần Thơ",Cần Thơ,,"Ninh Kiều, Cần Thơ",VN,"10.047019299999999,105.76794439999999"
57,ChIJa2XsQ1CIoDERFsRpY8Ou5ls,CN Công Ty CP Đầu Tư Xử Lý Nước Sạch Aqua Vn,Cửa hàng vật liệu xây dựng,0292 6295 566,"CN Công Ty CP Đầu Tư Xử Lý Nước Sạch Aqua Vn, 238 Đ.Xuân Thủy, An Bình, Ninh Kiều, Cần Thơ","An Bình, Ninh Kiều",238 Đ.Xuân Thủy,Cần Thơ,,"Ninh Kiều, Cần Thơ",VN,"10.0220469,105.744805"
58,ChIJ_TIp2RKJoDERiiO1a3Sh7iI,Kho cát đá Cty TNHH Phước Nguyên,Cửa hàng vật liệu xây dựng,0292 6290 996,"Kho cát đá Cty TNHH Phước Nguyên, 54/1 Lộ Vòng Cung, An Bình, Ninh Kiều, Cần Thơ","An Bình, Ninh Kiều",54/1 Lộ Vòng Cung,Cần Thơ,,"Ninh Kiều, Cần Thơ",VN,"9.995028999999999,105.738349"
59,ChIJSdzkdEWJoDERTVLmgpkZsiM,Công Ty TNHH VLXD Minh Trường,Cửa hàng vật liệu xây dựng,0918 366 611,"Công Ty TNHH VLXD Minh Trường, 104 Đường B30, Khu dân cư 91B, Ninh Kiều, Cần Thơ","Khu dân cư 91B, Ninh Kiều",104 Đường B30,Cần Thơ,,"Ninh Kiều, Cần Thơ",VN,"10.0213156,105.75364259999999"
60,ChIJI3h02zWIoDER9srYqS8fZtA,Công Ty Trách Nhiệm Hữu Hạn Sản Xuất Thương Mại Dịch Vụ Thành Đạt,Cửa hàng vật liệu xây dựng,0292 3835 454,"Công Ty Trách Nhiệm Hữu Hạn Sản Xuất Thương Mại Dịch Vụ Thành Đạt, 109, Đường 3 Tháng 2, Phường Hưng Lợi, Quận Ninh Kiều, Tp. Cần Thơ, Hưng Lợi, Ninh Kiều, Cần Thơ","Hưng Lợi, Ninh Kiều","109, Đường 3 Tháng 2, Phường Hưng Lợi, Quận Ninh Kiều, Tp. Cần Thơ",Cần Thơ,,"Ninh Kiều, Cần Thơ",VN,"10.0168407,105.760455"
61,ChIJoeb_JZ9ioDERDKNxB_x2Ghw,Cửa Hàng Vật Tư Công Nghiệp Hải Lâm,Cửa hàng vật liệu xây dựng,0292 3826 033,"Cửa Hàng Vật Tư Công Nghiệp Hải Lâm, Đường Ngô Đức Kế, Tân An, Ninh Kiều, Cần Thơ","Tân An, Ninh Kiều",Đường Ngô Đức Kế,Cần Thơ,,"Ninh Kiều, Cần Thơ",VN,"10.030002399999999,105.78715369999999"
62,ChIJ03YeGASIoDERj-NTKSSqYzE,Cửa Hàng Vật Liệu Xây Dựng Và Trang Trí Nội Thất Cao Phúc,Cửa hàng vật liệu xây dựng,0292 3896 465,"Cửa Hàng Vật Liệu Xây Dựng Và Trang Trí Nội Thất Cao Phúc, 36/48, Trần Việt Châu, Quận Ninh Kiều, TP Cần Thơ","Thới Bình, Ninh Kiều","36/48, Trần Việt Châu, Quận Ninh Kiều, TP Cần Thơ",Cần Thơ,,"Ninh Kiều, Cần Thơ",VN,"10.0485572,105.7748008"
63,ChIJ_eLFH_6HoDERJPsDvI-qMlk,Dntn Vlxd Minh Nhiên,Cửa hàng vật liệu xây dựng,0292 3769 495,"Dntn Vlxd Minh Nhiên, 8 Cồn Khương, Cái Khế, Ninh Kiều, Cần Thơ","Cái Khế, Ninh Kiều",8 Cồn Khương,Cần Thơ,,"Ninh Kiều, Cần Thơ",VN,"10.0545583,105.7774647"
64,ChIJueA4xwaIoDERfvMMGqHzuWA,Cửa Hàng Vật Liệu Xây Dựng Phong Hạnh,Cửa hàng vật liệu xây dựng,0292 3897 325,"Cửa Hàng Vật Liệu Xây Dựng Phong Hạnh, 104, Đường Đ. Cách Mạng Tháng 8, Cái Khế, Ninh Kiều, Cần Thơ","Cái Khế, Ninh Kiều","104, Đường Đ. Cách Mạng Tháng 8",Cần Thơ,,"Ninh Kiều, Cần Thơ",VN,"10.0505965,105.77522549999999"
65,ChIJVzeBpS-IoDER5W3gNLcm9vQ,Cửa Hàng Vật Liệu Xây Dựng Thanh Hương,Cửa hàng vật liệu xây dựng,0292 3840 915,"Cửa Hàng Vật Liệu Xây Dựng Thanh Hương, 251/48 Đ. Trần Ngọc Quế, Xuân Khánh, Ninh Kiều, Cần Thơ","Xuân Khánh, Ninh Kiều",251/48 Đ. Trần Ngọc Quế,Cần Thơ,,"Ninh Kiều, Cần Thơ",VN,"10.0212743,105.771171"
66,ChIJb3WUK0WIoDERHE9EqagU_L0,Cửa Hàng Vật Liệu Xây Dựng & Trang Trí Nội Thất Hùng Cẩm II,Cửa hàng vật liệu xây dựng,,"Cửa Hàng Vật Liệu Xây Dựng & Trang Trí Nội Thất Hùng Cẩm II, 28 Nguyễn Văn Cừ Nối Dài, An Bình, Ninh Kiều, Cần Thơ","An Bình, Ninh Kiều",28 Nguyễn Văn Cừ Nối Dài,Cần Thơ,,"Ninh Kiều, Cần Thơ",VN,"10.025896999999999,105.7469627"
67,ChIJ6wl1vjqIoDERVHRmWK616MQ,DNTN Vật Liệu Xây Dựng Định Nhân,Cửa hàng vật liệu xây dựng,0292 3840 867,"DNTN Vật Liệu Xây Dựng Định Nhân, 164/7, Đường Đ. Trần Ngọc Quế, Xuân Khánh, Ninh Kiều, Cần Thơ","Xuân Khánh, Ninh Kiều","164/7, Đường Đ. Trần Ngọc Quế",Cần Thơ,,"Ninh Kiều, Cần Thơ",VN,"10.0234344,105.7689643"
68,ChIJUUnD5kaIoDERmLmvUOo10RI,DNTN Vật liệu Xây Dựng Hồng Thắm,Cửa hàng vật liệu xây dựng,0977 448 038,"DNTN Vật liệu Xây Dựng Hồng Thắm, 120/91B, Quốc Lộ 91B, Quận Bình Thủy, Phường An Khánh, Ninh Kiều, Cần Thơ","Phường An Khánh, Ninh Kiều","120/91B, Quốc Lộ 91B, Quận Bình Thủy",Cần Thơ,,"Ninh Kiều, Cần Thơ",VN,"10.026927899999999,105.7552164"
74,ChIJf51c-yCIoDER1GscTjwujxE,Cửa Hàng Y- Nha Khoa Nguyễn Vui,Cửa hàng dụng cụ,0292 3813 841,"Cửa Hàng Y- Nha Khoa Nguyễn Vui, 154 Nguyễn Trãi, An Hội, Ninh Kiều, Cần Thơ","An Hội, Ninh Kiều",154 Nguyễn Trãi,Cần Thơ,,"Ninh Kiều, Cần Thơ",VN,"10.0446644,105.7809494"
75,ChIJLb8x2WJioDERYl66yM53peU,Nghia Thanh Construction Materials Store,Cửa hàng vật liệu xây dựng,,"Nghia Thanh Construction Materials Store, 585, Quang Trung Street, Hung Phu District, Cai Rang District, Hưng Phú, Cái Răng, Cần Thơ","Hưng Phú, Cái Răng","585, Quang Trung Street, Hung Phu District, Cai Rang District",Cần Thơ,,"Cái Răng, Cần Thơ",VN,"10.0079087,105.7948512"
97,ChIJwZ_KDrOJoDERZkt16pKrnu0,Cửa Hàng Vật Liệu Xây Dựng Thanh Phát,Cửa hàng vật liệu xây dựng,0292 3847 847,"Cửa Hàng Vật Liệu Xây Dựng Thanh Phát, 83/2, Quốc Lộ 1A, Phường An Bình, Quận Ninh Kiều, An Bình, Ninh Kiều, Cần Thơ","An Bình, Ninh Kiều","83/2, Quốc Lộ 1A, Phường An Bình, Quận Ninh Kiều",Cần Thơ,,"Ninh Kiều, Cần Thơ",VN,"10.0120274,105.7537165"
102,ChIJq6qqBw-IoDERXyvmrtJ09rk,Cửa Hàng VLXD Ngọc Vinh,Cửa hàng vật liệu xây dựng,0292 3896 117,"Cửa Hàng VLXD Ngọc Vinh, 175, Đường Nguyễn Văn Cừ, Phường An Hoà, Quận Ninh Kiều, Tp Cần Thơ, An Hoà, Ninh Kiều, Cần Thơ","An Hoà, Ninh Kiều","175, Đường Nguyễn Văn Cừ, Phường An Hoà, Quận Ninh Kiều, Tp Cần Thơ",Cần Thơ,,"Ninh Kiều, Cần Thơ",VN,"10.047019299999999,105.76794439999999"
110,ChIJgQXPnqKJoDER5B2HU7lcHyQ,Vựa gạch MINH CHÍ,Cửa hàng vật liệu xây dựng,0913 705 988,"Vựa gạch MINH CHÍ, 127/8c7 Đ. Võ Văn Kiệt, An Hoà, Ninh Kiều, Cần Thơ","An Hoà, Ninh Kiều",127/8c7 Đ. Võ Văn Kiệt,Cần Thơ,,"Ninh Kiều, Cần Thơ",VN,"10.044472899999999,105.75948559999999"
118,ChIJY95wrs2JoDER1hOlLgW6qbg,VLXD-TTNT HƯNG PHÚC THỊNH,Cửa hàng vật liệu xây dựng,0949 761 122,"VLXD-TTNT HƯNG PHÚC THỊNH, 407A Nguyễn Văn Cừ Nối Dài, An Bình, Ninh Kiều, Cần Thơ","An Bình, Ninh Kiều",407A Nguyễn Văn Cừ Nối Dài,Cần Thơ,,"Ninh Kiều, Cần Thơ",VN,"10.0208338,105.74235759999999"
120,ChIJ4ZH5U8eJoDERromrZ06Jj4o,Vật Liệu Xây Dựng Hai Tràm,Cửa hàng vật liệu xây dựng,,"XQW5+FH9 Vật Liệu Xây Dựng Hai Tràm, Cầu, Ấp Mỹ, Cái Răng, Cần Thơ","Ấp Mỹ, Cái Răng","XQW5+FH9, Cầu",Cần Thơ,,"Cái Răng, Cần Thơ",VN,"9.9961548,105.7589606"
121,ChIJxXbNC66JoDEREx4tg8kYFMg,Công Ty TNHH Vật Liệu Xây Dựng Thanh Giang,Cửa hàng vật liệu xây dựng,0911 633 187,"Công Ty TNHH Vật Liệu Xây Dựng Thanh Giang, 247L, Đường Hoàng Quốc Việt, Phường An Bình, Quận Ninh Kiều, An Bình, Ninh Kiều, Cần Thơ","An Bình, Ninh Kiều","247L, Đường Hoàng Quốc Việt, Phường An Bình, Quận Ninh Kiều",Cần Thơ,,"Ninh Kiều, Cần Thơ",VN,"10.0068428,105.745886"
122,ChIJKcgGhTWIoDERRLYp4ngJJag,Cửa Hàng Vật Liệu Xây Dựng Đại Sơn,Cửa hàng vật liệu xây dựng,0292 6250 278,"Cửa Hàng Vật Liệu Xây Dựng Đại Sơn, 67A, Đường 3/2, Quận Ninh Kiều, Tp Cần Thơ, Hưng Lợi, Ninh Kiều, Cần Thơ","Hưng Lợi, Ninh Kiều","67A, Đường 3/2, Quận Ninh Kiều, Tp Cần Thơ",Cần Thơ,,"Ninh Kiều, Cần Thơ",VN,"10.0152814,105.759135"
124,ChIJodsoVLmJoDERl0kc1eUcx6o,Cửa Hàng Vật Liệu Xây Dựng Thanh Thủy,Cửa hàng vật liệu xây dựng,0292 3849 984,"Cửa Hàng Vật Liệu Xây Dựng Thanh Thủy, 195, Đường Trần Hưng Đạo, Quận Cái Răng, Lê Bình, Cái Răng, Cần Thơ","Lê Bình, Cái Răng","195, Đường Trần Hưng Đạo, Quận Cái Răng",Cần Thơ,,"Cái Răng, Cần Thơ",VN,"9.9964364,105.7529345"
126,ChIJXRUDco-JoDERUhL8GeEUavc,Cửa hàng vật liệu xây dựng số 1,Cửa hàng vật liệu xây dựng,0939 157 156,"XPMC+WF9 Cửa hàng vật liệu xây dựng số 1, Nhơn Nghĩa, Phong Điền, Cần Thơ","Nhơn Nghĩa, Phong Điền",XPMC+WF9,Cần Thơ,,"Phong Điền, Cần Thơ",VN,"9.9847875,105.7212344"
129,ChIJaxaP35eJoDERAxvXv6Lq9Iw,Công Ty Tnhh Mtv Vật Liệu Xây Dựng Hoa Sen,Cửa hàng vật liệu xây dựng,0292 3527 269,"Công Ty Tnhh Mtv Vật Liệu Xây Dựng Hoa Sen, 202 QL1A, Ba Láng, Cái Răng, Cần Thơ","Ba Láng, Cái Răng",202 QL1A,Cần Thơ,,"Cái Răng, Cần Thơ",VN,"9.990862,105.7485238"
130,ChIJo2XQUiaJoDERqVHjM2vSsFQ,Vật liệu xây dựng DƯƠNG VƯƠNG,Cửa hàng vật liệu xây dựng,0292 2224 579,"Vật liệu xây dựng DƯƠNG VƯƠNG, Cầu Cái Sơn, Hàng Bàng, An Bình, Ninh Kiều, Cần Thơ","An Bình, Ninh Kiều","Cầu Cái Sơn, Hàng Bàng",Cần Thơ,,"Ninh Kiều, Cần Thơ",VN,"10.0183842,105.74267329999999"
141,ChIJWTlXpj6JoDERhz4-LVoElKs,Vật Liệu Xây Dựng 7 Lành,Cửa hàng vật liệu xây dựng,,"XQP3+757 Vật Liệu Xây Dựng 7 Lành, Hàng Gòn, Thường Thạnh, Cái Răng, Cần Thơ","Thường Thạnh, Cái Răng","XQP3+757, Hàng Gòn",Cần Thơ,,"Cái Răng, Cần Thơ",VN,"9.985651299999999,105.75293219999999"
161,ChIJgbM50FKIoDERKCgjcAtn0cU,Công Ty TNHH Phân Phối Xi Măng Tây Đô Đại Việt,Cửa hàng vật liệu xây dựng,0292 3844 993,"Công Ty TNHH Phân Phối Xi Măng Tây Đô Đại Việt, 247/8, Đường Cái Sơn Hàng Bàng, Quận Cái Răng, An Bình, Ninh Kiều, Cần Thơ","An Bình, Ninh Kiều","247/8, Đường Cái Sơn Hàng Bàng, Quận Cái Răng",Cần Thơ,,"Ninh Kiều, Cần Thơ",VN,"10.013544399999999,105.7440292"
167,ChIJ0aHdmkiIoDERTAijPpTiyJk,Công Ty Trách Nhiệm Hữu Hạn Một Thành Viên Đình Luật,Cửa hàng vật liệu xây dựng,0907 780 331,"Công Ty Trách Nhiệm Hữu Hạn Một Thành Viên Đình Luật, 43A1, Khu Dân Cư 91B, Phường An Khánh, Quận Ninh Kiều, Thành Phố Cần Thơ, Hưng Lợi, Ninh Kiều, Cần Thơ","Hưng Lợi, Ninh Kiều","43A1, Khu Dân Cư 91B, Phường An Khánh, Quận Ninh Kiều, Thành Phố Cần Thơ",Cần Thơ,,"Ninh Kiều, Cần Thơ",VN,"10.022587399999999,105.75480519999999"
185,ChIJ1zpYrMyJoDERNG4was32Tec,Tiệm Thu Mua Phế Liệu Trường Thọ,Cửa hàng vật liệu xây dựng,0908 659 574,"Tiệm Thu Mua Phế Liệu Trường Thọ, 151/40C Đ. Trần Hoàng Na, Hưng Lợi, Ninh Kiều, Cần Thơ","Hưng Lợi, Ninh Kiều",151/40C Đ. Trần Hoàng Na,Cần Thơ,,"Ninh Kiều, Cần Thơ",VN,"10.0116391,105.7650177"
187,ChIJQa7bni2IoDERBLv96yP3tgo,Vlxd Thanh Trúc,Cửa hàng vật liệu xây dựng,,"Vlxd Thanh Trúc, 57-59 Tầm Vu, Hưng Lợi, Ninh Kiều, Cần Thơ","Hưng Lợi, Ninh Kiều",57-59 Tầm Vu,Cần Thơ,,"Ninh Kiều, Cần Thơ",VN,"10.0144408,105.7715807"
188,ChIJ-eCnlDSIoDERgUVhjLe1_HA,Công Ty TNHH TM Dịch Vụ Chống Thấm Tây Đô,Cửa hàng vật liệu xây dựng,0979 888 842,"Công Ty TNHH TM Dịch Vụ Chống Thấm Tây Đô, 5 Đ. Trần Hoàng Na, Hưng Lợi, Ninh Kiều, Cần Thơ","Hưng Lợi, Ninh Kiều",5 Đ. Trần Hoàng Na,Cần Thơ,,"Ninh Kiều, Cần Thơ",VN,"10.013518099999999,105.7630027"
196,ChIJkYMS0TWIoDER8gNnv2JvDtM,Cửa Hàng Đá Hoa Cương Phú Tài,Cửa hàng vật liệu xây dựng,0292 3739 598,"Cửa Hàng Đá Hoa Cương Phú Tài, 107 Đ. 3 Tháng 2, Hưng Lợi, Ninh Kiều, Cần Thơ","Hưng Lợi, Ninh Kiều",107 Đ. 3 Tháng 2,Cần Thơ,,"Ninh Kiều, Cần Thơ",VN,"10.0168132,105.76105779999999"
216,ChIJO8CRiJ9ioDERKfkLqSz_gLY,Cửa Hàng Nhôm Kim Hằng,Cửa hàng vật liệu xây dựng,0292 3817 540,"Cửa Hàng Nhôm Kim Hằng, 83 Đ. Nam Kỳ Khởi Nghĩa, Tân An, Ninh Kiều, Cần Thơ","Tân An, Ninh Kiều",83 Đ. Nam Kỳ Khởi Nghĩa,Cần Thơ,,"Ninh Kiều, Cần Thơ",VN,"10.0321246,105.783665"
218,ChIJ91fNiaFioDERBdy72B_sgms,Cửa Hàng Máy Nước Nóng,Cửa hàng vật liệu xây dựng,0903 611 822,"Cửa Hàng Máy Nước Nóng, 27B Đ. Lý Thường Kiệt, Tân An, Ninh Kiều, Cần Thơ","Tân An, Ninh Kiều",27B Đ. Lý Thường Kiệt,Cần Thơ,,"Ninh Kiều, Cần Thơ",VN,"10.034299899999999,105.7879033"
221,ChIJTdupRAOIoDERGBef3H-49R8,Doanh Nghiệp Tn Vật Liệu Xây Dựng Minh Long 2,Cửa hàng vật liệu xây dựng,,"Doanh Nghiệp Tn Vật Liệu Xây Dựng Minh Long 2, 90/2/25A Hùng Vương, Thới Bình, Ninh Kiều, Cần Thơ","Thới Bình, Ninh Kiều",90/2/25A Hùng Vương,Cần Thơ,,"Ninh Kiều, Cần Thơ",VN,"10.0454948,105.7794857"
222,ChIJI4pyXkGIoDERaNrIDhS1ymY,Vật Liệu Xây Dựng Huệ Lộc,Cửa hàng vật liệu xây dựng,,"Vật Liệu Xây Dựng Huệ Lộc, An Khánh, Ninh Kiều, Cần Thơ","An Khánh, Ninh Kiều",,Cần Thơ,,"Ninh Kiều, Cần Thơ",VN,"10.0298609,105.7530474"
223,ChIJq6qqBw-IoDERBjf0cRQqikE,Công Ty TNHH Vật Liệu Xây Dựng Trang Trí Nội Thất Mai Hoa 2,Cửa hàng vật liệu xây dựng,0292 6291 559,"Công Ty TNHH Vật Liệu Xây Dựng Trang Trí Nội Thất Mai Hoa 2, 163C/7, Đường Nguyễn Văn Cừ, Q. Ninh Kiều, Tp Cần Thơ, An Hoà, Ninh Kiều, Cần Thơ","An Hoà, Ninh Kiều","163C/7, Đường Nguyễn Văn Cừ, Q. Ninh Kiều, Tp Cần Thơ",Cần Thơ,,"Ninh Kiều, Cần Thơ",VN,"10.047019299999999,105.76794439999999"
224,ChIJq6qqBw-IoDERZqD8092zxVg,Cửa Hàng Vật Liệu Xây Dựng Anh Tài,Cửa hàng vật liệu xây dựng,0903 516 078,"Cửa Hàng Vật Liệu Xây Dựng Anh Tài, 365/14, Đường Nguyễn Văn Cừ, Quận Ninh Kiều, Tp Cần Thơ, An Hoà, Ninh Kiều, Cần Thơ","An Hoà, Ninh Kiều","365/14, Đường Nguyễn Văn Cừ, Quận Ninh Kiều, Tp Cần Thơ",Cần Thơ,,"Ninh Kiều, Cần Thơ",VN,"10.047019299999999,105.76794439999999"
225,ChIJX4P-Wv-HoDERT3suzxMRvT8,Cửa Hàng Đá Hoa Cương Thành Hải,Cửa hàng vật liệu xây dựng,0939 943 835,"Cửa Hàng Đá Hoa Cương Thành Hải, 295, Nguyễn Văn Cừ, Cồn Khương, Phường Cái Khế, Quận Ninh Kiều, Thành Phố Cần Thơ, Cái Khế, Ninh Kiều, Cần Thơ","Cái Khế, Ninh Kiều","295, Nguyễn Văn Cừ, Cồn Khương, Phường Cái Khế, Quận Ninh Kiều, Thành Phố Cần Thơ",Cần Thơ,,"Ninh Kiều, Cần Thơ",VN,"10.0580006,105.7804828"
226,ChIJq6qqBw-IoDERIdcRtWuSS0Q,Cơ Sở Vật Liệu Xây Dựng Như Ý,Cửa hàng vật liệu xây dựng,0292 3891 291,"Cơ Sở Vật Liệu Xây Dựng Như Ý, 635, Đường Nguyễn Văn Cừ, Quận Ninh Kiều, Tp Cần Thơ, An Hoà, Ninh Kiều, Cần Thơ","An Hoà, Ninh Kiều","635, Đường Nguyễn Văn Cừ, Quận Ninh Kiều, Tp Cần Thơ",Cần Thơ,,"Ninh Kiều, Cần Thơ",VN,"10.047019299999999,105.76794439999999"
227,ChIJ77mBLeiJoDER3f821HscMTU,Vật Liệu Xây Dựng Vũ Hưng,Cửa hàng vật liệu xây dựng,0939 767 950,"Vật Liệu Xây Dựng Vũ Hưng, 15 Đường Yết Kiêu, An Nghiệp, Ninh Kiều, Cần Thơ","An Nghiệp, Ninh Kiều",15 Đường Yết Kiêu,Cần Thơ,,"Ninh Kiều, Cần Thơ",VN,"10.0416133,105.7729473"
228,ChIJSQD0nRSIoDERfEeLkHRd5Ws,Dntn Vật Liệu Xây Dựng Thanh Lộc,Cửa hàng vật liệu xây dựng,0915 222 429,"Dntn Vật Liệu Xây Dựng Thanh Lộc, 136 Đ. Nguyễn Văn Cừ, Phường An Khánh, Ninh Kiều, Cần Thơ","Phường An Khánh, Ninh Kiều",136 Đ. Nguyễn Văn Cừ,Cần Thơ,,"Ninh Kiều, Cần Thơ",VN,"10.0394291,105.76117959999999"
229,ChIJT33gpySIoDERrPdaXWaqjGA,Cửa Hàng Vật Liệu Xây Dựng Mạnh Hà,Cửa hàng vật liệu xây dựng,0292 6251 764,"Cửa Hàng Vật Liệu Xây Dựng Mạnh Hà, 120A, Đường 3/2, Quận Ninh Kiều, Tp Cần Thơ, Xuân Khánh, Ninh Kiều, Cần Thơ","Xuân Khánh, Ninh Kiều","120A, Đường 3/2, Quận Ninh Kiều, Tp Cần Thơ",Cần Thơ,,"Ninh Kiều, Cần Thơ",VN,"10.0276021,105.7710949"
230,ChIJnV2Kop9ioDERcIBzPzUVpUc,Tiệm Hàn Vật Liệu Xây Dựng Sáu Nghệ,Cửa hàng vật liệu xây dựng,0292 3825 156,"Tiệm Hàn Vật Liệu Xây Dựng Sáu Nghệ, 103 Đường Nguyễn An Ninh, Tân An, Ninh Kiều, Cần Thơ","Tân An, Ninh Kiều",103 Đường Nguyễn An Ninh,Cần Thơ,,"Ninh Kiều, Cần Thơ",VN,"10.0310519,105.7845035"
231,ChIJ0wssDTiIoDERfR5Kq3n0b2w,Cửa Hàng Vật Liệu Xây Dựng Văn Hiếu,Cửa hàng vật liệu xây dựng,0292 2211 073,"Cửa Hàng Vật Liệu Xây Dựng Văn Hiếu, 91B, Đường Quốc Lộ 91B, Quận Ninh Kiều, TP.Cần Thơ, Hưng Lợi, Ninh Kiều, Cần Thơ","Hưng Lợi, Ninh Kiều","91B, Đường Quốc Lộ 91B, Quận Ninh Kiều, TP.Cần Thơ",Cần Thơ,,"Ninh Kiều, Cần Thơ",VN,"10.0242233,105.75916459999999"
232,ChIJh7CHWMKHoDERJWMDebwgHyQ,Công Ty Tnhh Vật Liệu Xây Dựng Đại Xuân,Cửa hàng vật liệu xây dựng,,"Công Ty Tnhh Vật Liệu Xây Dựng Đại Xuân, 512 Đ. Cách Mạng Tháng 8, Bùi Hữu Nghĩa, Bình Thủy, Cần Thơ 94207","Bùi Hữu Nghĩa, Bình Thủy",512 Đ. Cách Mạng Tháng 8,Cần Thơ,94207.0,"Bình Thủy, Cần Thơ",VN,"10.069135099999999,105.75656239999999"
233,ChIJfd9Rxy2IoDERH0CbKTi5N2I,Vật Liệu Xây Dựng Phan Thông,Cửa hàng vật liệu xây dựng,,"Vật Liệu Xây Dựng Phan Thông, 105 Tầm Vu, Hưng Lợi, Ninh Kiều, Cần Thơ","Hưng Lợi, Ninh Kiều",105 Tầm Vu,Cần Thơ,,"Ninh Kiều, Cần Thơ",VN,"10.0155241,105.7721924"
234,ChIJkwEMNyCIoDERReH1LA9Vkc4,Cửa Hàng Vật Liệu Cách Nhiệt Miền Tây,Cửa hàng vật liệu xây dựng,0292 3822 956,"Cửa Hàng Vật Liệu Cách Nhiệt Miền Tây, 12 Đ. Nguyễn Việt Hồng, An Lạc, Ninh Kiều, Cần Thơ","An Lạc, Ninh Kiều",12 Đ. Nguyễn Việt Hồng,Cần Thơ,,"Ninh Kiều, Cần Thơ",VN,"10.0315858,105.77962819999999"
235,ChIJiwlN--aqUAURrsWtkKxaYVA,Của Hàng Vật Liệu Xây Dựng Việt Nha,Cửa hàng vật liệu xây dựng,0918 826 063,,,,,,,,"10.123033,105.53220449999999"
236,ChIJbeneAjuIoDER2UcBQnwCVLs,Cửa Hàng Vật Liệu Xây Dựng & Trang Trí Nội Thất Hùng Cẩm,Cửa hàng vật liệu xây dựng,0292 3835 051,"Cửa Hàng Vật Liệu Xây Dựng & Trang Trí Nội Thất Hùng Cẩm, 43 Đ. 3 Tháng 2, Xuân Khánh, Ninh Kiều, Cần Thơ","Xuân Khánh, Ninh Kiều",43 Đ. 3 Tháng 2,Cần Thơ,,"Ninh Kiều, Cần Thơ",VN,"10.0253973,105.7679651"
237,ChIJcUuP2zmIoDER_I06oji-Tg4,Cửa Hàng Vật Liệu Xây Dựng Huy Hoàng,Cửa hàng vật liệu xây dựng,7106297179,"Cửa Hàng Vật Liệu Xây Dựng Huy Hoàng, 7, QL91B, Hưng Lợi, Bình Thủy, Cần Thơ","Hưng Lợi, Bình Thủy","7, QL91B",Cần Thơ,,"Bình Thủy, Cần Thơ",VN,"10.023180799999999,105.7626021"
238,ChIJMyU2uGeIoDERKalOwwywOoE,Công Ty Vật Liệu Xây Dựng Tây Nam,Cửa hàng vật liệu xây dựng,0292 3897 668,"Công Ty Vật Liệu Xây Dựng Tây Nam, 290, Quốc Lộ 91B, Quận Bình Thủy, Tp Cần Thơ","Phường An Khánh, Ninh Kiều","290, Quốc Lộ 91B, Quận Bình Thủy, Tp Cần Thơ",Cần Thơ,,"Ninh Kiều, Cần Thơ",VN,"10.0367236,105.74429049999999"
239,ChIJSyQ6tkqIoDERUHrReuzFQFQ,DNTN Vật Liệu Xây Dựng Công Lập,Cửa hàng vật liệu xây dựng,0292 3846 057,"DNTN Vật Liệu Xây Dựng Công Lập, 307, Quốc Lộ 1A, Quận Cái Răng, Hưng Lợi, Ninh Kiều, Cần Thơ","Hưng Lợi, Ninh Kiều","307, Quốc Lộ 1A, Quận Cái Răng",Cần Thơ,,"Ninh Kiều, Cần Thơ",VN,"10.0120451,105.7568479"
240,ChIJC58q20OIoDERhFgxVI20NiI,Công Ty Cổ Phần Vật Liệu Cửa Nhôm Cần Thơ,Cửa hàng vật liệu xây dựng,,"Công Ty Cổ Phần Vật Liệu Cửa Nhôm Cần Thơ, 62/9 Đ. Nguyễn Văn Cừ, Phường An Khánh, Ninh Kiều, Cần Thơ","Phường An Khánh, Ninh Kiều",62/9 Đ. Nguyễn Văn Cừ,Cần Thơ,,"Ninh Kiều, Cần Thơ",VN,"10.031387299999999,105.7524717"
244,ChIJ8yZyFSeIoDER2GmtcFuHesI,Cửa Hàng Vật Liệu Xây Dựng Nguyễn Khánh,Cửa hàng vật liệu xây dựng,,"Cửa Hàng Vật Liệu Xây Dựng Nguyễn Khánh, Xuân Khánh, Ninh Kiều, Cần Thơ","Xuân Khánh, Ninh Kiều",,Cần Thơ,,"Ninh Kiều, Cần Thơ",VN,"10.025888799999999,105.7804123"
252,ChIJDQxtfTCIoDER8JOEDAPR51U,Cửa Hàng Vật Liệu Xây Dựng Hùng Dũng,Cửa hàng vật liệu xây dựng,0292 3781 672,"Cửa Hàng Vật Liệu Xây Dựng Hùng Dũng, 12/40, Ba Tháng Hai, Phường Hưng Lợi, Quận Ninh Kiều, Thành Phố Cần Thơ, Hưng Lợi, Ninh Kiều, Cần Thơ","Hưng Lợi, Ninh Kiều","12/40, Ba Tháng Hai, Phường Hưng Lợi, Quận Ninh Kiều, Thành Phố Cần Thơ",Cần Thơ,,"Ninh Kiều, Cần Thơ",VN,"10.0219569,105.76754199999999"
255,ChIJ25BeyUqIoDERu6-C_mxlfL8,Cơ Sở Sản Xuất Vật Liệu Chí Thành,Cửa hàng vật liệu xây dựng,0292 3838 390,"Cơ Sở Sản Xuất Vật Liệu Chí Thành, 4, Đường 30/4, Quận Ninh Kiều, TP Cần Thơ, Hưng Lợi, Ninh Kiều, Cần Thơ","Hưng Lợi, Ninh Kiều","4, Đường 30/4, Quận Ninh Kiều, TP Cần Thơ",Cần Thơ,,"Ninh Kiều, Cần Thơ",VN,"10.012500099999999,105.7568469"
256,ChIJ43zObzSIoDER6sv4I_towEM,Cửa Hàng Vật Liệu Xây Dựng - Trang Trí Nội Thất Hải Phụng,Cửa hàng vật liệu xây dựng,0292 3738 347,"Cửa Hàng Vật Liệu Xây Dựng - Trang Trí Nội Thất Hải Phụng, 209, 30/04, Quận Ninh Kiều, TP. Cần Thơ, Hưng Lợi, Ninh Kiều, Cần Thơ","Hưng Lợi, Ninh Kiều","209, 30/04, Quận Ninh Kiều, TP. Cần Thơ",Cần Thơ,,"Ninh Kiều, Cần Thơ",VN,"10.0152828,105.7637254"
259,ChIJFaJCFTeIoDERKPeFy-AEhAA,DNTN Vật Liệu Xây Dựng Thành Hưng,Cửa hàng vật liệu xây dựng,0292 3994 559,"DNTN Vật Liệu Xây Dựng Thành Hưng, 13/6, Quốc Lộ 91B, Quận Bình Thủy, Hưng Lợi, Ninh Kiều, Cần Thơ","Hưng Lợi, Ninh Kiều","13/6, Quốc Lộ 91B, Quận Bình Thủy",Cần Thơ,,"Ninh Kiều, Cần Thơ",VN,"10.0213071,105.76298279999999"
263,ChIJ1VHNr2NioDERGUasj47pDSQ,Cửa Hàng Vật Liệu Xây Dựng Trường Phát Mêkong,Cửa hàng vật liệu xây dựng,0918 839 946,"Cửa Hàng Vật Liệu Xây Dựng Trường Phát Mêkong, Đường Võ Nguyên Giáp, Khu Vực Thạnh Lợi, P, Cái Răng, Cần Thơ","Khu Vực Thạnh Lợi, P, Cái Răng",Đường Võ Nguyên Giáp,Cần Thơ,,"Cái Răng, Cần Thơ",VN,"10.006685,105.79737519999999"
264,ChIJecLv6UqIoDERKYeNow6EJxU,Cửa Hàng Vật Liệu Xây Dựng Phát Đạt,Cửa hàng vật liệu xây dựng,0292 3508 202,"Cửa Hàng Vật Liệu Xây Dựng Phát Đạt, 36C, Đường 3/2, Quận Ninh Kiều, TP Cần Thơ, Hưng Lợi, Ninh Kiều, Cần Thơ","Hưng Lợi, Ninh Kiều","36C, Đường 3/2, Quận Ninh Kiều, TP Cần Thơ",Cần Thơ,,"Ninh Kiều, Cần Thơ",VN,"10.013755399999999,105.7582798"
265,ChIJyzXGN8qJoDEREF7ssnGYZnQ,Cửa Hàng Vật Liệu Xây Dựng Nguyễn Ngân,Cửa hàng vật liệu xây dựng,0292 3838 259,"Cửa Hàng Vật Liệu Xây Dựng Nguyễn Ngân, 19, Đường Tầm Vu, Quận Ninh Kiều, Tp Cần Thơ, Hưng Lợi, Ninh Kiều, Cần Thơ","Hưng Lợi, Ninh Kiều","19, Đường Tầm Vu, Quận Ninh Kiều, Tp Cần Thơ",Cần Thơ,,"Ninh Kiều, Cần Thơ",VN,"10.0078602,105.76095269999999"
267,ChIJeeDpK0WIoDERr7rc9nEfyQg,Công Ty Tnhh 1 Thành Viên Vật Liệu Xây Dựng Khánh Ninh,Cửa hàng vật liệu xây dựng,,"Công Ty Tnhh 1 Thành Viên Vật Liệu Xây Dựng Khánh Ninh, 40 Nguyễn Văn Cừ Nối Dài, An Bình, Ninh Kiều, Cần Thơ","An Bình, Ninh Kiều",40 Nguyễn Văn Cừ Nối Dài,Cần Thơ,,"Ninh Kiều, Cần Thơ",VN,"10.0263403,105.74736399999999"
268,ChIJnVP6AoWIoDERYWeHdjbqSRo,Công Ty Tnhh Vật Liệu Xây Dựng Andy,Cửa hàng vật liệu xây dựng,,"Công Ty Tnhh Vật Liệu Xây Dựng Andy, 1 Đ. Nguyễn Văn Linh, Khu dân cư 91B, Ninh Kiều, Cần Thơ","Khu dân cư 91B, Ninh Kiều",1 Đ. Nguyễn Văn Linh,Cần Thơ,,"Ninh Kiều, Cần Thơ",VN,"10.021600699999999,105.7642733"
269,ChIJszA9CQ9joDER6oZhb6MNfKU,Vật,Cửa hàng vật liệu xây dựng,,"Vật, 180 Trần Phú, Cái Khế, Ninh Kiều, Cần Thơ","Cái Khế, Ninh Kiều",180 Trần Phú,Cần Thơ,,"Ninh Kiều, Cần Thơ",VN,"10.049429,105.78546"
271,ChIJR36FWahioDERX7Q6qabDlGM,Công Ty TNHH Hai Thành Viên Dầu Khí Lê Hoàng,Cửa hàng vật liệu xây dựng,0292 3655 788,"Công Ty TNHH Hai Thành Viên Dầu Khí Lê Hoàng, 171, Trần Văn Khéo, Phường Cái Khế, Quận Ninh Kiều, Thành Phố Cần Thơ, Cái Khế, Ninh Kiều, Cần Thơ","Cái Khế, Ninh Kiều","171, Trần Văn Khéo, Phường Cái Khế, Quận Ninh Kiều, Thành Phố Cần Thơ",Cần Thơ,,"Ninh Kiều, Cần Thơ",VN,"10.0452333,105.78467069999999"
346,ChIJ44QKcByIoDERoqogkKcDmgQ,Công Ty TNHH Kiến Trúc Quy Hoạch Xây Dựng Eke,Cửa hàng vật liệu xây dựng,0908 399 666,"Công Ty TNHH Kiến Trúc Quy Hoạch Xây Dựng Eke, 17 Đ. Huỳnh Thúc Kháng, An Cư, Ninh Kiều, Cần Thơ","An Cư, Ninh Kiều",17 Đ. Huỳnh Thúc Kháng,Cần Thơ,,"Ninh Kiều, Cần Thơ",VN,"10.0402728,105.77685009999999"
350,ChIJg2KEzlOIoDERbbyYbZILHnU,Dntn Vật Liệu Xây Dựng Diệu Linh,Cửa hàng vật liệu xây dựng,0292 6518 791,"Dntn Vật Liệu Xây Dựng Diệu Linh, 313 Cái Sơn Hàng Bàng, An Bình, Ninh Kiều, Cần Thơ","An Bình, Ninh Kiều",313 Cái Sơn Hàng Bàng,Cần Thơ,,"Ninh Kiều, Cần Thơ",VN,"10.0173019,105.7434821"
358,ChIJldoVPU-IoDERMRnPcokwywc,Công Ty Tnhh Vật Liệu Xây Dựng Nội Thất Ngôi Sao,Cửa hàng vật liệu xây dựng,,"Công Ty Tnhh Vật Liệu Xây Dựng Nội Thất Ngôi Sao, An Bình, Ninh Kiều, Cần Thơ","An Bình, Ninh Kiều",,Cần Thơ,,"Ninh Kiều, Cần Thơ",VN,"10.0213226,105.7513671"
360,ChIJydqk7qSJoDERooDluJa-0Lc,Doanh Nghiệp Tư Nhân Vật Liệu Xây Dựng Yến Thanh,Cửa hàng vật liệu xây dựng,0292 3847 349,"Doanh Nghiệp Tư Nhân Vật Liệu Xây Dựng Yến Thanh, 26/2E, Đường Võ Tánh, Quận Cái Răng, Lê Bình, Cái Răng, Cần Thơ","Lê Bình, Cái Răng","26/2E, Đường Võ Tánh, Quận Cái Răng",Cần Thơ,,"Cái Răng, Cần Thơ",VN,"9.999457399999999,105.744422"
366,ChIJq6qqBw-IoDERWCwwxEgM8zU,Công Ty DNTN VLXD Nhựt Triều,Cửa hàng vật liệu xây dựng,0292 3896 516,"Công Ty DNTN VLXD Nhựt Triều, 117/15, Đường Nguyễn Văn Cừ, Phường An Hoà, Quận Ninh Kiều, Tp Cần Thơ, An Hoà, Ninh Kiều, Cần Thơ","An Hoà, Ninh Kiều","117/15, Đường Nguyễn Văn Cừ, Phường An Hoà, Quận Ninh Kiều, Tp Cần Thơ",Cần Thơ,,"Ninh Kiều, Cần Thơ",VN,"10.047019299999999,105.76794439999999"
380,ChIJq6qqBw-IoDERgy8qpWNNB8U,Cơ Sở Cửa Nhôm - Sắt - Inox Cường Phát,Cửa hàng vật liệu xây dựng,0292 3738 746,"Cơ Sở Cửa Nhôm - Sắt - Inox Cường Phát, 69/54, 30/04, Quận Ninh Kiều, Tp Cần Thơ, An Hoà, Ninh Kiều, Cần Thơ","An Hoà, Ninh Kiều","69/54, 30/04, Quận Ninh Kiều, Tp Cần Thơ",Cần Thơ,,"Ninh Kiều, Cần Thơ",VN,"10.047019299999999,105.76794439999999"
382,ChIJMzt252aIoDERraeBACIC-kA,DNTN Vật Liệu Xây Dựng Hùng Bảo,Cửa hàng vật liệu xây dựng,0292 6292 945,"DNTN Vật Liệu Xây Dựng Hùng Bảo, 285/91, QuốcT Lộ 91B, Quận Bình Thủy, Tp Cần Thơ, Phường An Khánh, Ninh Kiều, Cần Thơ","Phường An Khánh, Ninh Kiều","285/91, QuốcT Lộ 91B, Quận Bình Thủy, Tp Cần Thơ",Cần Thơ,,"Ninh Kiều, Cần Thơ",VN,"10.037746199999999,105.74251339999999"
383,ChIJlWGpVWaIoDERZuH4TWPLgys,Cửa Hàng Vật Liệu Xây Dựng Đức Tuấn,Cửa hàng vật liệu xây dựng,0292 3798 989,"Cửa Hàng Vật Liệu Xây Dựng Đức Tuấn, 280 QL91B, Phường An Khánh, Bình Thủy, Cần Thơ","Phường An Khánh, Bình Thủy",280 QL91B,Cần Thơ,,"Bình Thủy, Cần Thơ",VN,"10.036631,105.7445377"
384,ChIJt3x8tROIoDERZfLc3zYNq2s,Cửa Hàng Vlxd - Trang Trí Nội Thất Hùng Cẩm 1,Cửa hàng vật liệu xây dựng,0292 3895 638,"Cửa Hàng Vlxd - Trang Trí Nội Thất Hùng Cẩm 1, 89 Đ. Nguyễn Văn Cừ, Phường An Khánh, Ninh Kiều, Cần Thơ","Phường An Khánh, Ninh Kiều",89 Đ. Nguyễn Văn Cừ,Cần Thơ,,"Ninh Kiều, Cần Thơ",VN,"10.0415619,105.76291479999999"
393,ChIJQ1PMrw-IoDERzr_iaR4GSQg,Công Ty TNHH Thương Mại Dịch Vụ Huỳnh Phương Bình 7879,Cửa hàng vật liệu xây dựng,0915 178 087,"2QW9+F5P Công Ty TNHH Thương Mại Dịch Vụ Huỳnh Phương Bình 7879, Đ. Nguyễn Văn Cừ, An Hoà, Bình Thủy, Cần Thơ","An Hoà, Bình Thủy","2QW9+F5P, Đ. Nguyễn Văn Cừ",Cần Thơ,,"Bình Thủy, Cần Thơ",VN,"10.046225,105.7679575"
397,ChIJu4kR7JGIoDERbKHmnnokxjk,Công Ty TNHH Vật Liệu Xây Dựng Trang Trí Nội Thất Nam Gia Hưng,Cửa hàng vật liệu xây dựng,0949 203 135,"Công Ty TNHH Vật Liệu Xây Dựng Trang Trí Nội Thất Nam Gia Hưng, 1168 Đ. Bùi Hữu Nghĩa, Long Tuyền, Bình Thủy, Cần Thơ","Long Tuyền, Bình Thủy",1168 Đ. Bùi Hữu Nghĩa,Cần Thơ,,"Bình Thủy, Cần Thơ",VN,"10.041983,105.72219369999999"
413,ChIJPUanMmuIoDERVGnxREWsv_8,Cửa Hàng Vlxd Nam Thành,Cửa hàng vật liệu xây dựng,0292 2470 847,"Cửa Hàng Vlxd Nam Thành, 163 Đ. Nguyễn Văn Cừ, Phường An Khánh, Ninh Kiều, Cần Thơ","Phường An Khánh, Ninh Kiều",163 Đ. Nguyễn Văn Cừ,Cần Thơ,,"Ninh Kiều, Cần Thơ",VN,"10.0371054,105.7583623"
423,ChIJmYo_2D-IoDER58Slczo88_w,Thu Mua Phế Liệu Trung,Cửa hàng vật liệu xây dựng,0939 111 030,"2QM6+F64 Thu Mua Phế Liệu Trung, Nguyễn Văn Cừ Nối Dài, Phường An Khánh, Ninh Kiều, Cần Thơ","Phường An Khánh, Ninh Kiều","2QM6+F64, Nguyễn Văn Cừ Nối Dài",Cần Thơ,,"Ninh Kiều, Cần Thơ",VN,"10.0336429,105.7605655"
427,ChIJFW9aGeWIoDERLj3W88ts3-0,Cửa Hàng Vật Liệu Xây Dựng Linh Phương,Cửa hàng vật liệu xây dựng,,"Cửa Hàng Vật Liệu Xây Dựng Linh Phương, Long Tuyền, Bình Thủy, Cần Thơ","Long Tuyền, Bình Thủy",,Cần Thơ,,"Bình Thủy, Cần Thơ",VN,"10.0223759,105.72157879999999"
437,ChIJ6ap_SBaJoDER-l4j9J5u8J8,CTTNHHTM LÊ MINH THƯ - TỔNG PP SƠN AZAMI MIỀN TÂY,Cửa hàng vật liệu xây dựng,,"CTTNHHTM LÊ MINH THƯ - TỔNG PP SƠN AZAMI MIỀN TÂY, 84 Đ. Nguyễn Tri Phương, Phường An Khánh, Ninh Kiều, Cần Thơ","Phường An Khánh, Ninh Kiều",84 Đ. Nguyễn Tri Phương,Cần Thơ,,"Ninh Kiều, Cần Thơ",VN,"10.0405185,105.7568141"
440,ChIJxQMd71CIoDERl2If6feAVDo,Cửa Hàng Vlxd Linh Phương,Cửa hàng vật liệu xây dựng,0292 3782 713,"Cửa Hàng Vlxd Linh Phương, 126 Nguyễn Văn Cừ Nối Dài, An Bình, Ninh Kiều, Cần Thơ","An Bình, Ninh Kiều",126 Nguyễn Văn Cừ Nối Dài,Cần Thơ,,"Ninh Kiều, Cần Thơ",VN,"10.0218369,105.7428716"
441,ChIJL-xC91aIoDER4qTSdkKv8A8,Cửa Hàng Vật Liệu Xây Dựng Tám Phước,Cửa hàng vật liệu xây dựng,,"Cửa Hàng Vật Liệu Xây Dựng Tám Phước, Long Tuyền, Ninh Kiều, Cần Thơ","Long Tuyền, Ninh Kiều",,Cần Thơ,,"Ninh Kiều, Cần Thơ",VN,"10.0204556,105.7383332"
447,ChIJ353SBjiIoDERKH2O62XhZVU,Công Ty TNHH Vật Liệu Xây Dựng Tổng Hợp Tây Nam,Cửa hàng vật liệu xây dựng,0907 816 681,"Công Ty TNHH Vật Liệu Xây Dựng Tổng Hợp Tây Nam, 18A Đ. Nguyễn Văn Linh, Hưng Lợi, Ninh Kiều, Cần Thơ","Hưng Lợi, Ninh Kiều",18A Đ. Nguyễn Văn Linh,Cần Thơ,,"Ninh Kiều, Cần Thơ",VN,"10.0232476,105.7588196"
467,ChIJZZk_lpiJoDERos-1RguJin4,Cửa Hàng Vật Liệu Xây Dựng Tân Đạt,Cửa hàng vật liệu xây dựng,,"Cửa Hàng Vật Liệu Xây Dựng Tân Đạt, Ba Láng, Cái Răng, Cần Thơ","Ba Láng, Cái Răng",,Cần Thơ,,"Cái Răng, Cần Thơ",VN,"9.9902526,105.7425013"
469,ChIJXVeX74SJoDERU_NnDnnuDzs,Cửa Hàng Vật Liệu Xây Dựng Ngân Hà,Cửa hàng vật liệu xây dựng,0292 3840 956,"Cửa Hàng Vật Liệu Xây Dựng Ngân Hà, 166C, KV2 Quốc Lộ 1A, Quận Cái Răng, Ba Láng, Cái Răng, Cần Thơ","Ba Láng, Cái Răng","166C, KV2 Quốc Lộ 1A, Quận Cái Răng",Cần Thơ,,"Cái Răng, Cần Thơ",VN,"9.9776811,105.7429064"
470,ChIJ3-OkXa-JoDER5RDvNlit480,Cửa hàng vật liệu Ngọc Huyền,Cửa hàng vật liệu xây dựng,,"XPMM+XV Cửa hàng vật liệu Ngọc Huyền, Ba Láng, Cái Răng, Cần Thơ","Ba Láng, Cái Răng",XPMM+XV,Cần Thơ,,"Cái Răng, Cần Thơ",VN,"9.9849375,105.73468749999999"
477,ChIJ-aJh9WmJoDERXDUJisfCymk,Cửa Hàng Vật Liệu Xây Dựng Bảy Âu,Cửa hàng vật liệu xây dựng,0907 349 838,"XPP7+V5Q Cửa Hàng Vật Liệu Xây Dựng Bảy Âu, Ấp Mỹ Ái, Phong Điền, Cần Thơ","Ấp Mỹ Ái, Phong Điền",XPP7+V5Q,Cần Thơ,,"Phong Điền, Cần Thơ",VN,"9.987212099999999,105.71297399999999"
478,ChIJA865gNqIoDERB2LQ6Ns1Ruo,Cửa Hàng Vật Liệu Xây Dựng Nam Thành 2,Cửa hàng vật liệu xây dựng,,"Cửa Hàng Vật Liệu Xây Dựng Nam Thành 2, Phong Điền, Cần Thơ",Phong Điền,,Cần Thơ,,"Phong Điền, Cần Thơ",VN,"10.0231163,105.70024959999999"
480,ChIJIS5bwjKPoDERIbhfXKbcfyw,Vật Liệu Xây Dựng Hồng Thắm,Cửa hàng vật liệu xây dựng,,"Vật Liệu Xây Dựng Hồng Thắm, Phong Điền, Cần Thơ",Phong Điền,,Cần Thơ,,"Phong Điền, Cần Thơ",VN,"10.028198699999999,105.68683539999999"
501,ChIJxb_aWISJoDER6NsXxLVRHa8,Cửa Hàng Vật Liệu Xây Dựng Tấm Lợp Nhựa Hợp Hưng,Cửa hàng vật liệu xây dựng,,"Cửa Hàng Vật Liệu Xây Dựng Tấm Lợp Nhựa Hợp Hưng, Ba Láng, Cái Răng, Cần Thơ","Ba Láng, Cái Răng",,Cần Thơ,,"Cái Răng, Cần Thơ",VN,"9.9774867,105.7428702"
511,ChIJR74fSuWJoDERTmFgUxrfGqg,Tiến Ngọc Cửa Hàng Vật Liệu Xây Dựng,Cửa hàng vật liệu xây dựng,,"Tiến Ngọc Cửa Hàng Vật Liệu Xây Dựng, Thường Thạnh, Cái Răng, Cần Thơ","Thường Thạnh, Cái Răng",,Cần Thơ,,"Cái Răng, Cần Thơ",VN,"9.9792721,105.7714386"
528,ChIJT2sCSRyJoDER3YOfs4C2axc,Việt Thái Steel - Tôn Sắt Thép,Cửa hàng vật liệu xây dựng,0838 888 286,"Việt Thái Steel - Tôn Sắt Thép, 1 Đ. 3 Tháng 2, An Bình, Ninh Kiều, Cần Thơ","An Bình, Ninh Kiều",1 Đ. 3 Tháng 2,Cần Thơ,,"Ninh Kiều, Cần Thơ",VN,"10.009787099999999,105.7510195"
563,ChIJZRu8qEmIoDEROrQmSwJ8Das,Cửa Hàng Đại Thắng,Cửa hàng vật liệu xây dựng,0936 491 426,"Cửa Hàng Đại Thắng, 5 Đ. A3, Khu dân cư 91B, Ninh Kiều, Cần Thơ","Khu dân cư 91B, Ninh Kiều",5 Đ. A3,Cần Thơ,,"Ninh Kiều, Cần Thơ",VN,"10.0196042,105.7560086"
565,ChIJH8dLpUiIoDER_1Y_e3_M24I,Cửa Hàng Vật Tư Xây Dựng Anh Minh,Cửa hàng vật liệu xây dựng,0898 087 272,"Cửa Hàng Vật Tư Xây Dựng Anh Minh, 71, KDC, 91B Đ. Ngô Tất Tố, Phường An Khánh, Ninh Kiều, Cần Thơ 94000","Phường An Khánh, Ninh Kiều","71, KDC, 91B Đ. Ngô Tất Tố",Cần Thơ,94000.0,"Ninh Kiều, Cần Thơ",VN,"10.0225061,105.7535412"
571,ChIJK4kUQTaIoDERsTmJvIoayLg,Công Ty TNHH Một Thành Viên Đầu Tư Xây Dựng Thương Mại AKT,Cửa hàng vật liệu xây dựng,0966 596 652,"Công Ty TNHH Một Thành Viên Đầu Tư Xây Dựng Thương Mại AKT, 15A Hẻm 132 Đ. 3 Tháng 2, Hưng Lợi, Ninh Kiều, Cần Thơ","Hưng Lợi, Ninh Kiều",15A Hẻm 132 Đ. 3 Tháng 2,Cần Thơ,,"Ninh Kiều, Cần Thơ",VN,"10.0189686,105.7603041"
577,ChIJ8UlTZUiIoDERjyqWPpRQM1I,Công Ty TNHH Sản Xuất Thương Mại Z.E.N,Cửa hàng vật liệu xây dựng,0292 3601 889,"Công Ty TNHH Sản Xuất Thương Mại Z.E.N, 96, Đường B13, Khu Dân Cư 91B, Khu Vực 6, Phường An Khánh, Quận Ninh Kiều, Thành Phố Cần Thơ, Hưng Lợi, Ninh Kiều, Cần Thơ","Hưng Lợi, Ninh Kiều","96, Đường B13, Khu Dân Cư 91B, Khu Vực 6, Phường An Khánh, Quận Ninh Kiều, Thành Phố Cần Thơ",Cần Thơ,,"Ninh Kiều, Cần Thơ",VN,"10.022342199999999,105.7563615"
588,ChIJLeg_beOJoDERt4WFkU-u3c8,Vật Liệu Cần Câu,Cửa hàng đồ gia dụng,,"2QC3+XXF Vật Liệu Cần Câu, Khu dân cư 91B, Ninh Kiều, Cần Thơ","Khu dân cư 91B, Ninh Kiều",2QC3+XXF,Cần Thơ,,"Ninh Kiều, Cần Thơ",VN,"10.022427,105.75493689999999"
595,ChIJyfVuz0mIoDERDhhiVzo1Eac,Công Ty Cổ Phần Mega Meta,Cửa hàng vật liệu xây dựng,0939 060 838,"Công Ty Cổ Phần Mega Meta, 199 Hẻm 132 Đ. 3 Tháng 2, Hưng Lợi, Ninh Kiều, Cần Thơ","Hưng Lợi, Ninh Kiều",199 Hẻm 132 Đ. 3 Tháng 2,Cần Thơ,,"Ninh Kiều, Cần Thơ",VN,"10.019577199999999,105.75761779999999"
599,ChIJUU1UEziIoDERxz3ukhCNTsg,Cửa Hàng Nhựa Inox Gia Khang,Cửa hàng vật liệu xây dựng,0292 3740 877,"Cửa Hàng Nhựa Inox Gia Khang, 29A Quốc Lộ 91B, Quận Ninh Kiều, Tp Cần Thơ, Hưng Lợi, Ninh Kiều, Cần Thơ","Hưng Lợi, Ninh Kiều","29A Quốc Lộ 91B, Quận Ninh Kiều, Tp Cần Thơ",Cần Thơ,,"Ninh Kiều, Cần Thơ",VN,"10.0242021,105.7596796"
600,ChIJW9xGVECIoDERgDraEcccW64,Công Ty TNHH Ngọc Hân,Cửa hàng vật liệu xây dựng,0292 3890 196,"Công Ty TNHH Ngọc Hân, 316/10, Nguyễn Văn Cừ Nối Dài, Khu Vực 5, Phường An Bình, Quận Ninh Kiều, Thành Phố Cần Thơ, Phường An Khánh, Ninh Kiều, Cần Thơ","Phường An Khánh, Ninh Kiều","316/10, Nguyễn Văn Cừ Nối Dài, Khu Vực 5, Phường An Bình, Quận Ninh Kiều, Thành Phố Cần Thơ",Cần Thơ,,"Ninh Kiều, Cần Thơ",VN,"10.031124499999999,105.7562056"
617,ChIJM-zTuTWIoDERsPVMhtxthBc,Công Ty TNHH TM & Dịch Vụ Thanh Bình,Cửa hàng vật liệu xây dựng,0292 3781 556,"2Q86+88J Công Ty TNHH TM & Dịch Vụ Thanh Bình, Đ. Trần Hoàng Na, Hưng Lợi, Ninh Kiều, Cần Thơ","Hưng Lợi, Ninh Kiều","2Q86+88J, Đ. Trần Hoàng Na",Cần Thơ,,"Ninh Kiều, Cần Thơ",VN,"10.015848,105.76076499999999"
619,ChIJ_4z6eDWIoDERCAFJ9dveR-w,Cửa Hàng Vlxd Diễm Ngọc,Cửa hàng vật liệu xây dựng,,"Cửa Hàng Vlxd Diễm Ngọc, 69 Đ. 3 Tháng 2, Hưng Lợi, Ninh Kiều, Cần Thơ","Hưng Lợi, Ninh Kiều",69 Đ. 3 Tháng 2,Cần Thơ,,"Ninh Kiều, Cần Thơ",VN,"10.0150332,105.7589134"
633,ChIJIY2F_SmIoDERTPdsVt8xq9Q,Công Ty Vật Liệu Xây Dựng Ngọc Thắng 75B2,Cửa hàng vật liệu xây dựng,0292 7843 011,"Công Ty Vật Liệu Xây Dựng Ngọc Thắng 75B2, 26A Khu Dân Cư Hưng Phú, Đường Quang Trung, Quận Cái Răng, Tp Cần Thơ, Hưng Phú, Cái Răng, Cần Thơ","Hưng Phú, Cái Răng","26A Khu Dân Cư Hưng Phú, Đường Quang Trung, Quận Cái Răng, Tp Cần Thơ",Cần Thơ,,"Cái Răng, Cần Thơ",VN,"10.0168276,105.7820385"
637,ChIJr4tzhDaIoDERfk4ZTDNn4t4,Nhà Phân Phối Ngói Màu Scg Vân Nam,Cửa hàng vật liệu xây dựng,1234 667878,"Nhà Phân Phối Ngói Màu Scg Vân Nam, 133 Hẻm 132 Đ. 3 Tháng 2, Hưng Lợi, Ninh Kiều, Cần Thơ","Hưng Lợi, Ninh Kiều",133 Hẻm 132 Đ. 3 Tháng 2,Cần Thơ,,"Ninh Kiều, Cần Thơ",VN,"10.0179817,105.76210479999999"
638,ChIJJfEctzCIoDERZy2d81ZJ5T8,Cửa Hàng Nhôm Kính Cao Cấp Minh Ngọc,Cửa hàng vật liệu xây dựng,,"Cửa Hàng Nhôm Kính Cao Cấp Minh Ngọc, 219A Đ. 3 Tháng 2, An Binh, Ninh Kiều, Cần Thơ","An Binh, Ninh Kiều",219A Đ. 3 Tháng 2,Cần Thơ,,"Ninh Kiều, Cần Thơ",VN,"10.0166494,105.7604453"
641,ChIJBZ4qB82JoDERbsJ07UKcROo,Cửa Hàng Thiên Vũ - nguyên vật liệu Composite,Cửa hàng,0292 6282 168,"Cửa Hàng Thiên Vũ - nguyên vật liệu Composite, 95A Tầm Vu, Hưng Lợi, Ninh Kiều, Cần Thơ","Hưng Lợi, Ninh Kiều",95A Tầm Vu,Cần Thơ,,"Ninh Kiều, Cần Thơ",VN,"10.008876899999999,105.76701419999999"
643,ChIJtxdnCjSIoDER2A8ijA7zuKI,Cua Gạch,Cửa hàng vật liệu xây dựng,,"Cua Gạch, 168 Đ. 30 Tháng 4, Hưng Lợi, Ninh Kiều, Cần Thơ","Hưng Lợi, Ninh Kiều",168 Đ. 30 Tháng 4,Cần Thơ,,"Ninh Kiều, Cần Thơ",VN,"10.0163998,105.7644404"
682,ChIJSa3pS6BioDERDB1VGQ8dGWU,Công ty TNHH kết cấu thép Nhật An,Cửa hàng vật liệu xây dựng,028 3973 3385,"Công ty TNHH kết cấu thép Nhật An, 75 Hòa Bình, Phường Tân Thới Hòa, Quận Tân Phú, Tân An, Ninh Kiều, Cần Thơ","Tân An, Ninh Kiều","75 Hòa Bình, Phường Tân Thới Hòa, Quận Tân Phú",Cần Thơ,,"Ninh Kiều, Cần Thơ",VN,"10.034153,105.7846953"
690,ChIJM9dHbKBioDERHSBRgWFj3R4,Cửa Hàng Đá Hiếu,Cửa hàng vật liệu xây dựng,0939 767 388,"Cửa Hàng Đá Hiếu, 45 Đ. Nguyễn Khuyến, Tân An, Ninh Kiều, Cần Thơ","Tân An, Ninh Kiều",45 Đ. Nguyễn Khuyến,Cần Thơ,,"Ninh Kiều, Cần Thơ",VN,"10.0342519,105.783019"
709,ChIJdcIj0J1ioDERKJjqBXekHt0,Cửa Hàng VLXD Mai Hoa 1,Cửa hàng vật liệu xây dựng,0292 3827 736,"Cửa Hàng VLXD Mai Hoa 1, 14 Nguyễn Thị Minh Khai, Tân An, Ninh Kiều, Cần Thơ","Tân An, Ninh Kiều",14 Nguyễn Thị Minh Khai,Cần Thơ,,"Ninh Kiều, Cần Thơ",VN,"10.0269509,105.7853358"
