,place_id,name,main_category,phone,address,address_ward,address_street,address_city,address_postal_code,address_state,address_country_code,coordinates
0,ChIJAY_5_qdioDERjNlipdVq6r8,Hong Duc Head Honda,Cửa hàng xe máy,1800 545434,"Hong Duc Head Honda, 10-10E Nguyễn Trãi, An Hội, Ninh Kiều, Cần Thơ","An Hội, Ninh Kiều",10-10E Nguyễn Trãi,Cần Thơ,,"Ninh Kiều, Cần Thơ",VN,"10.043393499999999,105.7822803"
15,ChIJoR3Q-xCIoDERniBwK8Aic3o,Hồng Phúc Yamaha 5 - Mậu Thân,Cửa hàng xe máy,0939 657 919,"Hồng Phúc Yamaha 5 - Mậu Thân, 39A Đ. Mậu Thân, An Nghiệp, Ninh Kiều, Cần Thơ 900000","An Nghiệp, Ninh Kiều",39A Đ. Mậu Thân,Cần Thơ,900000.0,"Ninh Kiều, Cần Thơ",VN,"10.0410167,105.7671203"
17,ChIJ3U_axUqIoDERNApC7iWjlPA,HEAD Hoá 1 Cần Thơ-ĐL Honda Ủy Nhiệm,Đại lý xe Honda,0292 3832 979,"HEAD Hoá 1 Cần Thơ-ĐL Honda Ủy Nhiệm, 29A Đ. 3 Tháng 2, Hưng Lợi, Ninh Kiều, Cần Thơ","Hưng Lợi, Ninh Kiều",29A Đ. 3 Tháng 2,Cần Thơ,,"Ninh Kiều, Cần Thơ",VN,"10.0128352,105.75658349999999"
18,ChIJ8auZwjWIoDERCc9X7oc8bDk,Thiên Phúc Suzuki,Đại lý xe Suzuki,0292 3731 919,"Thiên Phúc Suzuki, 94-96-98 Đ. 3 Tháng 2, Hưng Lợi, Ninh Kiều, Cần Thơ 90000","Hưng Lợi, Ninh Kiều",94-96-98 Đ. 3 Tháng 2,Cần Thơ,90000.0,"Ninh Kiều, Cần Thơ",VN,"10.0165708,105.7602979"
20,ChIJXfwMISGIoDER37mFuz7Vz6I,Phụ tùng & dịch vụ xe máy Hoàng Sơn 2,Cửa hàng phụ tùng xe máy,0903 017 444,"Phụ tùng & dịch vụ xe máy Hoàng Sơn 2, 101B Đ. 30 Tháng 4, Xuân Khánh, Ninh Kiều, Cần Thơ 94000","Xuân Khánh, Ninh Kiều",101B Đ. 30 Tháng 4,Cần Thơ,94000.0,"Ninh Kiều, Cần Thơ",VN,"10.0284555,105.77891369999999"
35,ChIJ1wT3qgOIoDERCTdKWRUzplk,Thiên Phúc SYM,Đại lý xe gắn máy,0292 3768 419,"Thiên Phúc SYM, 19 Đ. Cách Mạng Tháng 8, An Hội, Ninh Kiều, Cần Thơ 90000","An Hội, Ninh Kiều",19 Đ. Cách Mạng Tháng 8,Cần Thơ,90000.0,"Ninh Kiều, Cần Thơ",VN,"10.0463729,105.77887609999999"
36,ChIJNyn-qRCIoDERb7uZ7Sqr1QU,YAMAHA CẦN THƠ THIÊN PHÚC 1,Đại lý xe gắn máy,0292 3730 919,"YAMAHA CẦN THƠ THIÊN PHÚC 1, 72 Đ. Trần Hưng Đạo, An Phú, Ninh Kiều, Cần Thơ 900000","An Phú, Ninh Kiều",72 Đ. Trần Hưng Đạo,Cần Thơ,900000.0,"Ninh Kiều, Cần Thơ",VN,"10.038415299999999,105.776479"
38,ChIJRZiZD-KJoDERFXRC6TwDfvc,Hồng Đức Mậu Thân,Đại lý xe Honda,0292 3739 178,"Hồng Đức Mậu Thân, 41 Đ. Mậu Thân, An Nghiệp, Ninh Kiều, Cần Thơ","An Nghiệp, Ninh Kiều",41 Đ. Mậu Thân,Cần Thơ,,"Ninh Kiều, Cần Thơ",VN,"10.0420856,105.766229"
40,ChIJgV46dJ9ioDERnpzaZMG8U9A,Cửa hàng Honda Á Châu,Đại lý xe Honda,0292 3820 819,"Cửa hàng Honda Á Châu, 96-98 Đường Nguyễn An Ninh, Tân An, Ninh Kiều, Cần Thơ","Tân An, Ninh Kiều",96-98 Đường Nguyễn An Ninh,Cần Thơ,,"Ninh Kiều, Cần Thơ",VN,"10.0313953,105.7852094"
41,ChIJqZHBlGCJoDERtBkyHS974cA,HỒNG ĐỨC 1,Cửa hàng xe máy,0292 3811 178,"HỒNG ĐỨC 1, 88-90-90A Hùng Vương, An Cư, Ninh Kiều, Cần Thơ 94000","An Cư, Ninh Kiều",88-90-90A Hùng Vương,Cần Thơ,94000.0,"Ninh Kiều, Cần Thơ",VN,"10.042684699999999,105.7780208"
44,ChIJ9VamcM9joDEREXRv2g2n81I,Cửa hàng xe nhập khẩu Hồng Phúc,Đại lý xe gắn máy,0292 3822 919,"Cửa hàng xe nhập khẩu Hồng Phúc, 71 Nguyễn Trãi, An Hội, Ninh Kiều, Cần Thơ 90000","An Hội, Ninh Kiều",71 Nguyễn Trãi,Cần Thơ,90000.0,"Ninh Kiều, Cần Thơ",VN,"10.0405359,105.785043"
49,ChIJcQ36j4eJoDERZrvKP4MoF34,HK Team - Cần Thơ,Cửa hàng xe máy,0939 080 609,"HK Team - Cần Thơ, 40 Ngô Sĩ Liên, Khu Dân Cư Metro Cũ, Ninh Kiều, Cần Thơ 94116","Khu Dân Cư Metro Cũ, Ninh Kiều",40 Ngô Sĩ Liên,Cần Thơ,94116.0,"Ninh Kiều, Cần Thơ",VN,"10.0215224,105.7609701"
51,ChIJXR53QjiIoDER18s41Gs7Fe8,MUA BÁN XE MÁY TẠI CẦN THƠ - MUA BÁN XE MÁY QUANG SANG,Cửa hàng xe máy,0902 222 653,"MUA BÁN XE MÁY TẠI CẦN THƠ - MUA BÁN XE MÁY QUANG SANG, 148 QL1A, Lê Bình, Cái Răng, Cần Thơ","Lê Bình, Cái Răng",148 QL1A,Cần Thơ,,"Cái Răng, Cần Thơ",VN,"10.003605499999999,105.75039729999999"
66,ChIJy4DKxCGJoDER9ff7PpNQKEs,Moto shop CT,Cửa hàng phụ tùng xe máy,0833 924 866,"Moto shop CT, 170A Đ. Trần Vĩnh Kiết, An Bình, Ninh Kiều, Cần Thơ 94000","An Bình, Ninh Kiều",170A Đ. Trần Vĩnh Kiết,Cần Thơ,94000.0,"Ninh Kiều, Cần Thơ",VN,"10.015508299999999,105.75046259999999"
68,ChIJfRgpIjaJoDERAZLTx1vo7W8,TRUNG TÂM XE MÁY DUY TIẾN CẦN THƠ,Trung tâm mua sắm,0989 256 811,"TRUNG TÂM XE MÁY DUY TIẾN CẦN THƠ, 484A Đ. Phạm Hùng, Thường Thạnh, Cái Răng, Cần Thơ 02923","Thường Thạnh, Cái Răng",484A Đ. Phạm Hùng,Cần Thơ,2923.0,"Cái Răng, Cần Thơ",VN,"9.9907072,105.7485042"
83,ChIJv-p3c8eJoDEREYpNSYYvyMw,Trung Tâm Xe Máy Thành Tâm,Đại lý xe mô tô,,"Trung Tâm Xe Máy Thành Tâm, 12 Kv Thạnh Huề, Thường Thạnh, Cái Răng, Cần Thơ","Thường Thạnh, Cái Răng",12 Kv Thạnh Huề,Cần Thơ,,"Cái Răng, Cần Thơ",VN,"9.9971921,105.75541679999999"
98,ChIJvwwd8suJoDERz_VLCGN4Im0,Chống Trộm Xe Máy Cần Thơ,Cửa hàng xe máy,0367 009 525,"Chống Trộm Xe Máy Cần Thơ, 15C Đ. Nguyễn Văn Linh, Hưng Lợi, Ninh Kiều, Cần Thơ","Hưng Lợi, Ninh Kiều",15C Đ. Nguyễn Văn Linh,Cần Thơ,,"Ninh Kiều, Cần Thơ",VN,"10.022791,105.7625216"
100,ChIJceMZ6A9joDERf-eSLlh0RSI,HỒNG ĐỨC 6,Cửa hàng xe máy,0292 3818 178,"HỒNG ĐỨC 6, 10 Nguyễn Trãi, An Hội, Ninh Kiều, Cần Thơ","An Hội, Ninh Kiều",10 Nguyễn Trãi,Cần Thơ,,"Ninh Kiều, Cần Thơ",VN,"10.043393499999999,105.7822803"
116,ChIJ0XemCg-IoDER1rztED8uUoU,BIN AUDI - LED & FI WORKSHOP,Cửa hàng phụ tùng xe máy,0899 663 200,"BIN AUDI - LED & FI WORKSHOP, 4 Đinh Công Tráng, An Phú, Ninh Kiều, Cần Thơ","An Phú, Ninh Kiều",4 Đinh Công Tráng,Cần Thơ,,"Ninh Kiều, Cần Thơ",VN,"10.0342596,105.7723807"
117,ChIJQXIe8MWJoDER939XaMhdYyg,Cơ Sở Vỏ Xe A Lập,Cửa hàng săm lốp,0932 904 455,"Cơ Sở Vỏ Xe A Lập, 16 Hùng Vương, Thới Bình, Ninh Kiều, Cần Thơ","Thới Bình, Ninh Kiều",16 Hùng Vương,Cần Thơ,,"Ninh Kiều, Cần Thơ",VN,"10.045247,105.7792892"
119,ChIJfTc3PI-JoDERsAFA6rzWl9A,Phố Xe Điện quận Ninh Kiều,Cửa hàng xe máy,0797 979 668,"Phố Xe Điện quận Ninh Kiều, 41D Đ. Mậu Thân, An Hoà, Ninh Kiều, Cần Thơ 900000","An Hoà, Ninh Kiều",41D Đ. Mậu Thân,Cần Thơ,900000.0,"Ninh Kiều, Cần Thơ",VN,"10.0415873,105.76671069999999"
122,ChIJzw2nixOJoDERuSnOBz2QnC4,Tiệm sửa xe máy Mr. Giỏi,Cửa hàng sửa chữa xe máy,0909 445 536,"Tiệm sửa xe máy Mr. Giỏi, MM Mega Market, 41 Đường số 3, khu dân cư Metro, Ninh Kiều, Cần Thơ 94157","khu dân cư Metro, Ninh Kiều","MM Mega Market, 41 Đường số 3",Cần Thơ,94157.0,"Ninh Kiều, Cần Thơ",VN,"10.021459799999999,105.75935489999999"
124,ChIJ7Wd9CmKJoDER5dPLZWKXYWM,Cửa Hàng Xe Máy 7 Thành,Nhà buôn bán xe máy cũ,0918 368 291,"Cửa Hàng Xe Máy 7 Thành, Hẻm Đ. Trần Văn Hoài, Xuân Khánh, Ninh Kiều, Cần Thơ 900000","Xuân Khánh, Ninh Kiều",Hẻm Đ. Trần Văn Hoài,Cần Thơ,900000.0,"Ninh Kiều, Cần Thơ",VN,"10.0264217,105.77272269999999"
125,ChIJ9xJ2aCVjoDERW3WKBjVyb9c,Hồng Phúc_Tổng Kho Phụ Tùng Xe Máy Sỉ Yamaha,Cửa hàng phụ tùng xe máy,0914 287 919,"Hồng Phúc_Tổng Kho Phụ Tùng Xe Máy Sỉ Yamaha, 46 Lý Hồng Thanh, Cái Khế, Ninh Kiều, Cần Thơ 900000","Cái Khế, Ninh Kiều",46 Lý Hồng Thanh,Cần Thơ,900000.0,"Ninh Kiều, Cần Thơ",VN,"10.0437123,105.7855766"
126,ChIJXdHItJCJoDEREfC4qjxv3To,Cửa hàng phụ tùng xe máy HP,Cửa hàng phụ tùng xe máy,,"Cửa hàng phụ tùng xe máy HP, 149 Đ. Phạm Ngũ Lão, Thới Bình, Ninh Kiều, Cần Thơ 900000","Thới Bình, Ninh Kiều",149 Đ. Phạm Ngũ Lão,Cần Thơ,900000.0,"Ninh Kiều, Cần Thơ",VN,"10.0436923,105.7738938"
155,ChIJKatUzk-JoDERvcaGqHhWBXU,Dịch vụ mua bán trao đổi xe gắn máy THÀNH KHÔI,Cửa hàng xe máy,0932 810 520,"Dịch vụ mua bán trao đổi xe gắn máy THÀNH KHÔI, 39 Đ. Tô Hiến Thành, Phường An Khánh, Ninh Kiều, Cần Thơ","Phường An Khánh, Ninh Kiều",39 Đ. Tô Hiến Thành,Cần Thơ,,"Ninh Kiều, Cần Thơ",VN,"10.0428261,105.7560297"
156,ChIJ2SmMpI2JoDERAUaU9C9im8o,Đồ Chơi Xe Máy - Tuấn Cần Thơ,Cửa hàng sửa chữa xe máy,0968 073 413,"Đồ Chơi Xe Máy - Tuấn Cần Thơ, 64 Đ. Lý Tự Trọng, An Cư, Ninh Kiều, Cần Thơ 901994","An Cư, Ninh Kiều",64 Đ. Lý Tự Trọng,Cần Thơ,901994.0,"Ninh Kiều, Cần Thơ",VN,"10.033578,105.7809223"
163,ChIJmzfYhh6JoDERa6HP5I9qcgM,HAUS Hồng Đức,Nhà buôn bán xe máy cũ,0292 3838 179,"HAUS Hồng Đức, 94B Hùng Vương, P, Ninh Kiều, Cần Thơ 900000","P, Ninh Kiều",94B Hùng Vương,Cần Thơ,900000.0,"Ninh Kiều, Cần Thơ",VN,"10.0424632,105.778027"
168,ChIJdYE6GCGJoDERiz9L0h5HNoU,Minh Khang - Sửa xe máy chuyên nghiệp,Cửa hàng sửa chữa xe máy,0762 909 990,"Minh Khang - Sửa xe máy chuyên nghiệp, 390 Đ. Nguyễn Văn Cừ, P, Ninh Kiều, Cần Thơ 90000","P, Ninh Kiều",390 Đ. Nguyễn Văn Cừ,Cần Thơ,90000.0,"Ninh Kiều, Cần Thơ",VN,"10.035926,105.7571217"
181,ChIJ5R9BFt-JoDER2wd-_aJlX-s,Sửa xe Phạm Đạt,Cửa hàng sửa chữa xe máy,0945 001 885,"Sửa xe Phạm Đạt, Hẻm 49 Đ. Trần Hoàng Na, Hưng Lợi, Ninh Kiều, Cần Thơ","Hưng Lợi, Ninh Kiều",Hẻm 49 Đ. Trần Hoàng Na,Cần Thơ,,"Ninh Kiều, Cần Thơ",VN,"10.0114459,105.7635672"
188,ChIJzQfku9djoDERMV1tpRUJPmY,Xe máy nhập khẩu DANH ĐIỆP,Cửa hàng xe máy,0292 3641 223,"Xe máy nhập khẩu DANH ĐIỆP, Lý Hồng Thanh, Cái Khế, Ninh Kiều, Cần Thơ 90000","Cái Khế, Ninh Kiều",Lý Hồng Thanh,Cần Thơ,90000.0,"Ninh Kiều, Cần Thơ",VN,"10.044347799999999,105.78495129999999"
189,ChIJ8WSzUC-JoDERtuxhFApoQP8,XE ĐIỆN CẦN THƠ,Cửa hàng xe máy,,"XE ĐIỆN CẦN THƠ, 209 Đ. 30 Tháng 4, Xuân Khánh, Ninh Kiều, Cần Thơ 900000","Xuân Khánh, Ninh Kiều",209 Đ. 30 Tháng 4,Cần Thơ,900000.0,"Ninh Kiều, Cần Thơ",VN,"10.0247551,105.77498519999999"
192,ChIJ7TlwF7-JoDERtLh-oofjzqY,"Việt Tiến Cần Thơ - Xe Máy Điện, Xe Đạp Điện, Xe Đạp Chính Hãng",Cửa hàng xe đạp,0787 804 804,"Việt Tiến Cần Thơ - Xe Máy Điện, Xe Đạp Điện, Xe Đạp Chính Hãng, 16 Đ. Lý Tự Trọng, An Phú, Ninh Kiều, Cần Thơ 901120","An Phú, Ninh Kiều",16 Đ. Lý Tự Trọng,Cần Thơ,901120.0,"Ninh Kiều, Cần Thơ",VN,"10.0329105,105.7815389"
202,ChIJ-aT6fHd6RQgRmAjUbqeUS9o,Xe điện Hamachi,Đại lý xe máy điện,0832 639 191,"Xe điện Hamachi, TP, 138 Đ. Nguyễn Văn Cừ, An Hoà, Ninh Kiều, Cần Thơ","An Hoà, Ninh Kiều","TP, 138 Đ. Nguyễn Văn Cừ",Cần Thơ,,"Ninh Kiều, Cần Thơ",VN,"10.048561699999999,105.77114159999999"
223,ChIJIfCKrPOJoDERCjvEoBq_5aw,DIBAO CẦN THƠ,Đại lý xe máy điện,0919 245 832,"DIBAO CẦN THƠ, 7476 Đ. Lý Tự Trọng, Tân An, Ninh Kiều, Cần Thơ","Tân An, Ninh Kiều",7476 Đ. Lý Tự Trọng,Cần Thơ,,"Ninh Kiều, Cần Thơ",VN,"10.033722,105.78081279999999"
225,ChIJL15M0GqJoDERUzQjCGM63I0,Xe Máy Quang Sang 2,Cửa hàng xe máy,0933 065 065,"Xe Máy Quang Sang 2, 378E Lê Bình, Cái Răng, Cần Thơ","Lê Bình, Cái Răng",378E Lê Bình,Cần Thơ,,"Cái Răng, Cần Thơ",VN,"9.9983918,105.7547871"
226,ChIJI5LzaIOJoDERNM-aKQC3I_8,Đồ Chơi Xe Máy Thi Nhân,Cửa hàng phụ tùng xe máy,0939 243 399,"Đồ Chơi Xe Máy Thi Nhân, 233/34/12A, Đ. Nguyễn Văn Cừ, An Hoà, Ninh Kiều, Cần Thơ 900000","An Hoà, Ninh Kiều","233/34/12A, Đ. Nguyễn Văn Cừ",Cần Thơ,900000.0,"Ninh Kiều, Cần Thơ",VN,"10.0465552,105.7695883"
229,ChIJ2XY617eJoDERvyrhQ_THCC0,"Áo Mưa - Bao Trùm Ô Tô , Xe Máy, Chi Nhánh Công Ty MINH CHÂU",Cửa hàng quần áo,0909 384 144,"Áo Mưa - Bao Trùm Ô Tô , Xe Máy, Chi Nhánh Công Ty MINH CHÂU, 71/36 Quang Trung, An Lạc, Ninh Kiều, Cần Thơ","An Lạc, Ninh Kiều",71/36 Quang Trung,Cần Thơ,,"Ninh Kiều, Cần Thơ",VN,"10.027898,105.780242"
236,ChIJWfi-bGWJoDERViQzoHHsZ4o,Dán Keo Xe - Film Cách Nhiệt KENDECAL,Cửa hàng sửa chữa xe máy,0907 368 139,"Dán Keo Xe - Film Cách Nhiệt KENDECAL, 80 Hùng Vương, An Cư, Ninh Kiều, Cần Thơ","An Cư, Ninh Kiều",80 Hùng Vương,Cần Thơ,,"Ninh Kiều, Cần Thơ",VN,"10.0432017,105.7781996"
238,ChIJAQD80QSIoDEROSdpNBeshFo,DỊCH VỤ CỨU HỘ XE MÁY HOÀNG ĐỨC,Cửa hàng sửa chữa xe máy,0706 501 055,"DỊCH VỤ CỨU HỘ XE MÁY HOÀNG ĐỨC, 126 Đ. Phạm Ngũ Lão, Thới Bình, Ninh Kiều, Cần Thơ","Thới Bình, Ninh Kiều",126 Đ. Phạm Ngũ Lão,Cần Thơ,,"Ninh Kiều, Cần Thơ",VN,"10.044207199999999,105.77397409999999"
250,ChIJzb0k0YCZoDER5MFu0JufhYE,Cửa Hàng Xe Máy Quốc Chi,Cửa hàng xe máy,0987 333 009,"Cửa Hàng Xe Máy Quốc Chi, 26 Nguyễn Văn Nhung, Ấp Thới Hoà A, Cờ Đỏ, Cần Thơ 94600","Ấp Thới Hoà A, Cờ Đỏ",26 Nguyễn Văn Nhung,Cần Thơ,94600.0,"Cờ Đỏ, Cần Thơ",VN,"10.0962027,105.4289043"
265,ChIJyVZfzT-IoDERmZY_pprka6E,T23 Shop Điện Đèn Xe Máy Ô Tô Cần Thơ,Cửa hàng phụ tùng xe máy,0903 864 555,"T23 Shop Điện Đèn Xe Máy Ô Tô Cần Thơ, HẺM 91 Đ. Cách Mạng Tháng 8, An Thới, Bình Thủy, Cần Thơ 94000","An Thới, Bình Thủy",HẺM 91 Đ. Cách Mạng Tháng 8,Cần Thơ,94000.0,"Bình Thủy, Cần Thơ",VN,"10.063859899999999,105.760178"
268,ChIJ9ar5oAKIoDERDspuASw0718,BaloRacer Shop - Đồ Bảo Hộ Xe Máy,Cửa hàng quần áo,0918 450 025,"BaloRacer Shop - Đồ Bảo Hộ Xe Máy, City, 245 Nguyễn Thị Minh Khai, Xuân Khánh, Ninh Kiều, Cần Thơ","Xuân Khánh, Ninh Kiều","City, 245 Nguyễn Thị Minh Khai",Cần Thơ,,"Ninh Kiều, Cần Thơ",VN,"10.0255622,105.7783836"
269,ChIJLeEJHT1-CjERW1V-Hb4qwl8,Xe máy An Châu Chương,Đại lý xe mô tô,0277 3861 681,"Xe máy An Châu Chương, 359 Đ. Hùng Vương, Phường 1, Sa Đéc, Đồng Tháp","Phường 1, Sa Đéc",359 Đ. Hùng Vương,Đồng Tháp,,"Sa Đéc, Đồng Tháp",VN,"10.2941507,105.7661955"
275,ChIJ0SDd8JVjoDERsWJ9Y11Tres,YAMAHA TOWN HỒNG PHÚC 1,Cửa hàng xe máy,0292 3811 919,"YAMAHA TOWN HỒNG PHÚC 1, 57-59-61 Trần Văn Khéo, An Hội, Ninh Kiều, Cần Thơ 94000","An Hội, Ninh Kiều",57-59-61 Trần Văn Khéo,Cần Thơ,94000.0,"Ninh Kiều, Cần Thơ",VN,"10.0442831,105.7835928"
279,ChIJw4KVYVCIoDERMJLyU4mb9f8,Phụ tùng OIL MOTOBIKE CT - Tài Hồng Phát,Cửa hàng phụ tùng xe máy,0357 009 799,"Phụ tùng OIL MOTOBIKE CT - Tài Hồng Phát, 359AA Nguyễn Văn Cừ Nối Dài, An Bình, Ninh Kiều, Cần Thơ","An Bình, Ninh Kiều",359AA Nguyễn Văn Cừ Nối Dài,Cần Thơ,,"Ninh Kiều, Cần Thơ",VN,"10.021564099999999,105.74308579999999"
280,ChIJX4eOjEOJoDERXfy1UMaSvvs,xe máy Hùng Đạt.Cần Thơ,Cửa hàng xe máy,0909 675 556,"xe máy Hùng Đạt.Cần Thơ, Tp, 114 Trần Hưng Đạo.p An Nghiệp. Q Ninh Kiều. Tp Cần Thơ P An Nghiệp 114 Trần Hưng Đạo.p An Nghiệp. Q, 114 Đ. Trần Hưng Đạo, An Phú, Ninh Kiều, Cần Thơ","An Phú, Ninh Kiều","Tp, 114 Trần Hưng Đạo.p An Nghiệp. Q Ninh Kiều. Tp Cần Thơ P An Nghiệp 114 Trần Hưng Đạo.p An Nghiệp. Q, 114 Đ. Trần Hưng Đạo",Cần Thơ,,"Ninh Kiều, Cần Thơ",VN,"10.0371443,105.7762891"
295,ChIJffHwa95joDERqjLkFKuIJ1s,Sửa Xe Máy Tùng,Cửa hàng sửa chữa xe máy,,"Sửa Xe Máy Tùng, 33 Tổ 55 Võ Nguyên Giáp, Hưng Phú, Cái Răng, Cần Thơ","Hưng Phú, Cái Răng",33 Tổ 55 Võ Nguyên Giáp,Cần Thơ,,"Cái Răng, Cần Thơ",VN,"10.008777799999999,105.79281259999999"
308,ChIJoagzezBjoDERkfiLZ_qkozo,Cửa Hàng Mua Bán Xe Máy 164,Cửa hàng xe máy,0901 646 464,"Cửa Hàng Mua Bán Xe Máy 164, chung cư lô B, Đ. Lý Thái Tổ, KDC Hưng Phú 1, Cái Răng, Cần Thơ 90000","KDC Hưng Phú 1, Cái Răng","chung cư lô B, Đ. Lý Thái Tổ",Cần Thơ,90000.0,"Cái Răng, Cần Thơ",VN,"10.0207713,105.786676"
309,ChIJrf1HkkigoDER4-89NkXJ_8M,XE GẮN MÁY CŨ HIỆN-Láng Sen,Cửa hàng xe máy,0908 750 234,"XE GẮN MÁY CŨ HIỆN-Láng Sen, Việt nam-cần thơ- vĩnh thạnh-láng sen, Cần Thơ","Thạnh Quới, Cần Thơ",Việt nam-cần thơ- vĩnh thạnh-láng sen,Cần Thơ,,Cần Thơ,VN,"10.2145105,105.3799993"
326,ChIJJR_4oV-JoDERCVrzU-41H7A,YAMAHA THIÊN PHÚC 1,Cửa hàng xe máy,0292 3730 919,"YAMAHA THIÊN PHÚC 1, 72 Đ. Trần Hưng Đạo, An Phú, Ninh Kiều, Cần Thơ","An Phú, Ninh Kiều",72 Đ. Trần Hưng Đạo,Cần Thơ,,"Ninh Kiều, Cần Thơ",VN,"10.0384447,105.776499"
327,ChIJ-b-bTDWIoDERApl_asswbJI,Phụ Tùng Honda Đức,Cửa hàng phụ tùng xe máy,0292 3781 392,"Phụ Tùng Honda Đức, 38 Đ. 30 Tháng 4, Hưng Lợi, Ninh Kiều, Cần Thơ","Hưng Lợi, Ninh Kiều",38 Đ. 30 Tháng 4,Cần Thơ,,"Ninh Kiều, Cần Thơ",VN,"10.012180599999999,105.7596569"
333,ChIJNarDoc-JoDERu9j_qSj2XHI,Sữa xe Nguyễn Fi Cần Thơ,Cửa hàng sửa chữa xe máy,0916 539 797,"Sữa xe Nguyễn Fi Cần Thơ, 104 Nguyễn Văn Cừ/12 Đ. Nguyễn Văn Cừ, An Hoà, Ninh Kiều, Cần Thơ 90000","An Hoà, Ninh Kiều",104 Nguyễn Văn Cừ/12 Đ. Nguyễn Văn Cừ,Cần Thơ,90000.0,"Ninh Kiều, Cần Thơ",VN,"10.0501639,105.77092169999999"
334,ChIJ0-gjwlSJoDERhNiCnaXID-w,"EBIKE - Showroom xe đạp điện, xe máy điện Cần Thơ",Đại lý xe đạp gắn máy,0932 912 839,"EBIKE - Showroom xe đạp điện, xe máy điện Cần Thơ, 163 Đ. Nguyễn Văn Cừ, Phường An Khánh, Ninh Kiều, Cần Thơ 94000","Phường An Khánh, Ninh Kiều",163 Đ. Nguyễn Văn Cừ,Cần Thơ,94000.0,"Ninh Kiều, Cần Thơ",VN,"10.0386297,105.7599506"
338,ChIJXQ3aRvuJoDERaRzp0lcqVEc,Cửa hàng sửa chữa xe máy SH Cần Thơ,Cửa hàng sửa chữa xe máy,0943 343 360,"Cửa hàng sửa chữa xe máy SH Cần Thơ, 380H Đ. Trần Nam Phú, P, Ninh Kiều, Cần Thơ","P, Ninh Kiều",380H Đ. Trần Nam Phú,Cần Thơ,,"Ninh Kiều, Cần Thơ",VN,"10.033845099999999,105.7598374"
339,ChIJ_xWXQjiIoDERbLarAaSQQF4,Chành Xe Lê Châu,Đại lý xe mô tô,0292 3763 300,"Chành Xe Lê Châu, 235, Nguyễn Văn Linh, Phường Hưng Lợi, Quận Ninh Kiều, Thành Phố Cần Thơ, Hưng Lợi, Ninh Kiều, Cần Thơ","Hưng Lợi, Ninh Kiều","235, Nguyễn Văn Linh, Phường Hưng Lợi, Quận Ninh Kiều, Thành Phố Cần Thơ",Cần Thơ,,"Ninh Kiều, Cần Thơ",VN,"10.0247681,105.7597847"
340,ChIJowmdL4mJoDER73JsIOCimaw,Kho Xe Máy - Thuê Xe Nhanh Cần Thơ,Bãi đỗ xe máy,0824 425 995,"Kho Xe Máy - Thuê Xe Nhanh Cần Thơ, 246/8/38B Tầm Vu, Hưng Lợi, Ninh Kiều, Cần Thơ","Hưng Lợi, Ninh Kiều",246/8/38B Tầm Vu,Cần Thơ,,"Ninh Kiều, Cần Thơ",VN,"10.0147947,105.7691577"
349,ChIJAfdjJumJoDERyoL-1jegiOs,Cửa hàng xe máy 889,Cửa hàng,0988 883 862,"Cửa hàng xe máy 889, 114b Đ. Cách Mạng Tháng 8, Cái Khế, Ninh Kiều, Cần Thơ","Cái Khế, Ninh Kiều",114b Đ. Cách Mạng Tháng 8,Cần Thơ,,"Ninh Kiều, Cần Thơ",VN,"10.0504435,105.7752002"
350,ChIJyTGoH2eIoDERfukr3H9tgYc,Cửa Hàng Xe Máy JAG,Đại lý xe mô tô,0292 3828 475,"Cửa Hàng Xe Máy JAG, Cầu Bà Bộ, Quốc Lộ 91B, Quận Bình Thủy, Tp Cần Thơ, Phường An Khánh, Ninh Kiều, Cần Thơ","Phường An Khánh, Ninh Kiều","Cầu Bà Bộ, Quốc Lộ 91B, Quận Bình Thủy, Tp Cần Thơ",Cần Thơ,,"Ninh Kiều, Cần Thơ",VN,"10.037062899999999,105.74265869999999"
351,ChIJ7UeTurCJoDERxu1AS88Fdbo,Cửa Hàng Xe Máy Ngọc Bích 2,Đại lý xe mô tô,0939 216 121,"Cửa Hàng Xe Máy Ngọc Bích 2, 542-542B Trần Hưng Đạo, Lê Bình, Cái Răng, Cần Thơ","Lê Bình, Cái Răng",542-542B Trần Hưng Đạo,Cần Thơ,,"Cái Răng, Cần Thơ",VN,"10.00235,105.75189999999999"
352,ChIJh_YnMUuIoDERG879p9f_bnk,Cửa Hàng Mua Bán Xe Hoàng Hải,Đại lý xe mô tô,0918 828 974,"Cửa Hàng Mua Bán Xe Hoàng Hải, 06, Đường 3/2, Quận Ninh Kiều, TP Cần Thơ, Hưng Lợi, Ninh Kiều, Cần Thơ","Hưng Lợi, Ninh Kiều","06, Đường 3/2, Quận Ninh Kiều, TP Cần Thơ",Cần Thơ,,"Ninh Kiều, Cần Thơ",VN,"10.0129506,105.75507999999999"
353,ChIJ3QddF7RjoDERax_ydFay26Y,Sửa Xe Honda,Cửa hàng sửa chữa xe máy,0867 644 432,"Sửa Xe Honda, 16n Đ. Số 6, KDC Hưng Phú 1, Cái Răng, Cần Thơ","KDC Hưng Phú 1, Cái Răng",16n Đ. Số 6,Cần Thơ,,"Cái Răng, Cần Thơ",VN,"10.0217571,105.7854663"
378,ChIJea6XYt-JoDER1ng-oA5FFBs,Tiệm sữa xe GIA BĂNG,Cửa hàng xe máy,0932 823 655,"Tiệm sữa xe GIA BĂNG, 20 Đường Trần Hoàng Na, Hưng Thành, Cái Răng, Cần Thơ","Hưng Thành, Cái Răng",20 Đường Trần Hoàng Na,Cần Thơ,,"Cái Răng, Cần Thơ",VN,"10.0028398,105.7724653"
384,ChIJ8TBAU6ljoDERuwY0TXEwRn0,Cửa hàng xe Danh Điệp,Đại lý xe gắn máy,,"Cửa hàng xe Danh Điệp, 129 Phan Đình Phùng, Tân An, Ninh Kiều, Cần Thơ","Tân An, Ninh Kiều",129 Phan Đình Phùng,Cần Thơ,,"Ninh Kiều, Cần Thơ",VN,"10.0290463,105.78643179999999"
385,ChIJN1nPMFGIoDER7NK3dn7BKyo,Cửa Hàng Phụ Tùng Xe Máy Công Danh,Đại lý xe mô tô,0939 946 848,"2P9R+XMG Cửa Hàng Phụ Tùng Xe Máy Công Danh, Đ. Hoàng Quốc Việt, An Bình, Ninh Kiều, Cần Thơ","An Bình, Ninh Kiều","2P9R+XMG, Đ. Hoàng Quốc Việt",Cần Thơ,,"Ninh Kiều, Cần Thơ",VN,"10.019945199999999,105.7417096"
389,ChIJq_mPB5iJoDER4JjkIrrmmyU,Trạm Bảo Hành Xe Máy Suzuki Thiên Phúc,Cửa hàng phụ tùng xe máy,,"Trạm Bảo Hành Xe Máy Suzuki Thiên Phúc, 94-96-98 Hẻm 132 Đ. 3 Tháng 2, Hưng Lợi, Ninh Kiều, Cần Thơ","Hưng Lợi, Ninh Kiều",94-96-98 Hẻm 132 Đ. 3 Tháng 2,Cần Thơ,,"Ninh Kiều, Cần Thơ",VN,"10.0166796,105.76094219999999"
393,ChIJG8W16GqIoDERVROM5anY-gc,Duong Minh Than Motorcycle Parts Store,Cửa hàng phụ tùng xe máy,0915 084 101,"Duong Minh Than Motorcycle Parts Store, 366A Đ. Nguyễn Văn Cừ, Phường An Khánh, Ninh Kiều, Cần Thơ","Phường An Khánh, Ninh Kiều",366A Đ. Nguyễn Văn Cừ,Cần Thơ,,"Ninh Kiều, Cần Thơ",VN,"10.0358317,105.7567334"
410,ChIJlW4-h8mJoDERfKPYLcGAo_Q,Xe Máy TÂN LIÊN HƯNG 1,Cửa hàng xe máy,0904 744 471,"Xe Máy TÂN LIÊN HƯNG 1, 20 Đ. Nguyễn Văn Linh, Hưng Lợi, Ninh Kiều, Cần Thơ","Hưng Lợi, Ninh Kiều",20 Đ. Nguyễn Văn Linh,Cần Thơ,,"Ninh Kiều, Cần Thơ",VN,"10.0223227,105.7637551"
444,ChIJx0msxQuJoDERX99i5Gn3kWk,Xe Máy Bảo Nhi,Nhà buôn bán xe máy cũ,0979 683 894,"Xe Máy Bảo Nhi, 272 Đ. Đồng Văn Cống, An Thới, Bình Thủy, Cần Thơ","An Thới, Bình Thủy",272 Đ. Đồng Văn Cống,Cần Thơ,,"Bình Thủy, Cần Thơ",VN,"10.0542315,105.7603061"
445,ChIJc2GNekeIoDERWW0OxfzaSNM,Cửa Hàng Xe Máy Văn Thành,Đại lý xe mô tô,0939 204 283,"2QG5+F5P Cửa Hàng Xe Máy Văn Thành, Đ. Nguyễn Văn Linh, Phường An Khánh, Ninh Kiều, Cần Thơ","Phường An Khánh, Ninh Kiều","2QG5+F5P, Đ. Nguyễn Văn Linh",Cần Thơ,,"Ninh Kiều, Cần Thơ",VN,"10.026204,105.757942"
446,ChIJtYhA4yCIoDER9VQKe13fKyc,Cửa Hàng Phụ Tùng Xe Máy Long Phú Quý,Đại lý xe mô tô,0908 633 555,"Cửa Hàng Phụ Tùng Xe Máy Long Phú Quý, 104 Đ. 30 Tháng 4, An Lạc, Ninh Kiều, Cần Thơ","An Lạc, Ninh Kiều",104 Đ. 30 Tháng 4,Cần Thơ,,"Ninh Kiều, Cần Thơ",VN,"10.029346499999999,105.7793006"
447,ChIJx2BIl9CJoDER20im4XUb-q0,Cửa Hàng Xe Máy Nhập Khẩu Cần Thơ Cơ Sở 1,Cửa hàng xe máy,0292 3780 164,"Cửa Hàng Xe Máy Nhập Khẩu Cần Thơ Cơ Sở 1, 164/1B Đ. Trần Ngọc Quế, Xuân Khánh, Ninh Kiều, Cần Thơ","Xuân Khánh, Ninh Kiều",164/1B Đ. Trần Ngọc Quế,Cần Thơ,,"Ninh Kiều, Cần Thơ",VN,"10.024227999999999,105.768496"
448,ChIJyYjwWiGJoDERl47MkLlrj8w,CỬA HÀNG XE PHẨM XUÂN,Cửa hàng xe máy,0702 525 283,"CỬA HÀNG XE PHẨM XUÂN, 177 Đ.Xuân Thủy, An Bình, Ninh Kiều, Cần Thơ","An Bình, Ninh Kiều",177 Đ.Xuân Thủy,Cần Thơ,,"Ninh Kiều, Cần Thơ",VN,"10.023142199999999,105.746264"
449,ChIJcQxxnISJoDERpC0gWec3LEI,Rửa xe 18k - Sửa chữa xe Honda,Cửa hàng sửa chữa xe máy,0782 947 879,"Rửa xe 18k - Sửa chữa xe Honda, 75a Hẻm 2 - Mậu Thân, p. Xuân Khánh, Cạnh chùa, Ninh Kiều, Cần Thơ","Cạnh chùa, Ninh Kiều","75a Hẻm 2 - Mậu Thân, p. Xuân Khánh",Cần Thơ,,"Ninh Kiều, Cần Thơ",VN,"10.0276517,105.77436979999999"
450,ChIJVXpb7x6JoDERJxNWRA8aDKY,Cửa hàng xe máy nhập khẩu Duy Tiến,Cửa hàng xe máy,,"XPRX+7CH Cửa hàng xe máy nhập khẩu Duy Tiến, Ba Láng, Cái Răng, Cần Thơ","Ba Láng, Cái Răng",XPRX+7CH,Cần Thơ,,"Cái Răng, Cần Thơ",VN,"9.9906817,105.74859459999999"
451,ChIJ86Uix_VjoDERF7yD4RcpKO4,Sửa Xe Máy Tùng,Cửa hàng sửa chữa xe máy,0903 118 609,"Sửa Xe Máy Tùng, 33 Tổ 55, Kv 11, Cần Thơ 900000","Hưng Phú, Cái Răng","33 Tổ 55, Kv 11",Cần Thơ,900000.0,"Cái Răng, Cần Thơ",VN,"10.029238699999999,105.796702"
452,ChIJ_85bRsKHoDERjzn6VzlaERk,Tiệm Sửa Xe Máy Hùng,Cửa hàng sửa chữa xe máy,0363 319 379,"Tiệm Sửa Xe Máy Hùng, 510, Đường Cách Mạng Tháng 8, Quận Bình Thủy, Bùi Hữu Nghĩa, Bình Thủy, Cần Thơ","Bùi Hữu Nghĩa, Bình Thủy","510, Đường Cách Mạng Tháng 8, Quận Bình Thủy",Cần Thơ,,"Bình Thủy, Cần Thơ",VN,"10.0702202,105.7565468"
453,ChIJbbewNkeIoDERPiCRRJ5AdUU,Cửa Hàng Phụ Tùng Xe Máy Nguyễn Ngọc Thành,Cửa hàng phụ tùng xe máy,0931 817 858,"Cửa Hàng Phụ Tùng Xe Máy Nguyễn Ngọc Thành, 11T5/1, Khu Vực 3, Phường An Khánh, Quận Ninh Kiều, Hưng Lợi, Ninh Kiều, Cần Thơ","Hưng Lợi, Ninh Kiều","11T5/1, Khu Vực 3, Phường An Khánh, Quận Ninh Kiều",Cần Thơ,,"Ninh Kiều, Cần Thơ",VN,"10.0279817,105.75671399999999"
454,ChIJowhDWKBioDER0elGJ_YIyGc,Cửa Hàng Xe Máy Sơn Nam,Cửa hàng xe máy,0292 3832 547,"Cửa Hàng Xe Máy Sơn Nam, 25 Đ. Nguyễn Khuyến, Tân An, Ninh Kiều, Cần Thơ","Tân An, Ninh Kiều",25 Đ. Nguyễn Khuyến,Cần Thơ,,"Ninh Kiều, Cần Thơ",VN,"10.034243799999999,105.78320459999999"
464,ChIJQ0tHc7JjoDERmJkD81xi9-Y,Tiệm sửa xe hoàng phi Fi,Cửa hàng xe máy,0909 787 635,"Tiệm sửa xe hoàng phi Fi, 6 Đ. Nguyễn Bình, Cái Khế, Ninh Kiều, Cần Thơ 90000","Cái Khế, Ninh Kiều",6 Đ. Nguyễn Bình,Cần Thơ,90000.0,"Ninh Kiều, Cần Thơ",VN,"10.047255999999999,105.7865774"
487,ChIJhbgGDRyIoDERge7xL1x73bY,Tiệm Dán Keo Xe Hồ Trường Hải,Cửa hàng xe máy,0942 178 777,"Tiệm Dán Keo Xe Hồ Trường Hải, 2 Đường Đ. Trần Hưng Đạo, An Cư, Ninh Kiều, Cần Thơ","An Cư, Ninh Kiều",2 Đường Đ. Trần Hưng Đạo,Cần Thơ,,"Ninh Kiều, Cần Thơ",VN,"10.0396035,105.77716749999999"
503,ChIJAc0WaKBioDERNJIxOfgLExY,Tiệm Sửa Xe Tỷ,,,"Tiệm Sửa Xe Tỷ, 73/1A Đ. Nguyễn Khuyến, Tân An, Ninh Kiều, Cần Thơ","Tân An, Ninh Kiều",73/1A Đ. Nguyễn Khuyến,Cần Thơ,,"Ninh Kiều, Cần Thơ",VN,"10.034514999999999,105.783474"
514,ChIJC97M5vOJoDERJvmZ2IqQx3U,Cửa Hàng Xe Máy TÂN LẬP HƯNG,Cửa hàng xe máy,0795 929 689,"Cửa Hàng Xe Máy TÂN LẬP HƯNG, 174 Đ. Hoàng Quốc Việt, An Bình, Ninh Kiều, Cần Thơ","An Bình, Ninh Kiều",174 Đ. Hoàng Quốc Việt,Cần Thơ,,"Ninh Kiều, Cần Thơ",VN,"10.0152025,105.74433599999999"
517,ChIJg1UKysqJoDERsdG7rp7U_14,Cửa Hàng Phụ Tùng Xe Máy Hoàng Sơn 2,Đại lý xe mô tô,,"Cửa Hàng Phụ Tùng Xe Máy Hoàng Sơn 2, 1018 Hẻm 553, Hưng Lợi, Ninh Kiều, Cần Thơ","Hưng Lợi, Ninh Kiều",1018 Hẻm 553,Cần Thơ,,"Ninh Kiều, Cần Thơ",VN,"10.0117513,105.76010959999999"
521,ChIJk-GJEWiIoDERv2gq0UJUAAY,Tiệm Sửa Xe Máy Kiên Cường,Cửa hàng sửa chữa xe máy,0788 940 388,"Tiệm Sửa Xe Máy Kiên Cường, 261c/8, Đ. Trần Vĩnh Kiết, An Bình, Ninh Kiều, Cần Thơ","An Bình, Ninh Kiều","261c/8, Đ. Trần Vĩnh Kiết",Cần Thơ,,"Ninh Kiều, Cần Thơ",VN,"10.0217722,105.7519662"
525,ChIJC7HuNbKJoDERuXHBtcvxsRQ,Cửa Hàng Phụ Tùng Xe Máy An Bình,Cửa hàng phụ tùng xe máy,,"Cửa Hàng Phụ Tùng Xe Máy An Bình, 143 Đ. 3 Tháng 2, An Bình, Ninh Kiều, Cần Thơ","An Bình, Ninh Kiều",143 Đ. 3 Tháng 2,Cần Thơ,,"Ninh Kiều, Cần Thơ",VN,"10.008389399999999,105.7494861"
560,ChIJHSb0FMeJoDERuP6NcpVcOPA,Cửa hàng xe gắn máy Hoà Phát,Cửa hàng,0903 101 175,"Cửa hàng xe gắn máy Hoà Phát, 119 Hẻm 132 Đ. 3 Tháng 2, Hưng Lợi, Ninh Kiều, Cần Thơ","Hưng Lợi, Ninh Kiều",119 Hẻm 132 Đ. 3 Tháng 2,Cần Thơ,,"Ninh Kiều, Cần Thơ",VN,"10.0174889,105.761651"
568,ChIJDf7BlJiJoDERiHSNux5f98U,Công ty TNHH Xuất Nhập Khẩu HOÀ PHÁT 3/2 HP,Đại lý xe gắn máy,0907 101 175,"Công ty TNHH Xuất Nhập Khẩu HOÀ PHÁT 3/2 HP, 3/2, Cần Thơ","Hưng Lợi, Ninh Kiều",3/2,Cần Thơ,,"Ninh Kiều, Cần Thơ",VN,"10.0174848,105.7616505"
592,ChIJX1z2Q0OJoDERykSt4_upD0U,Cửa Hàng Phụ Tùng Xe Máy Tỷ,Cửa hàng xe máy,0903 703 857,"Cửa Hàng Phụ Tùng Xe Máy Tỷ, 84 Đ. Lý Tự Trọng, An Cư, Ninh Kiều, Cần Thơ","An Cư, Ninh Kiều",84 Đ. Lý Tự Trọng,Cần Thơ,,"Ninh Kiều, Cần Thơ",VN,"10.0338326,105.78071369999999"
596,ChIJWwfdbSdjoDERWXvBIP4sSyE,Cửa Hàng Xe Máy Anh Em,Cửa hàng,0778 379 378,"Cửa Hàng Xe Máy Anh Em, 115 Đường B3, KDC Hưng Phú 1, Cái Răng, Cần Thơ","KDC Hưng Phú 1, Cái Răng",115 Đường B3,Cần Thơ,,"Cái Răng, Cần Thơ",VN,"10.022148,105.78740839999999"
601,ChIJ-RH9472JoDERKKBcxbpH4i0,Xe Máy Nhật Tài,Cửa hàng xe máy,0939 888 409,"Xe Máy Nhật Tài, 344 Đ. Nguyễn Văn Cừ, An Hoà, Ninh Kiều, Cần Thơ","An Hoà, Ninh Kiều",344 Đ. Nguyễn Văn Cừ,Cần Thơ,,"Ninh Kiều, Cần Thơ",VN,"10.049146,105.7705012"
602,ChIJN-TmvQaIoDERoV3U99NmHGg,Cửa Hàng Sửa Chữa Xe Gắn Máy,Đại lý xe mô tô,0933 936 724,"Cửa Hàng Sửa Chữa Xe Gắn Máy, 91/18B Đ. Cách Mạng Tháng 8, Cái Khế, Ninh Kiều, Cần Thơ","Cái Khế, Ninh Kiều",91/18B Đ. Cách Mạng Tháng 8,Cần Thơ,,"Ninh Kiều, Cần Thơ",VN,"10.0502155,105.7748089"
603,ChIJJa5BIwBjoDERbkt5BfAVRSI,Xe máy Thủy Tiên,Cửa hàng xe máy,0869 363 699,"Xe máy Thủy Tiên, 14 Võ Thị Sáu, Tân An, Ninh Kiều, Cần Thơ","Tân An, Ninh Kiều",14 Võ Thị Sáu,Cần Thơ,,"Ninh Kiều, Cần Thơ",VN,"10.0381308,105.7864123"
604,ChIJ7e9RjqFioDERKC3vrEQE3_0,Cửa Hàng Xe Máy Hoàng Sơn,Đại lý xe mô tô,,"Cửa Hàng Xe Máy Hoàng Sơn, 44 Đ. Ngô Quyền, Tân An, Ninh Kiều, Cần Thơ","Tân An, Ninh Kiều",44 Đ. Ngô Quyền,Cần Thơ,,"Ninh Kiều, Cần Thơ",VN,"10.0342124,105.7873487"
605,ChIJWT4o_aZioDERsyCSizL4XNc,Cửa Hàng Xe Máy Tín Hoà,Đại lý xe mô tô,7103821919,"Cửa Hàng Xe Máy Tín Hoà, 67C Nguyễn Trãi, Tân An, Ninh Kiều, Cần Thơ","Tân An, Ninh Kiều",67C Nguyễn Trãi,Cần Thơ,,"Ninh Kiều, Cần Thơ",VN,"10.0399123,105.7853136"
606,ChIJsYD293WJoDERs8hN_G66TNQ,Cửa Hàng Xe Máy Huỳnh Thân,Cửa hàng xe máy,0345 678 145,"Cửa Hàng Xe Máy Huỳnh Thân, Số 8 Đường 30, Phường An Khánh, Ninh Kiều, Cần Thơ 90000","Phường An Khánh, Ninh Kiều",Số 8 Đường 30,Cần Thơ,90000.0,"Ninh Kiều, Cần Thơ",VN,"10.0365147,105.7552431"
607,ChIJLel5qB-IoDERzxOqzfUfCaA,Cửa Hàng Xe Máy Hòa Hân,Đại lý xe mô tô,0292 3764 919,"Cửa Hàng Xe Máy Hòa Hân, 54 Đ. Lý Tự Trọng, An Cư, Ninh Kiều, Cần Thơ 94110","An Cư, Ninh Kiều",54 Đ. Lý Tự Trọng,Cần Thơ,94110.0,"Ninh Kiều, Cần Thơ",VN,"10.034949899999999,105.7792381"
608,ChIJcaMfiZ2JoDERq3geaSODjQY,Xe Máy Điện Cần Thơ,Đại lý xe máy điện,,"Xe Máy Điện Cần Thơ, 162 Đ. Phạm Ngũ Lão, An Nghiệp, Ninh Kiều, Cần Thơ","An Nghiệp, Ninh Kiều",162 Đ. Phạm Ngũ Lão,Cần Thơ,,"Ninh Kiều, Cần Thơ",VN,"10.043424199999999,105.7731733"
609,ChIJYzbzEhyIoDERtLFh1govgPY,Cửa Hàng Phụ Tùng Xe Máy Hạo,Đại lý xe mô tô,,"Cửa Hàng Phụ Tùng Xe Máy Hạo, 12C Đ. Trần Hưng Đạo, An Cư, Ninh Kiều, Cần Thơ","An Cư, Ninh Kiều",12C Đ. Trần Hưng Đạo,Cần Thơ,,"Ninh Kiều, Cần Thơ",VN,"10.0391421,105.7767607"
610,ChIJkQJUFK-JoDER5Ub_4hdMX7c,Sửa xe máy,Cửa hàng sửa chữa xe máy,,"2QQH+XXV Sửa xe máy, An Cư, Ninh Kiều, Cần Thơ","An Cư, Ninh Kiều",2QQH+XXV,Cần Thơ,,"Ninh Kiều, Cần Thơ",VN,"10.0399808,105.7799132"
611,ChIJZ9do3JqHoDERh8uL75V6za8,Xe máy vũ hạnh,Đại lý xe mô tô,0939 082 968,"Xe máy vũ hạnh, 139 Đường Nguyễn Truyền Thanh, Bình Thuỷ, Bình Thủy, Cần Thơ","Bình Thuỷ, Bình Thủy",139 Đường Nguyễn Truyền Thanh,Cần Thơ,,"Bình Thủy, Cần Thơ",VN,"10.068070299999999,105.7476444"
612,ChIJ0zPVdMOJoDERswb92tanwdw,Mua bán xe Hoàng Nam,Cửa hàng xe máy,0849 632 246,"Mua bán xe Hoàng Nam, 299 Đ. Nguyễn Văn Cừ, Phường An Khánh, Ninh Kiều, Cần Thơ","Phường An Khánh, Ninh Kiều",299 Đ. Nguyễn Văn Cừ,Cần Thơ,,"Ninh Kiều, Cần Thơ",VN,"10.0307933,105.75241179999999"
613,ChIJjVbaQQSJoDERB6STfdn5eTs,Cửa Hàng Xe Máy Đức Phúc Cần Thơ,Cửa hàng xe máy,0933 651 618,"Cửa Hàng Xe Máy Đức Phúc Cần Thơ, 490 Đ. 30 Tháng 4, Hưng Lợi, Ninh Kiều, Cần Thơ","Hưng Lợi, Ninh Kiều",490 Đ. 30 Tháng 4,Cần Thơ,,"Ninh Kiều, Cần Thơ",VN,"10.018423199999999,105.76675949999999"
614,ChIJCYMgqsyJoDERhWhZjfnygBw,Cửa Hàng Xe Máy Hoàng Việt 24h,Đại lý xe mô tô,0794 944 567,"Cửa Hàng Xe Máy Hoàng Việt 24h, 2A Đ. Trần Hoàng Na, Hưng Lợi, Ninh Kiều, Cần Thơ","Hưng Lợi, Ninh Kiều",2A Đ. Trần Hoàng Na,Cần Thơ,,"Ninh Kiều, Cần Thơ",VN,"10.011448999999999,105.76456499999999"
615,ChIJq6qqBw-IoDERx7VvSEF0HZM,Cửa Hàng Mua Bán Phụ Tùng Xe Honda Minh Tuấn,Đại lý xe mô tô,0292 3825 449,"Cửa Hàng Mua Bán Phụ Tùng Xe Honda Minh Tuấn, 60, 30/4, Quận Ninh Kiều, Tp Cần Thơ, An Hoà, Ninh Kiều, Cần Thơ","An Hoà, Ninh Kiều","60, 30/4, Quận Ninh Kiều, Tp Cần Thơ",Cần Thơ,,"Ninh Kiều, Cần Thơ",VN,"10.047019299999999,105.76794439999999"
616,ChIJu--6Yb2JoDERpTd9BznGnyQ,Cửa Hàng Mua Bán Xe Máy Cũ Minh Thành,Đại lý xe mô tô,0918 391 706,"Cửa Hàng Mua Bán Xe Máy Cũ Minh Thành, 289 Đ. Phạm Hùng, Lê Bình, Cái Răng, Cần Thơ","Lê Bình, Cái Răng",289 Đ. Phạm Hùng,Cần Thơ,,"Cái Răng, Cần Thơ",VN,"9.9909967,105.7486028"
617,ChIJybTTy6SJoDERcVBBQ3RSdYs,Cửa Hàng Xe Máy Minh Tâm,Đại lý xe mô tô,0931 297 171,"Cửa Hàng Xe Máy Minh Tâm, 23/4A Nguyễn Việt Dũng, Lê Bình, Cái Răng, Cần Thơ","Lê Bình, Cái Răng",23/4A Nguyễn Việt Dũng,Cần Thơ,,"Cái Răng, Cần Thơ",VN,"9.9979271,105.7465098"
618,ChIJWdagyByIoDERY9hwumwUbD8,Cửa Hàng Dán Xe Hùng 7777,Đại lý xe mô tô,0919 785 668,"Cửa Hàng Dán Xe Hùng 7777, Đường Hùng Vương, An Cư, Ninh Kiều, Cần Thơ","An Cư, Ninh Kiều",Đường Hùng Vương,Cần Thơ,,"Ninh Kiều, Cần Thơ",VN,"10.042817399999999,105.77794"
619,ChIJhzmLIaSJoDERwqqP80nMdTA,Anh Thơ Huỳnh - Xe Máy Cần Thơ,Cửa hàng xe máy,,"Anh Thơ Huỳnh - Xe Máy Cần Thơ, Ba Láng, Cái Răng, Cần Thơ","Ba Láng, Cái Răng",,Cần Thơ,,"Cái Răng, Cần Thơ",VN,"9.981900099999999,105.74573029999999"
620,ChIJ3wFaYeGJoDERCVJTn3BLCJQ,Sửa xe Honda quốc tuấn,Cửa hàng xe máy,0349 287 587,"Sửa xe Honda quốc tuấn, Đ. D13, Thành phố, Cái Răng, Cần Thơ","Thành phố, Cái Răng",Đ. D13,Cần Thơ,,"Cái Răng, Cần Thơ",VN,"10.001570599999999,105.77250199999999"
621,ChIJj0W6VOSJoDERFrXenjeryWI,Sửa xe honda Trí,Cửa hàng sửa chữa xe máy,,"Sửa xe honda Trí, 70 Đ. 30 Tháng 4, An Lạc, Ninh Kiều, Cần Thơ","An Lạc, Ninh Kiều",70 Đ. 30 Tháng 4,Cần Thơ,,"Ninh Kiều, Cần Thơ",VN,"10.029505799999999,105.78009709999999"
622,ChIJa9cfuuCJoDER3ctxW_wxJEc,Đồ chơi xe máy hảii bóngg,Cửa hàng sửa chữa xe máy,,"2QJ3+XJ7 Đồ chơi xe máy hảii bóngg, Đ. Nguyễn Văn Cừ, Phường An Khánh, Ninh Kiều, Cần Thơ","Phường An Khánh, Ninh Kiều","2QJ3+XJ7, Đ. Nguyễn Văn Cừ",Cần Thơ,,"Ninh Kiều, Cần Thơ",VN,"10.0324219,105.7540587"
623,ChIJhR0v6peJoDERBInNYR3XDTQ,Cửa Hàng Xe Máy Cũ Minh Thành,Đại lý xe mô tô,0918 391 706,"XPQX+X65 Cửa Hàng Xe Máy Cũ Minh Thành, QL1A, Ba Láng, Cái Răng, Cần Thơ","Ba Láng, Cái Răng","XPQX+X65, QL1A",Cần Thơ,,"Cái Răng, Cần Thơ",VN,"9.9898882,105.7481085"
624,ChIJy_AoOu6JoDERu94hvdzNc7I,TRUNG TÂM BẢO TRÌ XE MÔ TÔ & XE MÁY - TUẤN YA,Trung tâm mua sắm,0988 828 283,"TRUNG TÂM BẢO TRÌ XE MÔ TÔ & XE MÁY - TUẤN YA, 9 Đ. Nguyễn Văn Linh, Hưng Lợi, Ninh Kiều, Cần Thơ 100000","Hưng Lợi, Ninh Kiều",9 Đ. Nguyễn Văn Linh,Cần Thơ,100000.0,"Ninh Kiều, Cần Thơ",VN,"10.0225932,105.76289399999999"
625,ChIJ7QuSUlZjoDERj_dcnbDZEJ4,Tiệm Sửa Xe Honda Tuấn,Cửa hàng xe máy,0982 688 556,"Tiệm Sửa Xe Honda Tuấn, Đ. Nguyễn Văn Quy, Phú Thứ, Cái Răng, Cần Thơ","Phú Thứ, Cái Răng",Đ. Nguyễn Văn Quy,Cần Thơ,,"Cái Răng, Cần Thơ",VN,"9.9827999,105.79811989999999"
626,ChIJN46OlpyFoDERX_AEZ6RHEkk,Sửa xe máy Thanh Hằng,Cửa hàng xe máy,0914 069 939,"Sửa xe máy Thanh Hằng, 81 Lê Chân, p, Ninh Kiều, Cần Thơ","p, Ninh Kiều",81 Lê Chân,Cần Thơ,,"Ninh Kiều, Cần Thơ",VN,"10.091282099999999,105.6715447"
627,ChIJ7_FxdxOIoDERx0-5biMvjOc,Cửa Hàng Xe Máy Hiền,Đại lý xe mô tô,0919 438 152,"2QQ6+WG7 Cửa Hàng Xe Máy Hiền, Nguyễn Văn Cừ Nối Dài, Phường An Khánh, Ninh Kiều, Cần Thơ","Phường An Khánh, Ninh Kiều","2QQ6+WG7, Nguyễn Văn Cừ Nối Dài",Cần Thơ,,"Ninh Kiều, Cần Thơ",VN,"10.03978,105.76129999999999"
628,ChIJiRlSZiOIoDERzsWN8gI0EFo,Cửa Hàng Xe Máy Hồng Hải,Đại lý xe mô tô,0901 065 165,"Cửa Hàng Xe Máy Hồng Hải, 118 Đ. Mạc Thiên Tích, Xuân Khánh, Ninh Kiều, Cần Thơ","Xuân Khánh, Ninh Kiều",118 Đ. Mạc Thiên Tích,Cần Thơ,,"Ninh Kiều, Cần Thơ",VN,"10.028229999999999,105.77199999999999"
629,ChIJ-Tin2SOIoDERhAtqJcVHrAo,Cửa Hàng Xe Máy Thiên Phú,Đại lý xe mô tô,0939 941 948,"Cửa Hàng Xe Máy Thiên Phú, 57, Mậu Thân, Phường Xuân Khánh, Quận Ninh Kiều, Thành Phố Cần Thơ, Xuân Khánh, Ninh Kiều, Cần Thơ","Xuân Khánh, Ninh Kiều","57, Mậu Thân, Phường Xuân Khánh, Quận Ninh Kiều, Thành Phố Cần Thơ",Cần Thơ,,"Ninh Kiều, Cần Thơ",VN,"10.0293724,105.7759471"
630,ChIJAXcGFR2IoDERvtdq1hbItHk,Cửa Hàng Phụ Tùng Xe Máy Long,Đại lý xe mô tô,0292 3769 909,"Cửa Hàng Phụ Tùng Xe Máy Long, 4 Đ. Đinh Tiên Hoàng, An Hội, Ninh Kiều, Cần Thơ","An Hội, Ninh Kiều",4 Đ. Đinh Tiên Hoàng,Cần Thơ,,"Ninh Kiều, Cần Thơ",VN,"10.0419164,105.78035779999999"
631,ChIJg2yKyBSIoDERpq8KJDujS_s,Cửa Hàng Xe Máy Quyền Lực,Đại lý xe mô tô,0932 842 234,"Cửa Hàng Xe Máy Quyền Lực, 200 Đ. Nguyễn Văn Cừ, Phường An Khánh, Ninh Kiều, Cần Thơ","Phường An Khánh, Ninh Kiều",200 Đ. Nguyễn Văn Cừ,Cần Thơ,,"Ninh Kiều, Cần Thơ",VN,"10.0377128,105.75941019999999"
632,ChIJb11_cTiIoDERllkqRFkqnmQ,Công Ty TNHH Xe Máy Vinh Phát,Đại lý xe mô tô,0903 822 429,"Công Ty TNHH Xe Máy Vinh Phát, 211, Đường Đ. Nguyễn Văn Linh, Hưng Lợi, Ninh Kiều, Cần Thơ","Hưng Lợi, Ninh Kiều","211, Đường Đ. Nguyễn Văn Linh",Cần Thơ,,"Ninh Kiều, Cần Thơ",VN,"10.0246,105.7591674"
633,ChIJz5Zo3caHoDER0FRfu3PP928,Cửa Hàng Phụ Tùng Xe Máy Hoàng,Đại lý xe mô tô,0292 3841 433,"Cửa Hàng Phụ Tùng Xe Máy Hoàng, 9A, Đường Lê Hồng Phong, Bình Thuỷ, Bình Thủy, Cần Thơ","Bình Thuỷ, Bình Thủy","9A, Đường Lê Hồng Phong",Cần Thơ,,"Bình Thủy, Cần Thơ",VN,"10.0737536,105.75116109999999"
634,ChIJ6781oQKIoDER0Gw5rW1fkyo,Phụ Tùng Xe Máy Tân Tài,Cửa hàng phụ tùng xe máy,0292 3810 421,"Phụ Tùng Xe Máy Tân Tài, 2 Trần Quang Khải, An Hội, Ninh Kiều, Cần Thơ","An Hội, Ninh Kiều",2 Trần Quang Khải,Cần Thơ,,"Ninh Kiều, Cần Thơ",VN,"10.0444651,105.78183229999999"
635,ChIJf5varzGIoDERPWgWC4KiOuw,Cửa Hàng Phụ Tùng Xe Máy Hùng,Cửa hàng phụ tùng xe máy,,"Cửa Hàng Phụ Tùng Xe Máy Hùng, 387 Đ. 30 Tháng 4, Hưng Lợi, Ninh Kiều, Cần Thơ","Hưng Lợi, Ninh Kiều",387 Đ. 30 Tháng 4,Cần Thơ,,"Ninh Kiều, Cần Thơ",VN,"10.019192499999999,105.76808989999999"
636,ChIJxfGoomiGoDER6De8BVxju7M,Sửa Xe Thắng,Đại lý xe mô tô,0909 956 616,"Sửa Xe Thắng, Khu Vực 6, Nguyễn Chí Thanh, Phường Trà Nóc, Quận Bình Thuỷ, Thành Phố Cần Thơ, Phường Trà An, Bình Thủy, Cần Thơ","Phường Trà An, Bình Thủy","Khu Vực 6, Nguyễn Chí Thanh, Phường Trà Nóc, Quận Bình Thuỷ, Thành Phố Cần Thơ",Cần Thơ,,"Bình Thủy, Cần Thơ",VN,"10.0897788,105.7072608"
637,ChIJqUo19tRloDER5y9gHCDBsAc,Le Van Nhon Car - Motorcycle Store,Đại lý ô tô,0901 289 012,"Le Van Nhon Car - Motorcycle Store, 45C, Area 1, Tra On Town, Tra On District, Trà Ôn, Vĩnh Long",Trà Ôn,"45C, Area 1, Tra On Town, Tra On District",Vĩnh Long,,"Trà Ôn, Vĩnh Long",VN,"9.964201,105.92584099999999"
643,ChIJKXstyBOJoDERCYiAKV_eP1U,XE MÁY PHƯỚC AN,Đại lý xe gắn máy,,"XE MÁY PHƯỚC AN, 40 Đ. Lý Tự Trọng, Tân An, Ninh Kiều, Cần Thơ","Tân An, Ninh Kiều",40 Đ. Lý Tự Trọng,Cần Thơ,,"Ninh Kiều, Cần Thơ",VN,"10.0332525,105.7812716"
646,ChIJY7ib9SCIoDERoXHVztWnNK4,Cửa Hàng Phụ Tùng Xe Máy Hoàng Sơn 2,Đại lý xe mô tô,,"Cửa Hàng Phụ Tùng Xe Máy Hoàng Sơn 2, 1018 Đ. 30 Tháng 4, Xuân Khánh, Ninh Kiều, Cần Thơ","Xuân Khánh, Ninh Kiều",1018 Đ. 30 Tháng 4,Cần Thơ,,"Ninh Kiều, Cần Thơ",VN,"10.0299289,105.78038579999999"
651,ChIJNYW7Hp9ioDERnwC9k3uOzik,Phụ Tùng Xe Máy Bình,Cửa hàng phụ tùng xe máy,0292 3827 886,"2QHP+XFR Phụ Tùng Xe Máy Bình, 54 Ngô Đức Kế, Tân An, Ninh Kiều, Cần Thơ","Tân An, Ninh Kiều","2QHP+XFR, 54 Ngô Đức Kế",Cần Thơ,,"Ninh Kiều, Cần Thơ",VN,"10.0299861,105.78614999999999"
666,ChIJs1adM6FioDERv01lm31UV7Q,Bảo Trì Kỹ Thuật Xe Máy Trí Tay Ga,Đại lý xe mô tô,0918 025 691,"Bảo Trì Kỹ Thuật Xe Máy Trí Tay Ga, 44 Võ Thị Sáu, Tân An, Ninh Kiều, Cần Thơ","Tân An, Ninh Kiều",44 Võ Thị Sáu,Cần Thơ,,"Ninh Kiều, Cần Thơ",VN,"10.037693299999999,105.78603369999999"
668,ChIJi2wA22NjoDERpx4GBWNl8e4,CỬA HÀNG XE MÁY MINH NHỰT,Cửa hàng,,"CỬA HÀNG XE MÁY MINH NHỰT, 21 Đ. Nguyễn Khuyến, Tân An, Ninh Kiều, Cần Thơ","Tân An, Ninh Kiều",21 Đ. Nguyễn Khuyến,Cần Thơ,,"Ninh Kiều, Cần Thơ",VN,"10.034321,105.7833399"
672,ChIJsx0jfJ9ioDERU5S8rq_Y9r8,Công Ty TNHH MTV TMDV Xe Máy Nhựt Đức,Đại lý xe mô tô,0292 2210 539,"Công Ty TNHH MTV TMDV Xe Máy Nhựt Đức, 63A, Đường Võ Văn Tần, Tân An, Ninh Kiều, Cần Thơ","Tân An, Ninh Kiều","63A, Đường Võ Văn Tần",Cần Thơ,,"Ninh Kiều, Cần Thơ",VN,"10.0322103,105.78540729999999"
677,ChIJw6gTDJ9ioDERgjwWR0RXLqc,Cửa Hàng Phụ Tùng Xe Máy Nga,Cửa hàng phụ tùng xe máy,0939 375 088,"Cửa Hàng Phụ Tùng Xe Máy Nga, 1 Chợ An Lạc, Đường Điện Biên Phủ, Phường An Lạc, Quận Ninh Kiều, Tân An, Ninh Kiều, Cần Thơ","Tân An, Ninh Kiều","1 Chợ An Lạc, Đường Điện Biên Phủ, Phường An Lạc, Quận Ninh Kiều",Cần Thơ,,"Ninh Kiều, Cần Thơ",VN,"10.0307868,105.78542399999999"
678,ChIJb2gkHp9ioDERH_i83KNjmIo,Cửa Hàng Phụ Tùng Ô Tô Xe Xe Máy,Cửa hàng phụ tùng xe ô tô,0292 3822 629,"Cửa Hàng Phụ Tùng Ô Tô Xe Xe Máy, Đường Ngô Đức Kế, Tân An, Ninh Kiều, Cần Thơ","Tân An, Ninh Kiều",Đường Ngô Đức Kế,Cần Thơ,,"Ninh Kiều, Cần Thơ",VN,"10.030109399999999,105.7862608"
734,ChIJIdLvzgKIoDER0CVJ3r9ssH4,Tiệm Sửa Xe Thanh,Cửa hàng sửa chữa xe máy,0292 3823 827,"Tiệm Sửa Xe Thanh, 2/3A Đ. Bùi Thị Xuân, An Hội, Ninh Kiều, Cần Thơ","An Hội, Ninh Kiều",2/3A Đ. Bùi Thị Xuân,Cần Thơ,,"Ninh Kiều, Cần Thơ",VN,"10.0437472,105.7802088"
774,ChIJFykHaSCIoDERAgLcAEbhEFg,Thanh Honda Motorcycle Shop,Đại lý xe mô tô,0292 3826 612,"Thanh Honda Motorcycle Shop, 16/4, 30/4 Street, Ninh Kieu District, Can Tho City, An Lạc, Ninh Kiều, Cần Thơ","An Lạc, Ninh Kiều","16/4, 30/4 Street, Ninh Kieu District, Can Tho City",Cần Thơ,,"Ninh Kiều, Cần Thơ",VN,"10.0310185,105.781256"
775,ChIJj2gItSqJoDERMk7KM1_i9y4,Cửa hàng xe máy HỒNG ĐỨC MẬU THÂN,Cửa hàng,0792 249 227,"Cửa hàng xe máy HỒNG ĐỨC MẬU THÂN, 41k Đ. Mậu Thân, An Hoà, Ninh Kiều, Cần Thơ","An Hoà, Ninh Kiều",41k Đ. Mậu Thân,Cần Thơ,,"Ninh Kiều, Cần Thơ",VN,"10.041224399999999,105.7669938"
782,ChIJDWSSro2JoDER7VKrb6GLGj8,"DR MOTOR CẦN THƠ - Chẩn Đoán Bệnh, Chăm Sóc Và Phục Hồi Xe Gắn Máy",Cửa hàng phụ tùng xe máy,0706 946 709,"DR MOTOR CẦN THƠ - Chẩn Đoán Bệnh, Chăm Sóc Và Phục Hồi Xe Gắn Máy, 1A Đ. Trương Định, An Cư, Ninh Kiều, Cần Thơ 94000","An Cư, Ninh Kiều",1A Đ. Trương Định,Cần Thơ,94000.0,"Ninh Kiều, Cần Thơ",VN,"10.0360035,105.7829107"
800,ChIJD_sPpHmJoDER4QMfNmbV7J0,NK Phụ tùng xe máy Thailand-Indonesia,Cửa hàng sửa chữa xe máy,,"NK Phụ tùng xe máy Thailand-Indonesia, 207 Đ. Nguyễn Đệ, P, Ninh Kiều, Cần Thơ","P, Ninh Kiều",207 Đ. Nguyễn Đệ,Cần Thơ,,"Ninh Kiều, Cần Thơ",VN,"10.0503155,105.7674413"
813,ChIJV5XzNRmIoDERv4PGgQCvD5I,Cửa Hàng Dán Xe Nguyễn Hồng Dủ,Cửa hàng xe máy,0292 3831 477,"Cửa Hàng Dán Xe Nguyễn Hồng Dủ, Đường Đ. Trần Hưng Đạo, An Phú, Ninh Kiều, Cần Thơ","An Phú, Ninh Kiều",Đường Đ. Trần Hưng Đạo,Cần Thơ,,"Ninh Kiều, Cần Thơ",VN,"10.038598499999999,105.7765706"
848,ChIJ-wMxQ5-JoDERfIVr5F7zMxY,Cần Thơ Moto Spa - Rửa và chăm sóc xe máy chuyên nghiệp,Cửa hàng xe máy,0366 669 315,"Cần Thơ Moto Spa - Rửa và chăm sóc xe máy chuyên nghiệp, 7D Đ. Nguyễn Văn Linh, Hưng Lợi, Ninh Kiều, Cần Thơ 900000","Hưng Lợi, Ninh Kiều",7D Đ. Nguyễn Văn Linh,Cần Thơ,900000.0,"Ninh Kiều, Cần Thơ",VN,"10.022295699999999,105.7633154"
849,ChIJL3bEJeeJoDERCyxoUOPPCIw,Đồ Chơi Xe Hải Triều,Cửa hàng sửa chữa xe máy,0972 089 848,"Đồ Chơi Xe Hải Triều, 134/6 Đ. Nguyễn Văn Cừ, Phường An Khánh, Ninh Kiều, Cần Thơ","Phường An Khánh, Ninh Kiều",134/6 Đ. Nguyễn Văn Cừ,Cần Thơ,,"Ninh Kiều, Cần Thơ",VN,"10.0411387,105.76292819999999"
854,ChIJt-RBi8aJoDERK85R2fKS49Y,Salon Ôtô xe máy Hồng Phúc 68,Đại lý ô tô,0943 558 808,"Salon Ôtô xe máy Hồng Phúc 68, 315b Đ. Nguyễn Văn Linh, Phường An Khánh, Ninh Kiều, Cần Thơ","Phường An Khánh, Ninh Kiều",315b Đ. Nguyễn Văn Linh,Cần Thơ,,"Ninh Kiều, Cần Thơ",VN,"10.0279376,105.755462"
855,ChIJnYafUjuIoDERVXsD4bDl0NE,Cửa Hàng Phụ Tùng Xe Máy Cao Phát,Đại lý xe mô tô,0292 2480 389,"Cửa Hàng Phụ Tùng Xe Máy Cao Phát, 324 Đ. 30 Tháng 4, Xuân Khánh, Ninh Kiều, Cần Thơ","Xuân Khánh, Ninh Kiều",324 Đ. 30 Tháng 4,Cần Thơ,,"Ninh Kiều, Cần Thơ",VN,"10.021958999999999,105.77080649999999"
867,ChIJiXCUhLmJoDERsWzOn24j8U4,Đồ chơi xe máy hảii bóngg,Cửa hàng sửa chữa xe máy,,"Đồ chơi xe máy hảii bóngg, 176/1 Hẻm Tổ 1-2, Hưng Lợi, Ninh Kiều, Cần Thơ","Hưng Lợi, Ninh Kiều",176/1 Hẻm Tổ 1-2,Cần Thơ,,"Ninh Kiều, Cần Thơ",VN,"10.010931399999999,105.75452299999999"
871,ChIJ7c32wWqIoDERnkLQ1lfrcH0,Tiệm Sửa Xe Máy Thành,Cửa hàng sửa chữa xe máy,0292 3890 644,"Tiệm Sửa Xe Máy Thành, 160 Đ. Nguyễn Văn Cừ, Phường An Khánh, Ninh Kiều, Cần Thơ","Phường An Khánh, Ninh Kiều",160 Đ. Nguyễn Văn Cừ,Cần Thơ,,"Ninh Kiều, Cần Thơ",VN,"10.0354839,105.7572187"
875,ChIJAxzJl92JoDERLgWj8CTPg70,Xe Máy Hiếu Tân Liên Hưng 2,Cửa hàng,0931 109 003,"Xe Máy Hiếu Tân Liên Hưng 2, 187 Hẻm 132 Đ. 3 Tháng 2, Hưng Lợi, Ninh Kiều, Cần Thơ","Hưng Lợi, Ninh Kiều",187 Hẻm 132 Đ. 3 Tháng 2,Cần Thơ,,"Ninh Kiều, Cần Thơ",VN,"10.0195767,105.7576239"
890,ChIJhwcFFLOJoDERCJFj7LfVBUE,An Binh Honda Repair Store,Cửa hàng phụ tùng xe máy,0292 3829 292,"An Binh Honda Repair Store, 143/4, Highway 1A, Ninh Kieu District, Can Tho City, An Bình, Ninh Kiều, Cần Thơ","An Bình, Ninh Kiều","143/4, Highway 1A, Ninh Kieu District, Can Tho City",Cần Thơ,,"Ninh Kiều, Cần Thơ",VN,"10.0107842,105.75092479999999"
911,ChIJ2fRd5z9joDER-dyP9qd6M6w,Cửa Hàng xe Máy 2T,Cửa hàng,,"Cửa Hàng xe Máy 2T, 18 Đường số 2, Khu dân cư, Cái Răng, Cần Thơ","Khu dân cư, Cái Răng",18 Đường số 2,Cần Thơ,,"Cái Răng, Cần Thơ",VN,"10.0024541,105.79894069999999"
912,ChIJH9FcjBOJoDERPaL-umCogZk,Cửa Hàng Xe Máy Nguyễn Khải,Đại lý xe mô tô,,"Cửa Hàng Xe Máy Nguyễn Khải, Mỹ Khánh, Phong Điền, Cần Thơ","Mỹ Khánh, Phong Điền",,Cần Thơ,,"Phong Điền, Cần Thơ",VN,"9.9962132,105.7179855"
967,ChIJM9FhLQWJoDERNUF9YamOMrk,Dũng Decal ( Dán Xe + Đồ Chơi Xe Máy,Cửa hàng sửa chữa xe máy,,"Dũng Decal ( Dán Xe + Đồ Chơi Xe Máy, 456 Nguyễn Trãi, Lê Bình, Cái Răng, Cần Thơ","Lê Bình, Cái Răng",456 Nguyễn Trãi,Cần Thơ,,"Cái Răng, Cần Thơ",VN,"10.0024342,105.74987349999999"
988,ChIJEwPbOjWIoDER66_SewF1hjI,Sửa Xe Honda Tài,Xưởng sửa chữa xe tay ga,,"Sửa Xe Honda Tài, số 519, đường tp, Hẻm 553, Hưng Lợi, Ninh Kiều, Cần Thơ","Hưng Lợi, Ninh Kiều","số 519, đường tp, Hẻm 553",Cần Thơ,,"Ninh Kiều, Cần Thơ",VN,"10.0126235,105.7606744"
994,ChIJWTW7jjaIoDER9JSqnrrWEZU,Cửa Hàng Xe Máy Tân Tín Việt,Đại lý xe mô tô,1800 1551,"Cửa Hàng Xe Máy Tân Tín Việt, 126 Đ. 3 Tháng 2, Hưng Lợi, Ninh Kiều, Cần Thơ","Hưng Lợi, Ninh Kiều",126 Đ. 3 Tháng 2,Cần Thơ,,"Ninh Kiều, Cần Thơ",VN,"10.018336699999999,105.7618677"
1025,ChIJd_QOTbKJoDERj3I3hCqVJ4U,Cửa Hàng Phụ Tùng Xe HONDA SMART,Cửa hàng phụ tùng xe máy,0345 173 413,"Cửa Hàng Phụ Tùng Xe HONDA SMART, 7A, Quốc Lộ 1A, Quận Cái Răng, An Bình, Ninh Kiều, Cần Thơ","An Bình, Ninh Kiều","7A, Quốc Lộ 1A, Quận Cái Răng",Cần Thơ,,"Ninh Kiều, Cần Thơ",VN,"10.0090092,105.7496374"
1027,ChIJHbxGrbOJoDERQKwI3Ftp_ps,Cơ Sở Sửa Xe Sài Gòn Ô Tô,Đại lý ô tô,0292 3527 939,"Cơ Sở Sửa Xe Sài Gòn Ô Tô, 13, Quốc Lộ 1A, Quận Cái Răng, An Bình, Ninh Kiều, Cần Thơ","An Bình, Ninh Kiều","13, Quốc Lộ 1A, Quận Cái Răng",Cần Thơ,,"Ninh Kiều, Cần Thơ",VN,"10.0091783,105.74985199999999"
1044,ChIJOT2MgDaIoDERfHGyhw2VYpc,Tiệm Sửa Xe Máy Châu,Cửa hàng bảo trì và sửa chữ ô tô,0915 682 228,"Tiệm Sửa Xe Máy Châu, 123 Hẻm 132 Đ. 3 Tháng 2, Hưng Lợi, Ninh Kiều, Cần Thơ","Hưng Lợi, Ninh Kiều",123 Hẻm 132 Đ. 3 Tháng 2,Cần Thơ,,"Ninh Kiều, Cần Thơ",VN,"10.017537899999999,105.7616571"
1049,ChIJe2KyvS-IoDERllGm-J43-jE,Hong Phuc Motorcycle Repairing Store,Đại lý xe mô tô,0932 804 446,"Hong Phuc Motorcycle Repairing Store, 251/32, Tran Ngoc Que Street, Ninh Kieu District, Can Tho City, Xuân Khánh, Ninh Kiều, Cần Thơ","Xuân Khánh, Ninh Kiều","251/32, Tran Ngoc Que Street, Ninh Kieu District, Can Tho City",Cần Thơ,,"Ninh Kiều, Cần Thơ",VN,"10.0207368,105.7722967"
1066,ChIJ8-D1THSJoDERn6pigtRpbWo,Tiệm rữa xe và mua bán xe 2 bánh củ,Đại lý xe gắn máy,0918 000 262,"Tiệm rữa xe và mua bán xe 2 bánh củ, 76 Đ. Phạm Ngũ Lão, Thới Bình, Ninh Kiều, Cần Thơ","Thới Bình, Ninh Kiều",76 Đ. Phạm Ngũ Lão,Cần Thơ,,"Ninh Kiều, Cần Thơ",VN,"10.0455955,105.7758078"
1070,ChIJH7m6QEeIoDER9cQkaZPat3w,Cửa Hàng Dán Xe Tạo 91B,Đại lý xe mô tô,0292 3897 834,"Cửa Hàng Dán Xe Tạo 91B, 410 QL91B, Hưng Lợi, Ninh Kiều, Cần Thơ","Hưng Lợi, Ninh Kiều",410 QL91B,Cần Thơ,,"Ninh Kiều, Cần Thơ",VN,"10.0273021,105.7572297"
1095,ChIJRXGZv8yJoDER7CIQIpN2sH0,Cửa Hàng Đồ Chơi Xe Malaysia HGT,Đại lý xe mô tô,0903 333 398,"Cửa Hàng Đồ Chơi Xe Malaysia HGT, 55K Đ. Trần Hoàng Na, Hưng Lợi, Ninh Kiều, Cần Thơ","Hưng Lợi, Ninh Kiều",55K Đ. Trần Hoàng Na,Cần Thơ,,"Ninh Kiều, Cần Thơ",VN,"10.010508999999999,105.76585399999999"
1166,ChIJNwh-phZjoDERQiA6LdrSFdk,GIVI CẦN THƠ,Cửa hàng phụ tùng xe máy,0706 946 709,"GIVI CẦN THƠ, 1A Đ. Trương Định, Tân An, Ninh Kiều, Cần Thơ 900000","Tân An, Ninh Kiều",1A Đ. Trương Định,Cần Thơ,900000.0,"Ninh Kiều, Cần Thơ",VN,"10.0360035,105.7829107"
1173,ChIJd12LoZ9ioDERPIJORn8OXa4,Tiệm Dán Xe Lâm,Cửa hàng xe máy,,"Tiệm Dán Xe Lâm, Sector 5 Highway 91, Chau Van Liem, Tân An, Ninh Kiều, Cần Thơ","Tân An, Ninh Kiều","Sector 5 Highway 91, Chau Van Liem",Cần Thơ,,"Ninh Kiều, Cần Thơ",VN,"10.031044999999999,105.78465609999999"
1175,ChIJzz8BFaBioDERd7E1CBCGkAI,Cửa Hàng Bán Phụ Tùng Xe Tay Ga,Cửa hàng phụ tùng xe máy,0292 3825 532,"Cửa Hàng Bán Phụ Tùng Xe Tay Ga, 5, Đường Nguyễn Khuyến, Quận Ninh Kiều, Tp Cần Thơ, Tân An, Ninh Kiều, Cần Thơ","Tân An, Ninh Kiều","5, Đường Nguyễn Khuyến, Quận Ninh Kiều, Tp Cần Thơ",Cần Thơ,,"Ninh Kiều, Cần Thơ",VN,"10.0337255,105.78335109999999"
1177,ChIJNT7M8HFjoDERUYG9T2W5NyY,Phụ tùng xe cường,Cửa hàng phụ tùng xe máy,,"Phụ tùng xe cường, 47 Hẻm 1 Đ. Hoàng Văn Thụ, Tân An, Ninh Kiều, Cần Thơ","Tân An, Ninh Kiều",47 Hẻm 1 Đ. Hoàng Văn Thụ,Cần Thơ,,"Ninh Kiều, Cần Thơ",VN,"10.0362645,105.78313399999999"
1180,ChIJ6x8eqSGIoDERhvi_MEmwh2A,Cửa Hàng Phụ Tùng Xe Máy Huy,Cửa hàng phụ tùng xe máy,0292 3824 626,"Cửa Hàng Phụ Tùng Xe Máy Huy, 108 Đ. 30 Tháng 4, An Lạc, Ninh Kiều, Cần Thơ","An Lạc, Ninh Kiều",108 Đ. 30 Tháng 4,Cần Thơ,,"Ninh Kiều, Cần Thơ",VN,"10.0304684,105.778482"
1181,ChIJF7wjQZ5ioDEReWgjUI5_fPw,Huynh Thuy Trung Electric Machine & Motorcycle Part Enterprise,Cửa hàng phụ tùng xe máy,0851 066 395,"Huynh Thuy Trung Electric Machine & Motorcycle Part Enterprise, 24, An Lac Market, An Lac Ward, Ninh Kieu District, Tân An, Ninh Kiều, Cần Thơ","Tân An, Ninh Kiều","24, An Lac Market, An Lac Ward, Ninh Kieu District",Cần Thơ,,"Ninh Kiều, Cần Thơ",VN,"10.028737999999999,105.7837486"
1183,ChIJK1WC851ioDER8e3sY0A1gew,Ho Viet Thanh Hai Motorcycle Welding Store,Cửa hàng bảo trì và sửa chữ ô tô,,"Ho Viet Thanh Hai Motorcycle Welding Store, 124 Nguyễn Thị Minh Khai, Street, Ninh Kiều, Cần Thơ","Street, Ninh Kiều",124 Nguyễn Thị Minh Khai,Cần Thơ,,"Ninh Kiều, Cần Thơ",VN,"10.0259079,105.7824455"
