,place_id,name,main_category,phone,address,address_ward,address_street,address_city,address_postal_code,address_state,address_country_code,coordinates
0,ChIJJeaXxf6JoDER4-1cQ49XMHk,CellphoneS Cần Thơ,Cửa hàng máy tính,028 7100 9272,"CellphoneS Cần Thơ, 272 Đ. 30 Tháng 4, Hưng Lợi, Ninh Kiều, Cần Thơ 900000","Hưng Lợi, Ninh Kiều",272 Đ. 30 Tháng 4,Cần Thơ,900000.0,"Ninh Kiều, Cần Thơ",VN,"10.0200224,105.76805619999999"
1,ChIJyShuuTCIoDERJ0vRVxlMw3U,Siêu thị Thế Giới Di Động,Cửa hàng điện thoại di động,1900 232460,"Siêu thị Thế Giới Di Động, 217 Hẻm 132 Đ. 3 Tháng 2, P, Ninh Kiều, Cần Thơ 94000","P, Ninh Kiều",217 Hẻm 132 Đ. 3 Tháng 2,Cần Thơ,94000.0,"Ninh Kiều, Cần Thơ",VN,"10.0215374,105.7653174"
15,ChIJb3RfZzqIoDER4PV_KrSl5Hc,Di Động Rẻ by Di Động Thông Minh,Cửa hàng điện thoại di động,0911 108 855,"Di Động Rẻ by Di Động Thông Minh, 184A Đ. 3 Tháng 2, Hưng Lợi, Ninh Kiều, Cần Thơ","Hưng Lợi, Ninh Kiều",184A Đ. 3 Tháng 2,Cần Thơ,,"Ninh Kiều, Cần Thơ",VN,"10.0231358,105.76648089999999"
30,ChIJ30ZkSzCIoDERIqc0-CaeQd8,Siêu Thị Thế Giới Di Động,Cửa hàng điện thoại di động,1900 232460,"Siêu Thị Thế Giới Di Động, 84-86A Đ. 30 Tháng 4, An Lạc, Ninh Kiều, Cần Thơ 920000","An Lạc, Ninh Kiều",84-86A Đ. 30 Tháng 4,Cần Thơ,920000.0,"Ninh Kiều, Cần Thơ",VN,"10.0297656,105.7797842"
41,ChIJl6LSChOIoDERSRE1820HPNM,Ép kính điện thoại Nguyễn An Cần Thơ,Cửa hàng điện thoại di động,0888 797 334,"Ép kính điện thoại Nguyễn An Cần Thơ, 48 Đ. Mậu Thân, An Nghiệp, Ninh Kiều, Cần Thơ","An Nghiệp, Ninh Kiều",48 Đ. Mậu Thân,Cần Thơ,,"Ninh Kiều, Cần Thơ",VN,"10.040854399999999,105.7678384"
44,ChIJOznVciCIoDERmu213UzZpks,Trung tâm Mua sắm Nguyễn Kim,Cửa hàng bán đồ điện tử,,"Trung tâm Mua sắm Nguyễn Kim, 2 Đ. 30 Tháng 4, An Phú, Ninh Kiều, Cần Thơ","An Phú, Ninh Kiều",2 Đ. 30 Tháng 4,Cần Thơ,,"Ninh Kiều, Cần Thơ",VN,"10.0315345,105.78137079999999"
45,ChIJvSnTPSZjoDEROjZ3gp-p80I,duongphi.com - Cần Thơ,Cửa hàng điện thoại di động,1900 3121,"duongphi.com - Cần Thơ, 76 Nguyễn Trãi, An Hội, Ninh Kiều, Cần Thơ 94000","An Hội, Ninh Kiều",76 Nguyễn Trãi,Cần Thơ,94000.0,"Ninh Kiều, Cần Thơ",VN,"10.0410278,105.7847386"
46,ChIJoWjOraFioDERMFNgcvEgUdo,Siêu thị Điện máy XANH,Cửa hàng bán đồ điện tử,1900 232461,"Siêu thị Điện máy XANH, Số 08 Hòa Bình, P, Ninh Kiều, 94000","P, Ninh Kiều",Số 08 Hòa Bình,Cần Thơ,94000.0,"Ninh Kiều, Cần Thơ",VN,"10.034792,105.78534839999999"
48,ChIJSYbJvwOIoDER4BWs2D8l9bw,Siêu thị Thế Giới Di Động,Cửa hàng điện thoại di động,1900 232460,"Siêu thị Thế Giới Di Động, 35B Đ. Cách Mạng Tháng 8, Thới Bình, Ninh Kiều, Cần Thơ 920000","Thới Bình, Ninh Kiều",35B Đ. Cách Mạng Tháng 8,Cần Thơ,920000.0,"Ninh Kiều, Cần Thơ",VN,"10.0476104,105.777507"
49,ChIJV5IfL6lioDERqRBqd3ttzgI,Siêu Thị Điện Máy Nội Thất Chợ Lớn,Cửa hàng bán đồ điện tử,028 3856 3388,"Siêu Thị Điện Máy Nội Thất Chợ Lớn, 112 Trần Phú, Cái Khế, Ninh Kiều, Cần Thơ 90000","Cái Khế, Ninh Kiều",112 Trần Phú,Cần Thơ,90000.0,"Ninh Kiều, Cần Thơ",VN,"10.0474979,105.7830188"
51,ChIJyxFsbB2IoDERMDa-beoiL3Y,Trung Tâm Sửa Chữa Điện Thoại Kim Ánh,Cửa hàng điện thoại di động,0939 967 386,"Trung Tâm Sửa Chữa Điện Thoại Kim Ánh, 306C Đ. Nguyễn Văn Linh, Phường An Khánh, Ninh Kiều, Cần Thơ","Phường An Khánh, Ninh Kiều",306C Đ. Nguyễn Văn Linh,Cần Thơ,,"Ninh Kiều, Cần Thơ",VN,"10.0297641,105.7528059"
59,ChIJPw1xhbRjoDERnAjR8eGYBuM,102 Store,Cửa hàng điện thoại di động,0909 885 102,"102 Store, 27 Phan Đình Phùng, Tân An, Ninh Kiều, Cần Thơ","Tân An, Ninh Kiều",27 Phan Đình Phùng,Cần Thơ,,"Ninh Kiều, Cần Thơ",VN,"10.0334082,105.78701319999999"
61,ChIJ4dJkaA-IoDER9-afKI7oMcw,"Thành Mobile - sửa điện thoại cần thơ, thay kính điện thoại lấy liền tại cần thơ,thay Pin",Dịch vụ sửa chữa điện thoại,0988 888 367,"Thành Mobile - sửa điện thoại cần thơ, thay kính điện thoại lấy liền tại cần thơ,thay Pin, tp, 188 Đ. Nguyễn Văn Cừ, An Hoà, Ninh Kiều, Cần Thơ 900000","An Hoà, Ninh Kiều","tp, 188 Đ. Nguyễn Văn Cừ",Cần Thơ,900000.0,"Ninh Kiều, Cần Thơ",VN,"10.048066,105.7695638"
76,ChIJryMggh2IoDER8s2MYHn5x5c,Showroom iTamLoan,Cửa hàng điện thoại di động,1900 6459,"Showroom iTamLoan, 46-48 Trần Văn Khéo, An Hội, Ninh Kiều, Cần Thơ 900000","An Hội, Ninh Kiều",46-48 Trần Văn Khéo,Cần Thơ,900000.0,"Ninh Kiều, Cần Thơ",VN,"10.0448598,105.7846984"
80,ChIJQ5kf7V-JoDERyB1ukcK7wu8,Hoàng Hà Mobile,Cửa hàng điện thoại di động,0828 522 255,"Hoàng Hà Mobile, 221 Đ. 3 Tháng 2, Hưng Lợi, Ninh Kiều, Cần Thơ 900000","Hưng Lợi, Ninh Kiều",221 Đ. 3 Tháng 2,Cần Thơ,900000.0,"Ninh Kiều, Cần Thơ",VN,"10.021990299999999,105.7655448"
82,ChIJZe9nlBGIoDERHj-QSA4szpY,"Siêu thị Điện máy XANH Mậu Thân, Cần Thơ",Cửa hàng bán đồ điện tử,1900 232461,"Siêu thị Điện máy XANH Mậu Thân, Cần Thơ, 43 Đ. Mậu Thân, An Hoà, Ninh Kiều, Cần Thơ 94000","An Hoà, Ninh Kiều",43 Đ. Mậu Thân,Cần Thơ,94000.0,"Ninh Kiều, Cần Thơ",VN,"10.0421639,105.76616879999999"
83,ChIJj3Ntc0eJoDERIjmPNzf-jHE,Cửa hàng Điện Thoại Hoàng Long,Cửa hàng điện thoại di động,0934 175 111,"Cửa hàng Điện Thoại Hoàng Long, 13 Đ. Trần Ngọc Quế, Xuân Khánh, Ninh Kiều, Cần Thơ 920000","Xuân Khánh, Ninh Kiều",13 Đ. Trần Ngọc Quế,Cần Thơ,920000.0,"Ninh Kiều, Cần Thơ",VN,"10.0223747,105.7701824"
98,ChIJNR__MDeIoDERrVEw_HflcEM,"Siêu Thị Điện Thoại, Laptop Phương Tùng",Cửa hàng điện thoại di động,1800 6869,"Siêu Thị Điện Thoại, Laptop Phương Tùng, 211 Đ. 3 Tháng 2, Hưng Lợi, Ninh Kiều, Cần Thơ 940000","Hưng Lợi, Ninh Kiều",211 Đ. 3 Tháng 2,Cần Thơ,940000.0,"Ninh Kiều, Cần Thơ",VN,"10.021138599999999,105.7650311"
105,ChIJBc5lRxiIoDERwu6OQH6S8JA,Công Ty TNHH Điện Tử Tin Học Danh Hùng,Hệ thống camera quan sát,0907 830 833,"Công Ty TNHH Điện Tử Tin Học Danh Hùng, 37 Nguyễn Cư Trinh, An Phú, Ninh Kiều, Cần Thơ 94000","An Phú, Ninh Kiều",37 Nguyễn Cư Trinh,Cần Thơ,94000.0,"Ninh Kiều, Cần Thơ",VN,"10.0367073,105.77322129999999"
106,ChIJYYvNCz2JoDERIkD_ETEpRb4,"Hoàng Anh Mobile - Cửa hàng bán lẻ điện thoại di động, smartphone, phụ kiện chính hãng Cần Thơ.",Cửa hàng điện thoại di động,0941 944 448,"Hoàng Anh Mobile - Cửa hàng bán lẻ điện thoại di động, smartphone, phụ kiện chính hãng Cần Thơ., 73 Đ. Cách Mạng Tháng 8, An Hoà, Ninh Kiều, Cần Thơ","An Hoà, Ninh Kiều",73 Đ. Cách Mạng Tháng 8,Cần Thơ,,"Ninh Kiều, Cần Thơ",VN,"10.0500803,105.7751681"
119,ChIJOSN4beVjoDERk-nVpeDzRIc,102 Store - Phụ kiện điện thoại cần thơ,Cửa hàng phụ kiện điện thoại di động,0918 888 874,"102 Store - Phụ kiện điện thoại cần thơ, 45 Đ. Xô Viết Nghệ Tĩnh, An Hội, Ninh Kiều, Cần Thơ","An Hội, Ninh Kiều",45 Đ. Xô Viết Nghệ Tĩnh,Cần Thơ,,"Ninh Kiều, Cần Thơ",VN,"10.0389807,105.7831532"
134,ChIJ4_en5CaIoDERIra0UJbk6Vo,Điện Tử Duy Khôi,Cửa hàng bán đồ điện tử,0837 150 593,"Điện Tử Duy Khôi, 149/5 Đ. Huỳnh Thúc Kháng, An Nghiệp, Ninh Kiều, Cần Thơ","An Nghiệp, Ninh Kiều",149/5 Đ. Huỳnh Thúc Kháng,Cần Thơ,,"Ninh Kiều, Cần Thơ",VN,"10.0386828,105.7727843"
136,ChIJeR6K6B6IoDERnRz305chHuQ,Nhựt Trân,Cửa hàng bán đồ điện tử,0918 738 383,"Nhựt Trân, 112/2 Nguyễn Văn Trỗi, An Nghiệp, Ninh Kiều, Cần Thơ 900000","An Nghiệp, Ninh Kiều",112/2 Nguyễn Văn Trỗi,Cần Thơ,900000.0,"Ninh Kiều, Cần Thơ",VN,"10.0372393,105.77189279999999"
137,ChIJ2Q8VQRqIoDER8BuXEZsciGM,Tứ Quí Care - Sửa chữa và thay kính điện thoại Cần Thơ,Cửa hàng điện thoại di động,0943 498 269,"Tứ Quí Care - Sửa chữa và thay kính điện thoại Cần Thơ, 2B Đ. Mậu Thân, An Phú, Ninh Kiều, Cần Thơ 94000","An Phú, Ninh Kiều",2B Đ. Mậu Thân,Cần Thơ,94000.0,"Ninh Kiều, Cần Thơ",VN,"10.033284799999999,105.7743234"
141,ChIJ90mWDahioDERpwoy0Z9tkpo,Phụ Kiện - Linh Kiện - Ép Kính | Hùng Phát,Công ty điện thoại,0292 6262 929,"Phụ Kiện - Linh Kiện - Ép Kính | Hùng Phát, 40 Trần Văn Khéo, An Hội, Ninh Kiều, Cần Thơ 900000","An Hội, Ninh Kiều",40 Trần Văn Khéo,Cần Thơ,900000.0,"Ninh Kiều, Cần Thơ",VN,"10.0440056,105.78326299999999"
144,ChIJfZMwM2pjoDERorvVy-bfXr0,Ken Táo,Cửa hàng điện thoại di động,0858 585 585,"Ken Táo, 9 Đ. Nguyễn Văn Cừ, An Hoà, Ninh Kiều, Cần Thơ","An Hoà, Ninh Kiều",9 Đ. Nguyễn Văn Cừ,Cần Thơ,,"Ninh Kiều, Cần Thơ",VN,"10.051409699999999,105.7734218"
148,ChIJT0_B6xCJoDERnUsB8v6TImw,"Phukien4U.vn - Phụ kiện điện thoại chính hãng, Sửa điện thoại tại Cần Thơ",Cửa hàng,0337 479 669,"Phukien4U.vn - Phụ kiện điện thoại chính hãng, Sửa điện thoại tại Cần Thơ, 90A/3 Đường 3/2, P. An Bình, Q, Ninh Kiều, Cần Thơ","An Bình, Ninh Kiều","90A/3 Đường 3/2, P. An Bình, Q",Cần Thơ,,"Ninh Kiều, Cần Thơ",VN,"10.010652,105.7513761"
153,ChIJ28skeBSJoDERZ_hxVN31Yow,Di Động Việt,Cửa hàng điện thoại di động,1800 6018,"Di Động Việt, 24B Nguyễn Trãi, Thới Bình, Ninh Kiều, Cần Thơ 900000","Thới Bình, Ninh Kiều",24B Nguyễn Trãi,Cần Thơ,900000.0,"Ninh Kiều, Cần Thơ",VN,"10.045194799999999,105.7804748"
156,ChIJddwY9YGJoDERthmbXWw-tYk,CƯỜNG MOBILE CẦN THƠ,Cửa hàng điện thoại di động,0911 774 444,"CƯỜNG MOBILE CẦN THƠ, 119 Xô Viết Nghĩa Tĩnh, P, Ninh Kiều, Cần Thơ 900000","P, Ninh Kiều",119 Xô Viết Nghĩa Tĩnh,Cần Thơ,900000.0,"Ninh Kiều, Cần Thơ",VN,"10.0407406,105.7815342"
173,ChIJayLS8CCIoDERNPdYWqLPIfY,Phụ Kiện Số - 133A Xô Viết Nghệ Tỉnh,Cửa hàng phụ kiện điện thoại di động,0292 6544 134,"Phụ Kiện Số - 133A Xô Viết Nghệ Tỉnh, 133A Đ. Xô Viết Nghệ Tĩnh, An Cư, Ninh Kiều, Cần Thơ 94000","An Cư, Ninh Kiều",133A Đ. Xô Viết Nghệ Tĩnh,Cần Thơ,94000.0,"Ninh Kiều, Cần Thơ",VN,"10.0408771,105.7812994"
177,ChIJDcMWcAiJoDERqzha_s_kEPI,Mạnh Cường Mobile Cần Thơ,Cửa hàng bán đồ điện tử,0912 446 646,"Mạnh Cường Mobile Cần Thơ, 24 Hùng Vương, Thới Bình, Ninh Kiều, Cần Thơ","Thới Bình, Ninh Kiều",24 Hùng Vương,Cần Thơ,,"Ninh Kiều, Cần Thơ",VN,"10.044763,105.77918009999999"
178,ChIJW5tZ98OJoDERtk4AJA4iDZM,Siêu thị Điện máy XANH,Cửa hàng bán đồ điện tử,1900 232461,"Siêu thị Điện máy XANH, 01 Bis, KDC, 91B Đ. Nguyễn Văn Linh, Phường An Khánh, Ninh Kiều, Cần Thơ 94000","Phường An Khánh, Ninh Kiều","01 Bis, KDC, 91B Đ. Nguyễn Văn Linh",Cần Thơ,94000.0,"Ninh Kiều, Cần Thơ",VN,"10.025659,105.758483"
179,ChIJg4-7BgiIoDERKfoitjToKXo,Siêu Thị Thế Giới Di Động,Cửa hàng điện thoại di động,0292 3893 321,"Siêu Thị Thế Giới Di Động, 49, Đường Ninh Kiều, Đ. Cách Mạng Tháng 8, An Hoà, Ninh Kiều, Cần Thơ","An Hoà, Ninh Kiều","49, Đường Ninh Kiều, Đ. Cách Mạng Tháng 8",Cần Thơ,,"Ninh Kiều, Cần Thơ",VN,"10.053863999999999,105.7712846"
180,ChIJWaio91eJoDERVq22PtIr8CA,N. HOÁ STORE,Cửa hàng điện thoại di động,0565 678 928,"N. HOÁ STORE, 04 Đ. 3 Tháng 2, Hưng Lợi, Ninh Kiều, Cần Thơ","Hưng Lợi, Ninh Kiều",04 Đ. 3 Tháng 2,Cần Thơ,,"Ninh Kiều, Cần Thơ",VN,"10.0128069,105.75475829999999"
181,ChIJb_3bKaBioDERK0_UFr-jABM,Cửa hàng điện tử & Điện Gia Dụng Trần Phát,Cửa hàng bán đồ điện tử,0292 3827 287,"Cửa hàng điện tử & Điện Gia Dụng Trần Phát, 83 Võ Văn Tần, Tân An, Ninh Kiều, Cần Thơ","Tân An, Ninh Kiều",83 Võ Văn Tần,Cần Thơ,,"Ninh Kiều, Cần Thơ",VN,"10.0325227,105.7844825"
183,ChIJ6ZHcPWCHoDER0fhpB8G_iOA,Siêu thị Điện máy XANH,Cửa hàng bán đồ điện tử,1900 232461,"Siêu thị Điện máy XANH, Hẻm 115 Cách Mạng Tháng Tám, An Thới, Bình Thủy, Cần Thơ 94000","An Thới, Bình Thủy",Hẻm 115 Cách Mạng Tháng Tám,Cần Thơ,94000.0,"Bình Thủy, Cần Thơ",VN,"10.055264,105.770423"
185,ChIJo4djNuxjoDERyY7mSiOQ7zQ,102 Store - Điện Thoại Cần Thơ,Cửa hàng bán buôn,0909 885 102,"102 Store - Điện Thoại Cần Thơ, 27 Phan Đình Phùng, Tân An, Ninh Kiều, Cần Thơ","Tân An, Ninh Kiều",27 Phan Đình Phùng,Cần Thơ,,"Ninh Kiều, Cần Thơ",VN,"10.033407799999999,105.7870112"
186,ChIJnQUUTfZjoDER-OI5IkSgPaM,Cân Điện Tử Cần Thơ- Cân Điện Tử Miền Tây ( cty TNHH Cân Điện Tử Tây Đô),Cửa hàng bán đồ điện tử,0919 606 444,"Cân Điện Tử Cần Thơ- Cân Điện Tử Miền Tây ( cty TNHH Cân Điện Tử Tây Đô), 173 Phan Đình Phùng, Tân An, Ninh Kiều, Cần Thơ","Tân An, Ninh Kiều",173 Phan Đình Phùng,Cần Thơ,,"Ninh Kiều, Cần Thơ",VN,"10.0279702,105.78628599999999"
187,ChIJ_yyx3neJoDERxWyhiGYGrRI,Vy Shop ( phụ kiện điện thoại),Cửa hàng điện thoại di động,,"Vy Shop ( phụ kiện điện thoại), 49 Đ. 3 Tháng 2, Xuân Khánh, Ninh Kiều, Cần Thơ","Xuân Khánh, Ninh Kiều",49 Đ. 3 Tháng 2,Cần Thơ,,"Ninh Kiều, Cần Thơ",VN,"10.0283824,105.7727596"
197,ChIJJ93aDV-JoDERm1_oRI5bumU,"Tứ Quí Care 2 - Sửa chữa điện thoại, thay kính điện thoại tại Cần Thơ",Cửa hàng sửa chữa điện thoại di động,0901 044 299,"Tứ Quí Care 2 - Sửa chữa điện thoại, thay kính điện thoại tại Cần Thơ, 121 Đ. Xô Viết Nghệ Tĩnh, An Cư, Ninh Kiều, Cần Thơ 94000","An Cư, Ninh Kiều",121 Đ. Xô Viết Nghệ Tĩnh,Cần Thơ,94000.0,"Ninh Kiều, Cần Thơ",VN,"10.040781299999999,105.78150169999999"
206,ChIJx4v8alyJoDERr83Ud5Q9djA,Siêu thị TopZone - Hệ thống cửa hàng Apple chính hãng 100%,Cửa hàng điện thoại di động,1900 969642,"Siêu thị TopZone - Hệ thống cửa hàng Apple chính hãng 100%, Số 08 Hoà Bình, P, Ninh Kiều, Cần Thơ 94000","P, Ninh Kiều",Số 08 Hoà Bình,Cần Thơ,94000.0,"Ninh Kiều, Cần Thơ",VN,"10.0348448,105.78539459999999"
221,ChIJX-ByD9-JoDERaa3MEVycKVY,Siêu thị Thế Giới Di Động,Cửa hàng điện thoại di động,1900 232460,"Siêu thị Thế Giới Di Động, 403 Đ. Nguyễn Văn Cừ, An Hoà, Ninh Kiều, Cần Thơ 94000","An Hoà, Ninh Kiều",403 Đ. Nguyễn Văn Cừ,Cần Thơ,94000.0,"Ninh Kiều, Cần Thơ",VN,"10.043965,105.76517"
226,ChIJsYj4zh-IoDERk7jNKAjf-X4,Công Ty Tnhh Thương Mại Dịch Vụ Tin Học Điện Tử An Phát,Cửa hàng bán đồ điện tử,,"Công Ty Tnhh Thương Mại Dịch Vụ Tin Học Điện Tử An Phát, 69 Đ. Trương Định, Tân An, Ninh Kiều, Cần Thơ","Tân An, Ninh Kiều",69 Đ. Trương Định,Cần Thơ,,"Ninh Kiều, Cần Thơ",VN,"10.034869299999999,105.7811737"
227,ChIJq6Zsq0GJoDER_gnuWOFv8rc,Điện thoại di động Dương Linh,Cửa hàng điện thoại di động,0932 896 860,"Điện thoại di động Dương Linh, 388A/35, Nguyễn Văn Cừ Nối Dài, KV2, Ninh Kiều, Cần Thơ 900000","KV2, Ninh Kiều","388A/35, Nguyễn Văn Cừ Nối Dài",Cần Thơ,900000.0,"Ninh Kiều, Cần Thơ",VN,"10.0352841,105.76272039999999"
237,ChIJ0yts0OaJoDER8QpOlk31LOw,Ép Kính Chấn Phong Cần Thơ,Cửa hàng điện thoại di động,0901 042 575,"Ép Kính Chấn Phong Cần Thơ, 112/46 Hẻm 112 Đ. 3 Tháng 2, Hưng Lợi, Ninh Kiều, Cần Thơ 900000","Hưng Lợi, Ninh Kiều",112/46 Hẻm 112 Đ. 3 Tháng 2,Cần Thơ,900000.0,"Ninh Kiều, Cần Thơ",VN,"10.0180104,105.759158"
242,ChIJk5_lsP1joDERug58n3lDMDo,Di Động Cần Thơ,Cửa hàng sửa chữa điện thoại di động,0945 667 661,"Di Động Cần Thơ, Hoàng Văn Thụ, An Hội, Ninh Kiều, Cần Thơ 92000","An Hội, Ninh Kiều",Hoàng Văn Thụ,Cần Thơ,92000.0,"Ninh Kiều, Cần Thơ",VN,"10.0413128,105.7822243"
257,ChIJ0bx9a5yJoDER7YDHVJmbP-0,Phụ Kiện Điện Thoại Khá Rẻ,Cửa hàng bán đồ điện tử,0787 880 078,"Phụ Kiện Điện Thoại Khá Rẻ, 87a Đ. Phan Đăng Lưu, Thới Bình, Ninh Kiều, Cần Thơ","Thới Bình, Ninh Kiều",87a Đ. Phan Đăng Lưu,Cần Thơ,,"Ninh Kiều, Cần Thơ",VN,"10.045544099999999,105.778903"
258,ChIJ8bZ5gzyJoDERTIlblmmgcKc,Viện Di Động,Cửa hàng điện thoại di động,1800 6729,"Viện Di Động, 24 Nguyễn Trãi, Thới Bình, Ninh Kiều, Cần Thơ 900000","Thới Bình, Ninh Kiều",24 Nguyễn Trãi,Cần Thơ,900000.0,"Ninh Kiều, Cần Thơ",VN,"10.045246299999999,105.78046619999999"
259,ChIJCcqnoxGIoDERagCNg-7ZcBQ,Thế Giới Di Động,Cửa hàng điện thoại di động,028 3810 2102,"Thế Giới Di Động, 43 Đ. Mậu Thân, P, Ninh Kiều, Cần Thơ","P, Ninh Kiều",43 Đ. Mậu Thân,Cần Thơ,,"Ninh Kiều, Cần Thơ",VN,"10.0421941,105.7661974"
270,ChIJ52EyFgWJoDERF5mc8jCw_HQ,Shop Thuốc lá điện tử Pod Tinh dầu Vape chính hãng giá rẻ cần thơ,Siêu thị,0974 616 749,"Shop Thuốc lá điện tử Pod Tinh dầu Vape chính hãng giá rẻ cần thơ, Hẻm 4 Đ. Bà Huyện Thanh Quan, Thới Bình, Ninh Kiều, Cần Thơ","Thới Bình, Ninh Kiều",Hẻm 4 Đ. Bà Huyện Thanh Quan,Cần Thơ,,"Ninh Kiều, Cần Thơ",VN,"10.0462262,105.77905559999999"
271,ChIJD-R2PEGHoDERJOeICVj15FU,Vinh Shop - Điện Thoại Cũ Giá Rẻ,Cửa hàng điện thoại di động,0989 686 090,"Vinh Shop - Điện Thoại Cũ Giá Rẻ, 381K Đ. Trần Nam Phú, Phường An Khánh, Ninh Kiều, Cần Thơ","Phường An Khánh, Ninh Kiều",381K Đ. Trần Nam Phú,Cần Thơ,,"Ninh Kiều, Cần Thơ",VN,"10.0334301,105.7603357"
291,ChIJC-p35hSJoDERCgt90J2vpk8,Điện Thoại THANH BÌNH,Cửa hàng điện thoại di động,0918 024 333,"Điện Thoại THANH BÌNH, 185 Huỳnh Cương, An Cư, Ninh Kiều, Cần Thơ","An Cư, Ninh Kiều",185 Huỳnh Cương,Cần Thơ,,"Ninh Kiều, Cần Thơ",VN,"10.0369742,105.7813733"
305,ChIJbbJKgJOJoDER4RmY-djHiZQ,Tiên Tiên Apple,Cửa hàng bán đồ điện tử,0818 825 333,"Tiên Tiên Apple, 85 Đ. Đề Thám, An Cư, Ninh Kiều, Cần Thơ","An Cư, Ninh Kiều",85 Đ. Đề Thám,Cần Thơ,,"Ninh Kiều, Cần Thơ",VN,"10.0346618,105.7815748"
306,ChIJU6KnAVWJoDERjX_Rp0bfmmM,Cữa Hàng Điện thoại Laptop HKP,Cửa hàng điện thoại di động,,"Cữa Hàng Điện thoại Laptop HKP, 53a1 đường bờ hồ bún xáng, Phường An Khánh, Ninh Kiều, Cần Thơ","Phường An Khánh, Ninh Kiều",53a1 đường bờ hồ bún xáng,Cần Thơ,,"Ninh Kiều, Cần Thơ",VN,"10.0326828,105.7632496"
310,ChIJLar8PjpjoDEROgIvMoIJ0lI,VIP Mobile,Cửa hàng điện thoại di động,0567 402 222,"VIP Mobile, 74 Đ. Xô Viết Nghệ Tĩnh, An Cư, Ninh Kiều, Cần Thơ","An Cư, Ninh Kiều",74 Đ. Xô Viết Nghệ Tĩnh,Cần Thơ,,"Ninh Kiều, Cần Thơ",VN,"10.0363595,105.7855137"
311,ChIJv7bo1dSJoDERZ6q389eJxto,Phụ Kiện Phú LP,Cửa hàng phụ kiện điện thoại di động,0916 265 168,"Phụ Kiện Phú LP, 13a Đ. Nguyễn Văn Linh, Hưng Lợi, Ninh Kiều, Cần Thơ","Hưng Lợi, Ninh Kiều",13a Đ. Nguyễn Văn Linh,Cần Thơ,,"Ninh Kiều, Cần Thơ",VN,"10.022693799999999,105.7627241"
312,ChIJyVesitCJoDERnuwIqMuNQfc,Cửa Hàng Sửa Điện Thoại - Laptop Lê Chương,Dịch vụ sửa chữa điện thoại,0945 779 525,"Cửa Hàng Sửa Điện Thoại - Laptop Lê Chương, 7b QL91B, Hưng Lợi, Ninh Kiều, Cần Thơ 900000","Hưng Lợi, Ninh Kiều",7b QL91B,Cần Thơ,900000.0,"Ninh Kiều, Cần Thơ",VN,"10.022091,105.76361879999999"
314,ChIJK4XTRimJoDERSrSsmyPQEfQ,Sim số đẹp sửa điện thoại Tài Nam Cần Thơ,Cửa hàng điện thoại di động,0292 3751 494,"Sim số đẹp sửa điện thoại Tài Nam Cần Thơ, 216 Đ. 30 Tháng 4, P, Ninh Kiều, Cần Thơ 900000","P, Ninh Kiều",216 Đ. 30 Tháng 4,Cần Thơ,900000.0,"Ninh Kiều, Cần Thơ",VN,"10.026808299999999,105.77632559999999"
329,ChIJwVV8KgOIoDERGWpWNNwwpbU,Trung Tâm Giải Mã Điện Thoại Chuyên Nghiệp,Cửa hàng điện thoại di động,0909 057 057,"Trung Tâm Giải Mã Điện Thoại Chuyên Nghiệp, 51, Đường Đ. Đinh Tiên Hoàng, An Hội, Ninh Kiều, Cần Thơ","An Hội, Ninh Kiều","51, Đường Đ. Đinh Tiên Hoàng",Cần Thơ,,"Ninh Kiều, Cần Thơ",VN,"10.043779599999999,105.77909869999999"
336,ChIJH1OXRBSJoDER0L-RBz2juSI,Cửa hàng 108 STORE - Điện thoại iPhone giá rẻ Cần Thơ,Cửa hàng điện thoại di động,0981 180 108,"Cửa hàng 108 STORE - Điện thoại iPhone giá rẻ Cần Thơ, 108/4 Hẻm 108 Đ. 30 Tháng 4, An Lạc, Ninh Kiều, Cần Thơ 94000","An Lạc, Ninh Kiều",108/4 Hẻm 108 Đ. 30 Tháng 4,Cần Thơ,94000.0,"Ninh Kiều, Cần Thơ",VN,"10.0293653,105.7791659"
342,ChIJB5aFsyaIoDERnX8XutIZUmI,Shop Mobile Tài Nam 2,Cửa hàng điện thoại di động,0909 421 072,"Shop Mobile Tài Nam 2, 165 Đ. 30 Tháng 4, Xuân Khánh, Ninh Kiều, Cần Thơ","Xuân Khánh, Ninh Kiều",165 Đ. 30 Tháng 4,Cần Thơ,,"Ninh Kiều, Cần Thơ",VN,"10.0270272,105.777194"
344,ChIJMVVlxUiIoDER3HSBNgd4eg8,Phát mobile,Cửa hàng điện thoại di động,,"Phát mobile, Phường An Khánh, Ninh Kiều, Cần Thơ","Phường An Khánh, Ninh Kiều",,Cần Thơ,,"Ninh Kiều, Cần Thơ",VN,"10.021227999999999,105.75353"
356,ChIJTWv1-uCJoDERXFyylhiyC_U,Thạnh Mobile,Cửa hàng sửa chữa điện thoại di động,0939 700 345,"Thạnh Mobile, 12/10 Đ. 3 Tháng 2, Hưng Lợi, Ninh Kiều, Cần Thơ 900000","Hưng Lợi, Ninh Kiều",12/10 Đ. 3 Tháng 2,Cần Thơ,900000.0,"Ninh Kiều, Cần Thơ",VN,"10.025972399999999,105.7658652"
359,ChIJVRnVyJFioDERhZEi1StR09w,Cửa hàng điện thoại di động Hoa An,Cửa hàng điện thoại di động,0907 941 624,"Cửa hàng điện thoại di động Hoa An, 64 QL1A, Hưng Phú, Cái Răng, Cần Thơ","Hưng Phú, Cái Răng",64 QL1A,Cần Thơ,,"Cái Răng, Cần Thơ",VN,"10.0219557,105.79740149999999"
360,ChIJD4JejTaIoDERX5R-5gtyslE,Cửa Hàng Điện Thoại Hàn Quốc,Cửa hàng điện thoại di động,0966 577 752,"Cửa Hàng Điện Thoại Hàn Quốc, 6, Ba Tháng Hai, Phường Hưng Lợi, Quận Ninh Kiều, Thành Phố Cần Thơ, Hưng Lợi, Ninh Kiều, Cần Thơ","Hưng Lợi, Ninh Kiều","6, Ba Tháng Hai, Phường Hưng Lợi, Quận Ninh Kiều, Thành Phố Cần Thơ",Cần Thơ,,"Ninh Kiều, Cần Thơ",VN,"10.018568799999999,105.761596"
369,ChIJ3xxZuRKIoDERjiFoju3B2Po,Cửa hàng Máy Tính và Điện Thoại Công Nghệ Số,Cửa hàng bán đồ điện tử,0363 318 823,"Cửa hàng Máy Tính và Điện Thoại Công Nghệ Số, 161H5/13, Hẻm liên tổ 12-13-14-15-16-17-18-19-20, Phường An Khánh, Ninh Kiều, Cần Thơ","Phường An Khánh, Ninh Kiều","161H5/13, Hẻm liên tổ 12-13-14-15-16-17-18-19-20",Cần Thơ,,"Ninh Kiều, Cần Thơ",VN,"10.0434782,105.75962709999999"
388,ChIJI63Gw7uJoDERryOdqLzv6qk,Công ty TNHH TM&DV Điện tử Uy Tín,Cửa hàng bán đồ điện tử,0948 729 669,"2QP7+8XC Công ty TNHH TM&DV Điện tử Uy Tín, Nguyễn Văn Cừ Nối Dài, Xuân Khánh, Ninh Kiều, Cần Thơ 900000","Xuân Khánh, Ninh Kiều","2QP7+8XC, Nguyễn Văn Cừ Nối Dài",Cần Thơ,900000.0,"Ninh Kiều, Cần Thơ",VN,"10.035819,105.7649005"
392,ChIJlYSemZ5ioDERpGvDo41rElw,Hoàng Nguyên - Cửa Hàng ĐTDĐ Hổ Trợ Trả Góp,Cửa hàng điện thoại di động,0909 662 982,"Hoàng Nguyên - Cửa Hàng ĐTDĐ Hổ Trợ Trả Góp, 201 Phan Đình Phùng, Tân An, Ninh Kiều, Cần Thơ","Tân An, Ninh Kiều",201 Phan Đình Phùng,Cần Thơ,,"Ninh Kiều, Cần Thơ",VN,"10.0275517,105.7863263"
393,ChIJVQPKWYmJoDERFNDSIQj1Fz8,Cửa Hàng Điện Thoại Di Động BOL GA,Cửa hàng,0855 656 565,"Cửa Hàng Điện Thoại Di Động BOL GA, ĐC:, 10 Đ. Nguyễn Văn Linh, Hưng Lợi, Ninh Kiều, Cần Thơ","Hưng Lợi, Ninh Kiều","ĐC:, 10 Đ. Nguyễn Văn Linh",Cần Thơ,,"Ninh Kiều, Cần Thơ",VN,"10.0262008,105.75838329999999"
404,ChIJacsC0hOIoDERvs0gS2yOwMQ,Tiệm Sửa Chữa Điện Tử Lâm,Cửa hàng bán đồ điện tử,0939 983 988,"Tiệm Sửa Chữa Điện Tử Lâm, 131/B5, Nguyễn Văn Cừ Nối Dài, Phường An Hòa, Quận Ninh Kiều, Phường An Khánh, Ninh Kiều, Cần Thơ","Phường An Khánh, Ninh Kiều","131/B5, Nguyễn Văn Cừ Nối Dài, Phường An Hòa, Quận Ninh Kiều",Cần Thơ,,"Ninh Kiều, Cần Thơ",VN,"10.0419784,105.7629233"
418,ChIJDxjp2uSJoDERM1TnZ-yFYRI,Ve chai điện tử,Cửa hàng bán đồ điện tử,0938 692 328,"Ve chai điện tử, 12 Đường B22, Phường An Khánh, Ninh Kiều, Cần Thơ","Phường An Khánh, Ninh Kiều",12 Đường B22,Cần Thơ,,"Ninh Kiều, Cần Thơ",VN,"10.0234575,105.7557767"
425,ChIJAzpQIKJioDERPUI-BSfO7n8,Cửa Hàng Điện Máy Điện Gia Dụng Hùng,Cửa hàng bán đồ điện tử,0292 3823 324,"Cửa Hàng Điện Máy Điện Gia Dụng Hùng, 32 Đ. Lê Thánh Tôn, Tân An, Ninh Kiều, Cần Thơ","Tân An, Ninh Kiều",32 Đ. Lê Thánh Tôn,Cần Thơ,,"Ninh Kiều, Cần Thơ",VN,"10.032513,105.7875545"
426,ChIJQV7SqhCIoDERP2xjcXfYgJo,Cửa Hàng Điện Thoại Di Động Bo Bo,Cửa hàng điện thoại di động,0909 566 669,"2QGH+784 Cửa Hàng Điện Thoại Di Động Bo Bo, Chợ, Xuân Khánh, Ninh Kiều, Cần Thơ","Xuân Khánh, Ninh Kiều","2QGH+784, Chợ",Cần Thơ,,"Ninh Kiều, Cần Thơ",VN,"10.025645299999999,105.77831769999999"
427,ChIJTVmsvAyJoDERoMhH-zsgr9Q,Cửa Hàng Điện Thoại New Phones,Cửa hàng bán đồ điện tử,,"Cửa Hàng Điện Thoại New Phones, 5Đ, 218, Đ. Trần Hưng Đạo, An Phú, Ninh Kiều, Cần Thơ","An Phú, Ninh Kiều","5Đ, 218, Đ. Trần Hưng Đạo",Cần Thơ,,"Ninh Kiều, Cần Thơ",VN,"10.034817,105.77482599999999"
428,ChIJh6MFsbSJoDERu7wAr7lcVIY,Cửa Hàng Điện Thoại Di Động Hông Công,Cửa hàng điện thoại di động,0939 613 136,"Cửa Hàng Điện Thoại Di Động Hông Công, 32/1 Đường 3/2 nối dài, An Bình, Ninh Kiều, Cần Thơ","An Bình, Ninh Kiều",32/1 Đường 3/2 nối dài,Cần Thơ,,"Ninh Kiều, Cần Thơ",VN,"10.0118408,105.7536714"
430,ChIJy9hz8CCIoDER8YKUxiWZ2Yw,Cửa hàng điện thoại Viễn Hưng,Cửa hàng điện thoại di động,0292 3812 555,"Cửa hàng điện thoại Viễn Hưng, 121 Quang Trung, An Lạc, Ninh Kiều, Cần Thơ","An Lạc, Ninh Kiều",121 Quang Trung,Cần Thơ,,"Ninh Kiều, Cần Thơ",VN,"10.0289678,105.77977899999999"
439,ChIJfX3DwrKJoDERucVt8WAk84Y,Phụ Kiện Cần thơ,Cửa hàng phụ kiện điện thoại di động,0907 780 091,"Phụ Kiện Cần thơ, 109 Đ. Xô Viết Nghệ Tĩnh, An Hội, Ninh Kiều, Cần Thơ","An Hội, Ninh Kiều",109 Đ. Xô Viết Nghệ Tĩnh,Cần Thơ,,"Ninh Kiều, Cần Thơ",VN,"10.040523,105.7816941"
449,ChIJYa2QJ2uIoDERgEoaCZYi_5Y,Cửa Hàng Điện Thoại Di Động Cường Thịnh,Cửa hàng điện thoại di động,0906 737 737,"Cửa Hàng Điện Thoại Di Động Cường Thịnh, 132K, Đường Nguyễn Văn Cừ, Phường An Khánh, Quận Ninh Kiều, Phường An Khánh, Ninh Kiều, Cần Thơ","Phường An Khánh, Ninh Kiều","132K, Đường Nguyễn Văn Cừ, Phường An Khánh, Quận Ninh Kiều",Cần Thơ,,"Ninh Kiều, Cần Thơ",VN,"10.0367672,105.75803959999999"
462,ChIJQ_nla6mJoDERds_SmmJcdeo,CTY TNHH MTV TM-DV TIN HOC ĐIỆN TỬ LỢI PHÁT,Cửa hàng bán đồ điện tử,0931 094 919,"2P4Q+MQP CTY TNHH MTV TM-DV TIN HOC ĐIỆN TỬ LỢI PHÁT, An Bình, Ninh Kiều, Cần Thơ","An Bình, Ninh Kiều",2P4Q+MQP,Cần Thơ,,"Ninh Kiều, Cần Thơ",VN,"10.0067127,105.7394461"
482,ChIJB9MZb0WJoDERDLSgV-ZmW-I,Điện Thoại Châu Tùng,Cửa hàng điện thoại di động,0944 222 227,"Điện Thoại Châu Tùng, 196 Đ. Nguyễn Văn Cừ, An Hoà, Ninh Kiều, Cần Thơ 84071","An Hoà, Ninh Kiều",196 Đ. Nguyễn Văn Cừ,Cần Thơ,84071.0,"Ninh Kiều, Cần Thơ",VN,"10.0514245,105.77288569999999"
483,ChIJrx7vglGJoDERN5lQmqJI8No,Trung Tâm Sửa Chữa Điện Thoại Nguyễn Nhân,Cửa hàng bán đồ điện tử,0292 6290 039,"Trung Tâm Sửa Chữa Điện Thoại Nguyễn Nhân, 3A Đ. Nguyễn Văn Linh, Hưng Lợi, Ninh Kiều, Cần Thơ","Hưng Lợi, Ninh Kiều",3A Đ. Nguyễn Văn Linh,Cần Thơ,,"Ninh Kiều, Cần Thơ",VN,"10.0218555,105.7638861"
484,ChIJ8zd4IryJoDERLgkLAB9esvw,Cửa Hàng Điện Thoại Di Động Anh Quý 1,Cửa hàng điện thoại di động,0292 2460 248,"Cửa Hàng Điện Thoại Di Động Anh Quý 1, 63/6, Đường Trần Hưng Đạo, Quận Cái Răng, Lê Bình, Cái Răng, Cần Thơ","Lê Bình, Cái Răng","63/6, Đường Trần Hưng Đạo, Quận Cái Răng",Cần Thơ,,"Cái Răng, Cần Thơ",VN,"9.9947085,105.7520156"
485,ChIJNxJLugaIoDERZwS3LEdvlxI,Cửa Hàng Đtdđ Diễm Sơn,Cửa hàng điện thoại di động,0939 663 606,"Cửa Hàng Đtdđ Diễm Sơn, 61 Đ. Cách Mạng Tháng 8, Thới Bình, Ninh Kiều, Cần Thơ 901157","Thới Bình, Ninh Kiều",61 Đ. Cách Mạng Tháng 8,Cần Thơ,901157.0,"Ninh Kiều, Cần Thơ",VN,"10.049526799999999,105.77576769999999"
506,ChIJaYFg1KmJoDER-hpJF1dEDQc,Phụ kiện điện thoại Nguyễn Thương Store,Cửa hàng bán đồ điện tử,0843 343 626,"Phụ kiện điện thoại Nguyễn Thương Store, 132/25c, Hẻm 132, Hẻm 132 Đ. 3 Tháng 2, Hưng Lợi, Ninh Kiều, Cần Thơ","Hưng Lợi, Ninh Kiều","132/25c, Hẻm 132, Hẻm 132 Đ. 3 Tháng 2",Cần Thơ,,"Ninh Kiều, Cần Thơ",VN,"10.0200008,105.7587265"
521,ChIJL32v-DqIoDERa_qWXl1ii-o,Cửa Hàng Điện Thoại Di Động Phong Nhã,Cửa hàng điện thoại di động,0982 299 405,"Cửa Hàng Điện Thoại Di Động Phong Nhã, 51/47B, Đường 3/2, Quận Ninh Kiều, Tp Cần Thơ, Hưng Lợi, Ninh Kiều, Cần Thơ","Hưng Lợi, Ninh Kiều","51/47B, Đường 3/2, Quận Ninh Kiều, Tp Cần Thơ",Cần Thơ,,"Ninh Kiều, Cần Thơ",VN,"10.0248554,105.7674591"
524,ChIJyws__iWJoDERsNCAV1Oj3kc,Điện Thoại Hương Lan 2,Cửa hàng bán đồ điện tử,,"Điện Thoại Hương Lan 2, Hẻm 51, 12/2A Đ. 3 Tháng 2, Hưng Lợi, Ninh Kiều, Cần Thơ","Hưng Lợi, Ninh Kiều","Hẻm 51, 12/2A Đ. 3 Tháng 2",Cần Thơ,,"Ninh Kiều, Cần Thơ",VN,"10.025285199999999,105.7665418"
541,ChIJa9xlyw-IoDERQ04kxKWMVN8,Cửa Hàng Điện Thoại Di Động Hưng Nguyễn,Cửa hàng điện thoại di động,0904 535 158,"Cửa Hàng Điện Thoại Di Động Hưng Nguyễn, 335 Đ. Nguyễn Văn Cừ, An Hoà, Ninh Kiều, Cần Thơ","An Hoà, Ninh Kiều",335 Đ. Nguyễn Văn Cừ,Cần Thơ,,"Ninh Kiều, Cần Thơ",VN,"10.0455407,105.7674464"
542,ChIJjVes0aNioDERHWz89LgTMF4,CỮA HÀNG ĐIỆN THOẠI,Cửa hàng điện thoại di động,,"CỮA HÀNG ĐIỆN THOẠI, P. Q., 9 Ngô Gia Tự, Tân An, Ninh Kiều, Cần Thơ 910000","Tân An, Ninh Kiều","P. Q., 9 Ngô Gia Tự",Cần Thơ,910000.0,"Ninh Kiều, Cần Thơ",VN,"10.0353579,105.7885204"
543,ChIJD5BAuGuIoDERbXAoC4eaIfQ,Cửa Hàng Điện Thoại,Cửa hàng điện thoại di động,0938 238 861,"Cửa Hàng Điện Thoại, 75 Đ. số 30, Phường An Khánh, Ninh Kiều, Cần Thơ","Phường An Khánh, Ninh Kiều",75 Đ. số 30,Cần Thơ,,"Ninh Kiều, Cần Thơ",VN,"10.0375338,105.7541239"
544,ChIJFfK0c2yIoDERSdoDU-axl5A,Cửa Hàng Điện Thoại Di Động 8 Đỏ,Cửa hàng điện thoại di động,0907 447 189,"Cửa Hàng Điện Thoại Di Động 8 Đỏ, L60, Đường 17, Chợ An Khánh, Phường An Khánh, Quận Ninh Kiều, Thành Phố Cần Thơ, Phường An Khánh, Ninh Kiều, Cần Thơ","Phường An Khánh, Ninh Kiều","L60, Đường 17, Chợ An Khánh, Phường An Khánh, Quận Ninh Kiều, Thành Phố Cần Thơ",Cần Thơ,,"Ninh Kiều, Cần Thơ",VN,"10.0388328,105.7543188"
545,ChIJSTUxSp9ioDERROEinmH8cAg,Cửa Hàng Điện Thoại Di Động Hoàng,Cửa hàng điện thoại di động,0292 3823 172,"Cửa Hàng Điện Thoại Di Động Hoàng, 156 Đường Hai Bà Trưng, Tân An, Ninh Kiều, Cần Thơ","Tân An, Ninh Kiều",156 Đường Hai Bà Trưng,Cần Thơ,,"Ninh Kiều, Cần Thơ",VN,"10.0308558,105.78799629999999"
546,ChIJJYCy9aWJoDERZ0aSWNzBrmg,Cửa Hàng Điện Thoại Nguyễn Thông mobile,Cửa hàng bán đồ điện tử,,"2QG5+CF6 Cửa Hàng Điện Thoại Nguyễn Thông mobile, khu cán bộ giảng viên đại học cần thơ, Đ. Nguyễn Văn Linh, Phường An Khánh, Ninh Kiều, Cần Thơ","Phường An Khánh, Ninh Kiều","2QG5+CF6, khu cán bộ giảng viên đại học cần thơ, Đ. Nguyễn Văn Linh",Cần Thơ,,"Ninh Kiều, Cần Thơ",VN,"10.0260498,105.75865329999999"
547,ChIJL2I2QieIoDER1s_ETD1BQak,Cửa Hàng Điện Thoại Di Động Nguyễn Hữu Phúc,Cửa hàng điện thoại di động,0813 667 253,"Cửa Hàng Điện Thoại Di Động Nguyễn Hữu Phúc, 2 Quang Trung, Khu Vực 6, Ninh Kiều, Cần Thơ","Khu Vực 6, Ninh Kiều",2 Quang Trung,Cần Thơ,,"Ninh Kiều, Cần Thơ",VN,"10.0258862,105.78088729999999"
548,ChIJyYq9BiiIoDER9DseEj_HRss,Cửa Hàng Điện Thoại Di Động 91,Cửa hàng điện thoại di động,0833 155 665,"Cửa Hàng Điện Thoại Di Động 91, 91, Đường Quang Trung, Quận Cái Răng, Hưng Phú, Cái Răng, Cần Thơ","Hưng Phú, Cái Răng","91, Đường Quang Trung, Quận Cái Răng",Cần Thơ,,"Cái Răng, Cần Thơ",VN,"10.0215186,105.7816093"
549,ChIJ0YaZ7TSIoDEREK1ejOk4lB0,ĐIỆN THOẠI QUỐC DŨNG,Cửa hàng điện thoại di động,0939 522 959,"ĐIỆN THOẠI QUỐC DŨNG, 151 Đ. Trần Hoàng Na, Hưng Lợi, Ninh Kiều, Cần Thơ","Hưng Lợi, Ninh Kiều",151 Đ. Trần Hoàng Na,Cần Thơ,,"Ninh Kiều, Cần Thơ",VN,"10.0138769,105.7626434"
550,ChIJq6qqqhWIoDERh10W9-vTKko,Cửa Hàng Điện Thoại Di Động ĐỘC và LẠ 3,Cửa hàng điện thoại di động,0939 397 393,"Cửa Hàng Điện Thoại Di Động ĐỘC và LẠ 3, 107 Nguyễn Văn Cừ Nối Dài, Phường An Khánh, Ninh Kiều, Cần Thơ","Phường An Khánh, Ninh Kiều",107 Nguyễn Văn Cừ Nối Dài,Cần Thơ,,"Ninh Kiều, Cần Thơ",VN,"10.025714899999999,105.7473873"
551,ChIJU3h1nEFjoDERJdOP-uS913c,DUY IPHONE_ CẦN THƠ TTTM CÁI KHẾ ,Cửa hàng điện thoại di động,0939 353 935,"DUY IPHONE_ CẦN THƠ TTTM CÁI KHẾ , Đ. Hồ Tùng Mậu, Cái Khế, Ninh Kiều, Cần Thơ 92000","Cái Khế, Ninh Kiều",Đ. Hồ Tùng Mậu,Cần Thơ,92000.0,"Ninh Kiều, Cần Thơ",VN,"10.046098599999999,105.7831186"
552,ChIJ-3pSoIKJoDERbGLAoYnhWm0,Cửa Hàng Điện Thoại Di Động Sang IP,Cửa hàng điện thoại di động,0849 794 919,"Cửa Hàng Điện Thoại Di Động Sang IP, 251/40C Đ. Trần Ngọc Quế, Xuân Khánh, Ninh Kiều, Cần Thơ 94115","Xuân Khánh, Ninh Kiều",251/40C Đ. Trần Ngọc Quế,Cần Thơ,94115.0,"Ninh Kiều, Cần Thơ",VN,"10.0205596,105.771874"
553,ChIJfaS0TTSIoDERHI9Nu2fvHwo,Cửa Hàng Điện Thoại Di Động GSM,Cửa hàng điện thoại di động,0292 3514 514,"Cửa Hàng Điện Thoại Di Động GSM, 118/20A, Đường 30/4, Quận Ninh Kiều, Hưng Lợi, Ninh Kiều, Cần Thơ","Hưng Lợi, Ninh Kiều","118/20A, Đường 30/4, Quận Ninh Kiều",Cần Thơ,,"Ninh Kiều, Cần Thơ",VN,"10.0154391,105.76178589999999"
554,ChIJcUhysriJoDER6B_-SJzLuME,Cửa Hàng ĐTDĐ Hugo,Cửa hàng điện thoại di động,0939 217 179,"Cửa Hàng ĐTDĐ Hugo, 7, Khu Vực Thạnh Mỹ, Cái Răng, Cần Thơ","Thường Thạnh, Cái Răng","7, Khu Vực Thạnh Mỹ",Cần Thơ,,"Cái Răng, Cần Thơ",VN,"9.996360899999999,105.7581671"
556,ChIJGUuwg59ioDERGRJAAB4Bqvc,Cửa Hàng Điện Thoại Hồng Đăng,Cửa hàng điện thoại di động,0898 333 339,"Cửa Hàng Điện Thoại Hồng Đăng, 3 Đ. Đồng Khởi, Tân An, Ninh Kiều, Cần Thơ 90000","Tân An, Ninh Kiều",3 Đ. Đồng Khởi,Cần Thơ,90000.0,"Ninh Kiều, Cần Thơ",VN,"10.033638999999999,105.7850596"
558,ChIJpbjq9J9ioDERlG4qM939QJ4,Công Ty TNHH Dịch Vụ Điện Thoại Quốc Hưng,Cửa hàng điện thoại di động,0292 3812 388,"Công Ty TNHH Dịch Vụ Điện Thoại Quốc Hưng, 74 Đ. Nam Kỳ Khởi Nghĩa, Tân An, Ninh Kiều, Cần Thơ","Tân An, Ninh Kiều",74 Đ. Nam Kỳ Khởi Nghĩa,Cần Thơ,,"Ninh Kiều, Cần Thơ",VN,"10.0323686,105.7836334"
562,ChIJrR0JRp9ioDERQfCY4HVOtdI,Cửa Hàng Điện Thoại Điện Máy Thanh Liêm 1,Cửa hàng,0292 3819 678,"Cửa Hàng Điện Thoại Điện Máy Thanh Liêm 1, 27, Đường Đ. Phan Chu Trinh, Tân An, Ninh Kiều, Cần Thơ","Tân An, Ninh Kiều","27, Đường Đ. Phan Chu Trinh",Cần Thơ,,"Ninh Kiều, Cần Thơ",VN,"10.0313366,105.7871594"
572,ChIJt_C05aFioDERLEB5v1CbnaM,Điện Tử Thanh Tân,Cửa hàng bán đồ điện tử,0292 3823 830,"Điện Tử Thanh Tân, 47 Phan Đình Phùng, Tân An, Ninh Kiều, Cần Thơ","Tân An, Ninh Kiều",47 Phan Đình Phùng,Cần Thơ,,"Ninh Kiều, Cần Thơ",VN,"10.03285,105.7869351"
612,ChIJwX-bEUGJoDERxzVXlq8a5FU,DTDD Hoangchung Mobileq,Cửa hàng bán đồ điện tử,0932 837 413,"DTDD Hoangchung Mobileq, A89/30 Đ. Huỳnh Thúc Kháng, An Phú, Ninh Kiều, Cần Thơ","An Phú, Ninh Kiều",A89/30 Đ. Huỳnh Thúc Kháng,Cần Thơ,,"Ninh Kiều, Cần Thơ",VN,"10.0385011,105.7753879"
620,ChIJ-T7j7xGIoDERV0r0n701mr4,Van Anh Mobile Store,Cửa hàng,0292 3891 456,"Van Anh Mobile Store, 335 Đ. Nguyễn Văn Cừ, An Hoà, Ninh Kiều, Cần Thơ","An Hoà, Ninh Kiều",335 Đ. Nguyễn Văn Cừ,Cần Thơ,,"Ninh Kiều, Cần Thơ",VN,"10.0455407,105.7674464"
622,ChIJOx-luCyJoDERtbLO4KA3gaY,Xì Lê' Accessories & Phụ kiện điện thoại,Cửa hàng quà tặng,0788 899 601,"Xì Lê' Accessories & Phụ kiện điện thoại, 110/55B Đ. Mậu Thân, An Phú, Ninh Kiều, Cần Thơ","An Phú, Ninh Kiều",110/55B Đ. Mậu Thân,Cần Thơ,,"Ninh Kiều, Cần Thơ",VN,"10.031632499999999,105.7758427"
624,ChIJq6qqBw-IoDER1De3NZbfkLs,Tiệm Sửa Điện Tử 41,Cửa hàng bán đồ điện tử,0919 263 367,"Tiệm Sửa Điện Tử 41, 82A, 30/4, Quận Ninh Kiều, Tp Cần Thơ, An Hoà, Ninh Kiều, Cần Thơ","An Hoà, Ninh Kiều","82A, 30/4, Quận Ninh Kiều, Tp Cần Thơ",Cần Thơ,,"Ninh Kiều, Cần Thơ",VN,"10.047019299999999,105.76794439999999"
641,ChIJ5-N53EOIoDERenSGR1kHujE,Cửa Hàng Điện Thoại Di Động Thành Đạt,Cửa hàng điện thoại di động,0906 350 180,"Cửa Hàng Điện Thoại Di Động Thành Đạt, 271/91, Quốc Lộ 91B, Quận Bình Thủy, Tp Cần Thơ, Phường An Khánh, Ninh Kiều, Cần Thơ","Phường An Khánh, Ninh Kiều","271/91, Quốc Lộ 91B, Quận Bình Thủy, Tp Cần Thơ",Cần Thơ,,"Ninh Kiều, Cần Thơ",VN,"10.0301551,105.7520905"
653,ChIJQ6PqQwqJoDERXo-pqPxJXHI,Cửa Hàng ĐTDĐ Hoàng Hiệp,Cửa hàng điện thoại di động,0292 3848 239,"Cửa Hàng ĐTDĐ Hoàng Hiệp, 349 Ấp Mỹ Nhơn, Huyện Phong Điền, An Bình, Ninh Kiều, Cần Thơ","An Bình, Ninh Kiều","349 Ấp Mỹ Nhơn, Huyện Phong Điền",Cần Thơ,,"Ninh Kiều, Cần Thơ",VN,"9.9952632,105.7333725"
656,ChIJRdkFbxuJoDERQoUuhh5DJwg,Điện Tử Hoàng Mau,Cửa hàng bán đồ điện tử,,"Điện Tử Hoàng Mau, 14 Đ. Trần Nam Phú, Xuân Khánh, Ninh Kiều, Cần Thơ 902494","Xuân Khánh, Ninh Kiều",14 Đ. Trần Nam Phú,Cần Thơ,902494.0,"Ninh Kiều, Cần Thơ",VN,"10.033518899999999,105.75995689999999"
657,ChIJ3ZA7HA6JoDERRw_8xwrC_4Q,Điện Thoại Di Động Vy Mobile,Cửa hàng bán đồ điện tử,0888 574 444,"Điện Thoại Di Động Vy Mobile, Đường Số 4, An Bình, Bình Thủy, Cần Thơ","An Bình, Bình Thủy",Đường Số 4,Cần Thơ,,"Bình Thủy, Cần Thơ",VN,"10.0176237,105.7371517"
663,ChIJp3XQIY-JoDERt5MviJ_o6oo,Cửa hàng điện thoại Vũ Vân,Cửa hàng điện thoại di động,,"Cửa hàng điện thoại Vũ Vân, 20 Trần Chiên, Lê Bình, Cái Răng, Cần Thơ","Lê Bình, Cái Răng",20 Trần Chiên,Cần Thơ,,"Cái Răng, Cần Thơ",VN,"10.004701899999999,105.75378189999999"
673,ChIJZ4AYqPeJoDERZHC3IVzvt3c,Đại lý Thẻ Game-Điện Thoại-Super 79,Cửa hàng,,"Đại lý Thẻ Game-Điện Thoại-Super 79, 93 Đ. Trần Vĩnh Kiết, An Bình, Ninh Kiều, Cần Thơ","An Bình, Ninh Kiều",93 Đ. Trần Vĩnh Kiết,Cần Thơ,,"Ninh Kiều, Cần Thơ",VN,"10.012186999999999,105.7514719"
676,ChIJ0-v96ROJoDERIJszHU5Hz8g,Cửa Hàng Điện Thoại Tiến Đạt,Cửa hàng điện thoại di động,0962 623 738,"Cửa Hàng Điện Thoại Tiến Đạt, 125, Lộ Vòng Cung, Xã Mỹ Khánh, Huyện Phong Điền, Thành Phố Cần Thơ, Mỹ Khánh, Phong Điền, Cần Thơ","Mỹ Khánh, Phong Điền","125, Lộ Vòng Cung, Xã Mỹ Khánh, Huyện Phong Điền, Thành Phố Cần Thơ",Cần Thơ,,"Phong Điền, Cần Thơ",VN,"9.9966297,105.71901659999999"
679,ChIJOYMmEbyJoDER5poJ7QwAFe4,Cửa Hàng Điện Thoại Di Động Quốc Tuấn 2,Cửa hàng điện thoại di động,0292 3914 788,"Cửa Hàng Điện Thoại Di Động Quốc Tuấn 2, 74/4, Đường Trần Hưng Đạo, Quận Cái Răng, Lê Bình, Cái Răng, Cần Thơ","Lê Bình, Cái Răng","74/4, Đường Trần Hưng Đạo, Quận Cái Răng",Cần Thơ,,"Cái Răng, Cần Thơ",VN,"9.9947856,105.75201609999999"
710,ChIJSx3jEbKJoDERNgnWVVXLHkw,Quán Sửa Chữa Điện Tử Hiện,Cửa hàng bán đồ điện tử,0292 3913 195,"Quán Sửa Chữa Điện Tử Hiện, 248/5, Đường Lộ Vòng Cung, Quận Ninh Kiều, An Bình, Ninh Kiều, Cần Thơ","An Bình, Ninh Kiều","248/5, Đường Lộ Vòng Cung, Quận Ninh Kiều",Cần Thơ,,"Ninh Kiều, Cần Thơ",VN,"10.008160799999999,105.7476549"
731,ChIJD4JejTaIoDERpDsy8hc2_X0,Cửa Hàng Điện Thoại Hoài Minh,Cửa hàng điện thoại di động,0907 210 350,"Cửa Hàng Điện Thoại Hoài Minh, 58, Ba Tháng Hai, Phường Hưng Lợi, Quận Ninh Kiều, Thành Phố Cần Thơ, Hưng Lợi, Ninh Kiều, Cần Thơ","Hưng Lợi, Ninh Kiều","58, Ba Tháng Hai, Phường Hưng Lợi, Quận Ninh Kiều, Thành Phố Cần Thơ",Cần Thơ,,"Ninh Kiều, Cần Thơ",VN,"10.018600099999999,105.762236"
736,ChIJNZHQQjGIoDERtEfV40f87G4,Hoang Kim Mobile Phone Store,Cửa hàng,0907 271 102,"Hoang Kim Mobile Phone Store, 156, 30/4 Street, Ninh Kieu District, Can Tho City, Hưng Lợi, Ninh Kiều, Cần Thơ","Hưng Lợi, Ninh Kiều","156, 30/4 Street, Ninh Kieu District, Can Tho City",Cần Thơ,,"Ninh Kiều, Cần Thơ",VN,"10.017863,105.76577359999999"
748,ChIJbZ0qz8OJoDER3o8H1aR1_Hg,Trung Tâm Điện Tử & Tin Học ĐôRêMon ( phân hiệu eduKING & techKING),Cửa hàng bán đồ điện tử,,"Trung Tâm Điện Tử & Tin Học ĐôRêMon ( phân hiệu eduKING & techKING), C132/10 Đ. 3 Tháng 2, Hưng Lợi, Ninh Kiều, Cần Thơ","Hưng Lợi, Ninh Kiều",C132/10 Đ. 3 Tháng 2,Cần Thơ,,"Ninh Kiều, Cần Thơ",VN,"10.0189524,105.7606211"
786,ChIJF6Y9QiOIoDER7ui7hbfGt7Q,Điện Tử Tin Học Thanh Sơn,Cửa hàng máy tính,0918 222 948,"Điện Tử Tin Học Thanh Sơn, 98A, Đường 3/2, Quận Ninh Kiều, Tp Cần Thơ, Xuân Khánh, Ninh Kiều, Cần Thơ","Xuân Khánh, Ninh Kiều","98A, Đường 3/2, Quận Ninh Kiều, Tp Cần Thơ",Cần Thơ,,"Ninh Kiều, Cần Thơ",VN,"10.028654099999999,105.77172879999999"
807,ChIJybgxETJjoDERWE4KeZ8tZ0w,ĐIỆN TỬ HÒA,Cửa hàng bán đồ điện tử,0939 405 599,"ĐIỆN TỬ HÒA, 40 Đ. Tân Trào, Tân An, Ninh Kiều, Cần Thơ","Tân An, Ninh Kiều",40 Đ. Tân Trào,Cần Thơ,,"Ninh Kiều, Cần Thơ",VN,"10.0334077,105.7871121"
809,ChIJuyTzqaFioDERhst5BG27Ooc,Siêu Thị Điện Máy Đệ Nhất Phan Khang- Cn Cần Thơ,Cửa hàng bán đồ điện tử,,"Siêu Thị Điện Máy Đệ Nhất Phan Khang- Cn Cần Thơ, 48 Đ. Ngô Quyền, Tân An, Ninh Kiều, Cần Thơ","Tân An, Ninh Kiều",48 Đ. Ngô Quyền,Cần Thơ,,"Ninh Kiều, Cần Thơ",VN,"10.0350823,105.7854009"
810,ChIJ6-MaiKFioDERkXVENP3dF60,Cửa Hàng Điện Tử- Điện Gia Dụng Thành Trọng,Cửa hàng thiết bị điện,0903 133 958,"Cửa Hàng Điện Tử- Điện Gia Dụng Thành Trọng, 29 Đ. Lý Thường Kiệt, Tân An, Ninh Kiều, Cần Thơ","Tân An, Ninh Kiều",29 Đ. Lý Thường Kiệt,Cần Thơ,,"Ninh Kiều, Cần Thơ",VN,"10.0342212,105.7878693"
811,ChIJn3pqYwGIoDERHopmFpzQ4lc,Cửa Hàng Điện Thoại Di Động Minh Hiếu,Cửa hàng điện thoại di động,0292 5648 870,"Cửa Hàng Điện Thoại Di Động Minh Hiếu, 88/79, Đường Cách Mạng Tháng 8, Quận Ninh Kiều, Tp Cần Thơ, Cái Khế, Ninh Kiều, Cần Thơ","Cái Khế, Ninh Kiều","88/79, Đường Cách Mạng Tháng 8, Quận Ninh Kiều, Tp Cần Thơ",Cần Thơ,,"Ninh Kiều, Cần Thơ",VN,"10.049324799999999,105.7783048"
812,ChIJE7jNlOOHoDER0i4ivXuWJ0M,Cửa Hàng Điện Thoại Chí Hiêu,Cửa hàng điện thoại di động,,"Cửa Hàng Điện Thoại Chí Hiêu, An Thới, Bình Thủy, Cần Thơ","An Thới, Bình Thủy",,Cần Thơ,,"Bình Thủy, Cần Thơ",VN,"10.0593304,105.7659168"
813,ChIJlZHbny-JoDER-r-eNTCldcQ,Cửa hàng điện thoại di động Toàn Táo,Cửa hàng điện thoại di động,,"Cửa hàng điện thoại di động Toàn Táo, 14 Đ. Phạm Ngũ Lão, Thới Bình, Ninh Kiều, Cần Thơ","Thới Bình, Ninh Kiều",14 Đ. Phạm Ngũ Lão,Cần Thơ,,"Ninh Kiều, Cần Thơ",VN,"10.0470138,105.77692479999999"
814,ChIJqWJ3XQaIoDERrMcfmbImZns,Cửa Hàng Điện Thoại Di Động Tây Đô,Cửa hàng điện thoại di động,0292 3766 006,"Cửa Hàng Điện Thoại Di Động Tây Đô, 24/4C, Trần Việt Châu, phường An Hòa, quận Ninh Kiều, Tp. Cần Thơ","Thới Bình, Ninh Kiều","24/4C, Trần Việt Châu, phường An Hòa, quận Ninh Kiều, Tp. Cần Thơ",Cần Thơ,,"Ninh Kiều, Cần Thơ",VN,"10.048559,105.7748026"
815,ChIJiXGcWahioDERhm-SSocteBM,Cửa Hàng Điện Thoại Di Động Ngọc Ngân,Cửa hàng điện thoại di động,0907 145 558,"Cửa Hàng Điện Thoại Di Động Ngọc Ngân, 15, Trần Văn Khéo, Quận Ninh Kiều, Cái Khế, Ninh Kiều, Cần Thơ","Cái Khế, Ninh Kiều","15, Trần Văn Khéo, Quận Ninh Kiều",Cần Thơ,,"Ninh Kiều, Cần Thơ",VN,"10.045209,105.784697"
816,ChIJ-bEfxVKJoDERtu5jZFe4f08,Điện Thoại Cần Thơ - BT Smartphone,Cửa hàng điện thoại di động,0939 598 016,"Điện Thoại Cần Thơ - BT Smartphone, 132/42/125 Hùng Vương, An Cư, Ninh Kiều, Cần Thơ 94106","An Cư, Ninh Kiều",132/42/125 Hùng Vương,Cần Thơ,94106.0,"Ninh Kiều, Cần Thơ",VN,"10.0421091,105.7745561"
817,ChIJ63jaxgOIoDERfVD2A4__Is0,Cửa Hàng Điện Thoại Di Động Đăng Khoa,Cửa hàng điện thoại di động,0292 3769 439,"Cửa Hàng Điện Thoại Di Động Đăng Khoa, 4B, Nguyễn Trãi, Phường Cái Khế, Quận Ninh Kiều, Tp Cần Thơ","An Hội, Ninh Kiều","4B, Nguyễn Trãi, Phường Cái Khế, Quận Ninh Kiều, Tp Cần Thơ",Cần Thơ,,"Ninh Kiều, Cần Thơ",VN,"10.0428102,105.78246109999999"
818,ChIJq6qqBw-IoDERTdFv7a8MiA0,Cửa Hàng Đại Lý Viễn Thông Số 0183,Cửa hàng điện thoại di động,0292 3389 181,"Cửa Hàng Đại Lý Viễn Thông Số 0183, 380B/14B, Đường Nguyễn Văn Cừ, Quận Ninh Kiều, Tp Cần Thơ, An Hoà, Ninh Kiều, Cần Thơ","An Hoà, Ninh Kiều","380B/14B, Đường Nguyễn Văn Cừ, Quận Ninh Kiều, Tp Cần Thơ",Cần Thơ,,"Ninh Kiều, Cần Thơ",VN,"10.047019299999999,105.76794439999999"
819,ChIJaUy27oCJoDERhMll16wo-eY,ĐIỆN THOẠI THÁI ANH,Cửa hàng điện thoại di động,0939 959 545,"ĐIỆN THOẠI THÁI ANH, Hùng Vương, An Cư, Ninh Kiều, Cần Thơ 123456","An Cư, Ninh Kiều",Hùng Vương,Cần Thơ,123456.0,"Ninh Kiều, Cần Thơ",VN,"10.0424788,105.77804409999999"
820,ChIJ9bryV6hioDERooU6eqTn2dM,Cửa Hàng Điện Thoại Di Động Hoàng Thông,Cửa hàng,0292 3763 813,"Cửa Hàng Điện Thoại Di Động Hoàng Thông, 1919, Trần Văn Khéo, Quận Ninh Kiều, Tp Cần Thơ, Cái Khế, Ninh Kiều, Cần Thơ","Cái Khế, Ninh Kiều","1919, Trần Văn Khéo, Quận Ninh Kiều, Tp Cần Thơ",Cần Thơ,,"Ninh Kiều, Cần Thơ",VN,"10.0453131,105.784075"
821,ChIJs5wDFCKIoDERV2xijmw82Y8,Cửa Hàng Điện Thoại Di Động Tín Phong,Cửa hàng điện thoại di động,7103833033,"Cửa Hàng Điện Thoại Di Động Tín Phong, C5 Đ. Mậu Thân, An Phú, Ninh Kiều, Cần Thơ","An Phú, Ninh Kiều",C5 Đ. Mậu Thân,Cần Thơ,,"Ninh Kiều, Cần Thơ",VN,"10.031916899999999,105.7751536"
822,ChIJh48awY5joDERMWsGkguKvbk,ĐIỆN THOẠI CẦN THƠ,Cửa hàng bán đồ điện tử,0911 774 444,"ĐIỆN THOẠI CẦN THƠ, 42 Đại lộ Hoà Bình, Tân An, Ninh Kiều, Cần Thơ","Tân An, Ninh Kiều",42 Đại lộ Hoà Bình,Cần Thơ,,"Ninh Kiều, Cần Thơ",VN,"10.0325989,105.7835856"
823,ChIJs0zydaFioDERPTVNrtgPVQE,Nguyen Chan Hung Old Mobile Phone Store,Cửa hàng điện thoại di động,0933 983 560,"Nguyen Chan Hung Old Mobile Phone Store, 27, Tran Quoc Toan Street, Tan An Ward, Ninh Kieu District, Tân An, Ninh Kiều, Cần Thơ","Tân An, Ninh Kiều","27, Tran Quoc Toan Street, Tan An Ward, Ninh Kieu District",Cần Thơ,,"Ninh Kiều, Cần Thơ",VN,"10.035129,105.7867603"
824,ChIJMedkU6BioDER3tTaXNUp2vw,Cửa Hàng Điện Thoại Di Động Chuyên,Cửa hàng điện thoại di động,7103815113,"Cửa Hàng Điện Thoại Di Động Chuyên, 49 Đ. Ngô Quyền, Tân An, Ninh Kiều, Cần Thơ 94112","Tân An, Ninh Kiều",49 Đ. Ngô Quyền,Cần Thơ,94112.0,"Ninh Kiều, Cần Thơ",VN,"10.035039399999999,105.78511639999999"
825,ChIJR5UeS2uIoDERccHNn-QbVTM,Cửa Hàng Điện Thoại Di Động Quỳnh Liên,Cửa hàng điện thoại di động,0903 768 534,"Cửa Hàng Điện Thoại Di Động Quỳnh Liên, 161C Đ. Nguyễn Văn Cừ, Phường An Khánh, Ninh Kiều, Cần Thơ","Phường An Khánh, Ninh Kiều",161C Đ. Nguyễn Văn Cừ,Cần Thơ,,"Ninh Kiều, Cần Thơ",VN,"10.038084099999999,105.7585203"
826,ChIJqZwdX0xjoDER43h9PfVgp70,Điện thoại di động Tuấn Kiệt,Cửa hàng điện thoại di động,0932 972 168,"Điện thoại di động Tuấn Kiệt, 38 Đ. Xô Viết Nghệ Tĩnh, An Hội, Ninh Kiều, Cần Thơ","An Hội, Ninh Kiều",38 Đ. Xô Viết Nghệ Tĩnh,Cần Thơ,,"Ninh Kiều, Cần Thơ",VN,"10.038333999999999,105.784047"
827,ChIJD1qUSZ9ioDERoCsDGd9RYxU,Cửa Hàng Điện Thoại Di Động Nguyễn Hoàng Quốc Trung,Cửa hàng điện thoại di động,0345 204 278,"Cửa Hàng Điện Thoại Di Động Nguyễn Hoàng Quốc Trung, 66, Đường Hai Bà Trưng, Phường Tân An, Quận Ninh Kiều, Tân An, Ninh Kiều, Cần Thơ","Tân An, Ninh Kiều","66, Đường Hai Bà Trưng, Phường Tân An, Quận Ninh Kiều",Cần Thơ,,"Ninh Kiều, Cần Thơ",VN,"10.031096,105.7874793"
828,ChIJc2pqGgKJoDERqN13dGm5xl0,Cửa hàng điện thoại Nguyễn Hóa,Cửa hàng điện thoại di động,0772 811 182,"Cửa hàng điện thoại Nguyễn Hóa, 262 Tầm Vu, Hưng Lợi, Ninh Kiều, Cần Thơ 94000","Hưng Lợi, Ninh Kiều",262 Tầm Vu,Cần Thơ,94000.0,"Ninh Kiều, Cần Thơ",VN,"10.014132,105.771435"
829,ChIJ8c7luR6IoDER0gqSJKghuEY,SaigonHKphone,Cửa hàng điện thoại di động,0292 6282 882,"SaigonHKphone, 130 Đ. Lý Tự Trọng, An Cư, Ninh Kiều, Cần Thơ","An Cư, Ninh Kiều",130 Đ. Lý Tự Trọng,Cần Thơ,,"Ninh Kiều, Cần Thơ",VN,"10.0367067,105.77762729999999"
830,ChIJ7wZxwZ1ioDERIPzu8K3sgts,Cửa Hàng Điện Thoại Di Động Trần Tâm,Cửa hàng điện thoại di động,0292 3829 154,"Cửa Hàng Điện Thoại Di Động Trần Tâm, 11A1, Đường 30 Tháng 4, phường Xuân Khánh, quận Ninh Kiều, Tp. Cần Thơ, Xuân Khánh, Ninh Kiều, Cần Thơ","Xuân Khánh, Ninh Kiều","11A1, Đường 30 Tháng 4, phường Xuân Khánh, quận Ninh Kiều, Tp. Cần Thơ",Cần Thơ,,"Ninh Kiều, Cần Thơ",VN,"10.0266352,105.7760806"
831,ChIJ3Q1NWjeIoDERPUGtR20TbCg,Cửa Hàng Đtdđ Hiện Đại 2,Cửa hàng điện thoại di động,0292 6744 474,"Cửa Hàng Đtdđ Hiện Đại 2, 9c QL91B, Hưng Lợi, Ninh Kiều, Cần Thơ","Hưng Lợi, Ninh Kiều",9c QL91B,Cần Thơ,,"Ninh Kiều, Cần Thơ",VN,"10.022496499999999,105.76350959999999"
832,ChIJ--qsZqBioDERnPpiwNzhg9w,Mai Phat Mobile Store,Cửa hàng điện thoại di động,0292 3813 839,"Mai Phat Mobile Store, 16/47, Nguyen Khuyen Street, Ninh Kieu District, Can Tho City, Tân An, Ninh Kiều, Cần Thơ","Tân An, Ninh Kiều","16/47, Nguyen Khuyen Street, Ninh Kieu District, Can Tho City",Cần Thơ,,"Ninh Kiều, Cần Thơ",VN,"10.0349255,105.78319719999999"
833,ChIJ9TUpXUGIoDERuRdosweUp6Q,Cửa Hàng Điện Thoại Di Dộng V&D,Cửa hàng điện thoại di động,0988 721 464,"Cửa Hàng Điện Thoại Di Dộng V&D, 337A, Quốc Lộ 91B, Quận Ninh Kiều, Thành Phố Cần Thơ, Phường An Khánh, Ninh Kiều, Cần Thơ","Phường An Khánh, Ninh Kiều","337A, Quốc Lộ 91B, Quận Ninh Kiều, Thành Phố Cần Thơ",Cần Thơ,,"Ninh Kiều, Cần Thơ",VN,"10.0297883,105.7534269"
834,ChIJ3y0WaDGIoDERrTxgO9P1EcE,Cửa Hàng Điện Thoại Nguyễn Minh Tâm,Cửa hàng điện thoại di động,0774 395 606,"Cửa Hàng Điện Thoại Nguyễn Minh Tâm, 156, Đường 30 Tháng 4, Phường Hưng Lợi, Quận Ninh Kiều, Hưng Lợi, Ninh Kiều, Cần Thơ","Hưng Lợi, Ninh Kiều","156, Đường 30 Tháng 4, Phường Hưng Lợi, Quận Ninh Kiều",Cần Thơ,,"Ninh Kiều, Cần Thơ",VN,"10.0178964,105.7659856"
835,ChIJSfrVtrSJoDERlMVALFP2zZg,Cửa Hàng Điện Thoại Di Động Thịnh,Cửa hàng điện thoại di động,0292 3832 873,"Cửa Hàng Điện Thoại Di Động Thịnh, 166/4, Quốc Lộ 1A, P. Lê Bình, Quận Cái Răng, Hưng Lợi, Ninh Kiều, Cần Thơ","Hưng Lợi, Ninh Kiều","166/4, Quốc Lộ 1A, P. Lê Bình, Quận Cái Răng",Cần Thơ,,"Ninh Kiều, Cần Thơ",VN,"10.0117985,105.7538431"
836,ChIJ6RzJpiaIoDERUmFy8D_G9MA,Cửa Hàng Đtdđ At,Cửa hàng điện thoại di động,0292 3753 646,"Cửa Hàng Đtdđ At, 185 Đ. 30 Tháng 4, Xuân Khánh, Ninh Kiều, Cần Thơ","Xuân Khánh, Ninh Kiều",185 Đ. 30 Tháng 4,Cần Thơ,,"Ninh Kiều, Cần Thơ",VN,"10.0264239,105.7765017"
837,ChIJt2bf1EOIoDERxBTC2lBUAyY,cửa hàng điện thoại di động CSM,Cửa hàng điện thoại di động,,"cửa hàng điện thoại di động CSM, 380 Đ. Nguyễn Văn Cừ, Phường An Khánh, Ninh Kiều, Cần Thơ","Phường An Khánh, Ninh Kiều",380 Đ. Nguyễn Văn Cừ,Cần Thơ,,"Ninh Kiều, Cần Thơ",VN,"10.0309326,105.7520923"
838,ChIJiVai_MyJoDERL4BbKhSTXFI,Anh Kieu Mobile Phone Store,Cửa hàng điện thoại di động,0939 089 288,"Anh Kieu Mobile Phone Store, 144B Tầm Vu, Hưng Lợi, Ninh Kiều, Cần Thơ","Hưng Lợi, Ninh Kiều",144B Tầm Vu,Cần Thơ,,"Ninh Kiều, Cần Thơ",VN,"10.0096293,105.7672137"
839,ChIJhf1MRbOJoDERYRLWpqICwhk,Cửa Hàng Điện Thoại Di Động Hiền,Cửa hàng điện thoại di động,0292 2463 378,"Cửa Hàng Điện Thoại Di Động Hiền, 85/5, Quốc Lộ 1A, TP Cần Thơ, Quận Cái Răng, An Bình, Ninh Kiều, Cần Thơ","An Bình, Ninh Kiều","85/5, Quốc Lộ 1A, TP Cần Thơ, Quận Cái Răng",Cần Thơ,,"Ninh Kiều, Cần Thơ",VN,"10.0115651,105.7528433"
840,ChIJdQclcEeIoDERTtZo-ht0EIQ,Cửa Hàng ĐTDĐ Phong Phát,Cửa hàng điện thoại di động,0916 467 764,"Cửa Hàng ĐTDĐ Phong Phát, 303A Đ. Nguyễn Văn Linh, Phường An Khánh, Ninh Kiều, Cần Thơ","Phường An Khánh, Ninh Kiều",303A Đ. Nguyễn Văn Linh,Cần Thơ,,"Ninh Kiều, Cần Thơ",VN,"10.0260375,105.7578583"
841,ChIJFeNYSzeIoDERaEHlvFiWpSA,Cửa Hàng Đtdđ Q - D,Cửa hàng điện thoại di động,0919 149 149,"Cửa Hàng Đtdđ Q - D, 1 Đ. Nguyễn Văn Linh, Hưng Lợi, Ninh Kiều, Cần Thơ","Hưng Lợi, Ninh Kiều",1 Đ. Nguyễn Văn Linh,Cần Thơ,,"Ninh Kiều, Cần Thơ",VN,"10.021600699999999,105.7642733"
842,ChIJ-QbWL6OJoDERbEkR3mRc6XA,Cửa hàng điện thoại Hoàng,Cửa hàng sửa chữa điện thoại di động,0939 557 391,"Cửa hàng điện thoại Hoàng, 345 Võ Văn Kiệt, An Thới, Bình Thủy, Cần Thơ 60000","An Thới, Bình Thủy",345 Võ Văn Kiệt,Cần Thơ,60000.0,"Bình Thủy, Cần Thơ",VN,"10.0497684,105.75535839999999"
843,ChIJv0oRJgCJoDERtJDWdb19teg,Cửa hàng điện thoại di động Nguyễn Trung,Cửa hàng điện thoại di động,,"Cửa hàng điện thoại di động Nguyễn Trung, 274 Đ. Bùi Hữu Nghĩa, Long Tuyền, Bình Thủy, Cần Thơ","Long Tuyền, Bình Thủy",274 Đ. Bùi Hữu Nghĩa,Cần Thơ,,"Bình Thủy, Cần Thơ",VN,"10.0502522,105.7234683"
844,ChIJnRTEZX1ioDERxtyf0Y4ob0c,Cửa Hàng Điện Thoại Di Động Chăm,Cửa hàng điện thoại di động,0939 144 144,"Cửa Hàng Điện Thoại Di Động Chăm, DD 20Khu Dân Cư Hưng Phú, Quận Cái Răng, Tp Cần Thơ, Hưng Phú, Cái Răng, Cần Thơ","Hưng Phú, Cái Răng","DD 20Khu Dân Cư Hưng Phú, Quận Cái Răng, Tp Cần Thơ",Cần Thơ,,"Cái Răng, Cần Thơ",VN,"10.009896699999999,105.79190899999999"
845,ChIJuzWiAjWIoDERhcElrScstFI,Cửa Hàng ĐTDĐ Hoàng Tài Mobile,Cửa hàng điện thoại di động,7106281336,"Cửa Hàng ĐTDĐ Hoàng Tài Mobile, 91/19 Hẻm 553, Hưng Lợi, Ninh Kiều, Cần Thơ","Hưng Lợi, Ninh Kiều",91/19 Hẻm 553,Cần Thơ,,"Ninh Kiều, Cần Thơ",VN,"10.0140084,105.7615077"
846,ChIJ2a3LbrKJoDERQXv8tjUtHww,Cửa Hàng Điện Thoại Quang Thái,Cửa hàng điện thoại di động,0939 154 968,"Cửa Hàng Điện Thoại Quang Thái, 221F Đ. Hoàng Quốc Việt, An Bình, Ninh Kiều, Cần Thơ","An Bình, Ninh Kiều",221F Đ. Hoàng Quốc Việt,Cần Thơ,,"Ninh Kiều, Cần Thơ",VN,"10.008918399999999,105.7479001"
847,ChIJr8lBtcaJoDERfmX6xwWBIGs,Tín Phát Mobile,Cửa hàng điện thoại di động,0939 955 656,"Tín Phát Mobile, 100/3 Khu Vực 3, An Bình, Ninh Kiều, Cần Thơ 900000","An Bình, Ninh Kiều",100/3 Khu Vực 3,Cần Thơ,900000.0,"Ninh Kiều, Cần Thơ",VN,"10.009731799999999,105.7503141"
848,ChIJqQpl_kOJoDEResYv9Hv-W6g,cửa hàng điện thoại nguyễn thông,Cửa hàng phụ kiện điện thoại di động,0868 079 788,"cửa hàng điện thoại nguyễn thông, 86 Đ. Số 2, Hưng Lợi, Ninh Kiều, Cần Thơ","Hưng Lợi, Ninh Kiều",86 Đ. Số 2,Cần Thơ,,"Ninh Kiều, Cần Thơ",VN,"10.028127399999999,105.76080759999999"
849,ChIJXTW4ILqJoDERgsLLJkaZjSo,Cửa Hàng Điện Thoại Di Động Cô Minh,Cửa hàng điện thoại di động,0292 3915 339,"Cửa Hàng Điện Thoại Di Động Cô Minh, 266E, Đường Trần Hưng Đạo, Quận Cái Răng, Lê Bình, Cái Răng, Cần Thơ","Lê Bình, Cái Răng","266E, Đường Trần Hưng Đạo, Quận Cái Răng",Cần Thơ,,"Cái Răng, Cần Thơ",VN,"9.9998805,105.7526415"
850,ChIJh9iCdyGJoDER8Ry1oNyOlA0,Điện Thoại Cần Thơ,Cửa hàng bán đồ điện tử,0981 864 864,"Điện Thoại Cần Thơ, 5 Lộ Vòng Cung, An Bình, Ninh Kiều, Cần Thơ","An Bình, Ninh Kiều",5 Lộ Vòng Cung,Cần Thơ,,"Ninh Kiều, Cần Thơ",VN,"10.005458899999999,105.74518719999999"
851,ChIJk0tH_EKPoDERs3PhzpMS31s,Dtdd LýMobile,Cửa hàng điện thoại di động,0907 777 667,"Dtdd LýMobile, Đường số 2, Ấp thị tứ TT, Phong Điền, Cần Thơ 94806","Ấp thị tứ TT, Phong Điền",Đường số 2,Cần Thơ,94806.0,"Phong Điền, Cần Thơ",VN,"9.998386,105.668363"
852,ChIJsdBg5MOOoDERACjGhYlhy-o,Cửa Hàng Điện Thọai Di Động Hoàng Thọ,Cửa hàng điện thoại di động,0292 3850 627,"Cửa Hàng Điện Thọai Di Động Hoàng Thọ, 247 Ấp Thị Tứ, Đường Tỉnh Lộ 923, Thị Trấn Phong Điền, Huyện Phong Điền, Thị trấn Phong Điền, Phong Điền, Cần Thơ","Thị trấn Phong Điền, Phong Điền","247 Ấp Thị Tứ, Đường Tỉnh Lộ 923, Thị Trấn Phong Điền, Huyện Phong Điền",Cần Thơ,,"Phong Điền, Cần Thơ",VN,"10.0005144,105.6696432"
855,ChIJOR0UAKFioDERfrNXzPvNOi4,Cửa Hàng Điện Thoại Di Động Gertralo,Cửa hàng điện thoại di động,7103815113,"Cửa Hàng Điện Thoại Di Động Gertralo, 49 Đ. Ngô Quyền, Tân An, Ninh Kiều, Cần Thơ 94112","Tân An, Ninh Kiều",49 Đ. Ngô Quyền,Cần Thơ,94112.0,"Ninh Kiều, Cần Thơ",VN,"10.035039399999999,105.78511639999999"
856,ChIJRzTd-7BjoDERZF1E6PK-Hs0,Sim số đẹp Sửa chữa điện thoại Tài Nam Tài Phát,Cửa hàng điện thoại di động,,"Sim số đẹp Sửa chữa điện thoại Tài Nam Tài Phát, 1A Nguyễn Trãi, Tân An, Ninh Kiều, Cần Thơ 900000","Tân An, Ninh Kiều",1A Nguyễn Trãi,Cần Thơ,900000.0,"Ninh Kiều, Cần Thơ",VN,"10.037873699999999,105.7873616"
859,ChIJs1_4daBioDERmNehoPvWr7s,Cửa Hàng Điện Thoại Huê Viên,Cửa hàng điện thoại di động,0932 999 656,"Cửa Hàng Điện Thoại Huê Viên, 100A, Đề Thám, Phường An Cư, Quận Ninh Kiều, Thành Phố Cần Thơ, Tân An, Ninh Kiều, Cần Thơ","Tân An, Ninh Kiều","100A, Đề Thám, Phường An Cư, Quận Ninh Kiều, Thành Phố Cần Thơ",Cần Thơ,,"Ninh Kiều, Cần Thơ",VN,"10.0345211,105.78191559999999"
866,ChIJ88WgtyaIoDERhQo4Jv38JgY,Tiệm Điện Thoại Công Cộng,Cửa hàng điện thoại di động,0292 3829 171,"Tiệm Điện Thoại Công Cộng, 171, Đường 30/04, Quận Ninh Kiều, Tp Cần Thơ, 192 Đ. 30 Tháng 4, Xuân Khánh, Ninh Kiều, Cần Thơ","Xuân Khánh, Ninh Kiều","171, Đường 30/04, Quận Ninh Kiều, Tp Cần Thơ, 192 Đ. 30 Tháng 4",Cần Thơ,,"Ninh Kiều, Cần Thơ",VN,"10.0274779,105.7771167"
868,ChIJbVIWoZ5ioDERjyo7er8nOZ8,Cửa Hàng Điện Thoại Nguyễn Thu Sương,Cửa hàng điện thoại di động,0854 721 120,"Cửa Hàng Điện Thoại Nguyễn Thu Sương, Đường Đường Hai Bà Trưng, Tân An, Ninh Kiều, Cần Thơ","Tân An, Ninh Kiều",Đường Đường Hai Bà Trưng,Cần Thơ,,"Ninh Kiều, Cần Thơ",VN,"10.0272016,105.78674269999999"
876,ChIJ5xfuoXKIoDERq9AAFbhAgEQ,Cửa Hàng Điện Thoại Thế Lực,Cửa hàng điện thoại di động,0939 884 188,"Cửa Hàng Điện Thoại Thế Lực, 32, Vành Đai Phi Trường, Quận Bình Thủy, Thành Phố Cần Thơ, Phường An Khánh, Ninh Kiều, Cần Thơ","Phường An Khánh, Ninh Kiều","32, Vành Đai Phi Trường, Quận Bình Thủy, Thành Phố Cần Thơ",Cần Thơ,,"Ninh Kiều, Cần Thơ",VN,"10.0448875,105.75715369999999"
887,ChIJxXIAnp5ioDERmac-Okh0H9c,Minh Khoa Mobile Store,Cửa hàng,0292 3752 712,"Minh Khoa Mobile Store, 142 Đường Hai Bà Trưng, Tân An, Ninh Kiều, Cần Thơ","Tân An, Ninh Kiều",142 Đường Hai Bà Trưng,Cần Thơ,,"Ninh Kiều, Cần Thơ",VN,"10.0278188,105.7866018"
898,ChIJA4h9RZ9ioDERXyP_PMZgw8w,Cửa Hàng Điện Tử Hữu Hạnh,Cửa hàng bán đồ điện tử,0292 3824 226,"Cửa Hàng Điện Tử Hữu Hạnh, 27 Đ. Phan Chu Trinh, Tân An, Ninh Kiều, Cần Thơ","Tân An, Ninh Kiều",27 Đ. Phan Chu Trinh,Cần Thơ,,"Ninh Kiều, Cần Thơ",VN,"10.0314474,105.7872316"
906,ChIJUYNKaRyIoDERNL3mEF2fDpw,Minh Huy Mobile Store,Cửa hàng,0292 3833 618,"Minh Huy Mobile Store, An Nghiệp, Ninh Kiều, Cần Thơ","An Nghiệp, Ninh Kiều",,Cần Thơ,,"Ninh Kiều, Cần Thơ",VN,"10.0388903,105.7766814"
939,ChIJq_ZHZWSJoDERHlNHHNTEvUQ,"Cửa hàng Điện Nước gia dụng, Phụ kiện điện thoại Ngân Thông",Cửa hàng tổng hợp,0907 828 978,"Cửa hàng Điện Nước gia dụng, Phụ kiện điện thoại Ngân Thông, 138 Đ. Mậu Thân, An Nghiệp, Ninh Kiều, Cần Thơ","An Nghiệp, Ninh Kiều",138 Đ. Mậu Thân,Cần Thơ,,"Ninh Kiều, Cần Thơ",VN,"10.0378782,105.771453"
969,ChIJfwVGDSKIoDERJOwcDxiT0Ew,Cửa Hàng Điện Thoại Di Động Lạc Việt,Cửa hàng,,"Cửa Hàng Điện Thoại Di Động Lạc Việt, 123 Đ. Mậu Thân, An Phú, Ninh Kiều, Cần Thơ","An Phú, Ninh Kiều",123 Đ. Mậu Thân,Cần Thơ,,"Ninh Kiều, Cần Thơ",VN,"10.032172,105.7745798"
1012,ChIJrX2DriaIoDERX7xhTHzi36s,Cửa Hàng Điện Thoại Di Động Minh Nguyệt,Cửa hàng điện thoại di động,0292 2219 979,"Cửa Hàng Điện Thoại Di Động Minh Nguyệt, 34, 30/4, Quận Ninh Kiều, Xuân Khánh, Ninh Kiều, Cần Thơ","Xuân Khánh, Ninh Kiều","34, 30/4, Quận Ninh Kiều",Cần Thơ,,"Ninh Kiều, Cần Thơ",VN,"10.027016999999999,105.77720289999999"
1019,ChIJq6qqBw-IoDERwzMIXcSQu4Q,Cửa Hàng Điện Thoại Tân Việt,Cửa hàng,0907 289 992,"Cửa Hàng Điện Thoại Tân Việt, 126A Đ. Nguyễn Văn Cừ, An Hoà, Ninh Kiều, Cần Thơ","An Hoà, Ninh Kiều",126A Đ. Nguyễn Văn Cừ,Cần Thơ,,"Ninh Kiều, Cần Thơ",VN,"10.047019299999999,105.76794439999999"
1025,ChIJ7ZAVnzaIoDERKvuE2gVHGqM,Cửa Hàng ĐTDĐ Sang Iphone,Cửa hàng điện thoại di động,0708 547 777,"Cửa Hàng ĐTDĐ Sang Iphone, 26 Hẻm 132 Đ. 3 Tháng 2, Hưng Lợi, Ninh Kiều, Cần Thơ","Hưng Lợi, Ninh Kiều",26 Hẻm 132 Đ. 3 Tháng 2,Cần Thơ,,"Ninh Kiều, Cần Thơ",VN,"10.0175313,105.76290039999999"
1035,ChIJObmGFR2IoDEReAK9Alw7g84,Điện Tử Hữu Cần,Cửa hàng bán đồ điện tử,,"Điện Tử Hữu Cần, 12 Đ. Đinh Tiên Hoàng, An Hội, Ninh Kiều, Cần Thơ","An Hội, Ninh Kiều",12 Đ. Đinh Tiên Hoàng,Cần Thơ,,"Ninh Kiều, Cần Thơ",VN,"10.043512699999999,105.7792573"
1036,ChIJeUK0zgSIoDER-cWZrJ_rF4Q,Cửa Hàng Điện Tử Thanh,Cửa hàng thiết bị điện,0989 203 479,"Cửa Hàng Điện Tử Thanh, 138 Đ. Phạm Ngũ Lão, Thới Bình, Ninh Kiều, Cần Thơ","Thới Bình, Ninh Kiều",138 Đ. Phạm Ngũ Lão,Cần Thơ,,"Ninh Kiều, Cần Thơ",VN,"10.0442831,105.7741234"
1037,ChIJO3sEGiOIoDERrO1BtRx9KMw,Cửa Hàng Đtdđ Hưng Phát,Cửa hàng điện thoại di động,,"Cửa Hàng Đtdđ Hưng Phát, 98 Đ. 3 Tháng 2, Xuân Khánh, Ninh Kiều, Cần Thơ","Xuân Khánh, Ninh Kiều",98 Đ. 3 Tháng 2,Cần Thơ,,"Ninh Kiều, Cần Thơ",VN,"10.029736699999999,105.77218839999999"
1042,ChIJGQgePwqJoDERwO_cSOhOJ1U,[30k/c] Ốp Lưng Điện Thoại Xinh - Có tất cả các hãng,Cửa hàng điện thoại di động,0789 667 678,"[30k/c] Ốp Lưng Điện Thoại Xinh - Có tất cả các hãng, 60 Đường số 6, Phường An Khánh, Ninh Kiều, Cần Thơ","Phường An Khánh, Ninh Kiều",60 Đường số 6,Cần Thơ,,"Ninh Kiều, Cần Thơ",VN,"10.0438039,105.7572234"
1050,ChIJyco7zEOIoDERKxOobTQiZx8,Cửa Hàng Điện Thoại Di Động Thế Kỷ,Cửa hàng điện thoại di động,0292 3740 960,"Cửa Hàng Điện Thoại Di Động Thế Kỷ, 1L, Quốc Lộ 91B, phường Hưng Lợi, quận Ninh Kiều, Tp. Cần Thơ, Phường An Khánh, Ninh Kiều, Cần Thơ","Phường An Khánh, Ninh Kiều","1L, Quốc Lộ 91B, phường Hưng Lợi, quận Ninh Kiều, Tp. Cần Thơ",Cần Thơ,,"Ninh Kiều, Cần Thơ",VN,"10.0310884,105.7517384"
1051,ChIJqfexs5qHoDERxV_Vj_6VPnA,Điện tử LÊ PHÚ,Cửa hàng sửa chữa đồ điện tử,0796 770 108,"Điện tử LÊ PHÚ, 51 Đường Đồng Ngọc Sứ, An Thới, Bình Thủy, Cần Thơ","An Thới, Bình Thủy",51 Đường Đồng Ngọc Sứ,Cần Thơ,,"Bình Thủy, Cần Thơ",VN,"10.0564845,105.7578947"
1062,ChIJT729vhSIoDERavlKJycZO48,Cửa Hàng Phụ Kiện Điện Thoại Tiến Đạt,Cửa hàng,,"Cửa Hàng Phụ Kiện Điện Thoại Tiến Đạt, An Khánh, Ninh Kiều, Cần Thơ","An Khánh, Ninh Kiều",,Cần Thơ,,"Ninh Kiều, Cần Thơ",VN,"10.038521099999999,105.76015249999999"
1073,ChIJ8TyMh3eJoDERIjuVqUnf77Y,KHẢI MOBILE,Cửa hàng điện thoại di động,0948 444 442,"KHẢI MOBILE, 235 Đ. Nguyễn Văn Linh, Hưng Lợi, Ninh Kiều, Cần Thơ","Hưng Lợi, Ninh Kiều",235 Đ. Nguyễn Văn Linh,Cần Thơ,,"Ninh Kiều, Cần Thơ",VN,"10.019428999999999,105.7692344"
1081,ChIJ8xMVKg-IoDERiun8sUb7nLc,Công Ty TNHH TM Dịch Vụ Điện - Điện Tử - Điện Lạnh Nam Cực,Cửa hàng thiết bị điện,0292 3969 333,"Công Ty TNHH TM Dịch Vụ Điện - Điện Tử - Điện Lạnh Nam Cực, 54 Đ. Nguyễn Văn Cừ, An Hoà, Ninh Kiều, Cần Thơ","An Hoà, Ninh Kiều",54 Đ. Nguyễn Văn Cừ,Cần Thơ,,"Ninh Kiều, Cần Thơ",VN,"10.049240099999999,105.76744029999999"
1084,ChIJq6qqBw-IoDERKiTQBkWepRY,Cửa Hàng Điện Thoại Khang Hy,Cửa hàng,0292 3894 358,"Cửa Hàng Điện Thoại Khang Hy, 36, Nguyễn Văn Cừ, Quận Ninh Kiều, Tp Cần Thơ, An Hoà, Ninh Kiều, Cần Thơ","An Hoà, Ninh Kiều","36, Nguyễn Văn Cừ, Quận Ninh Kiều, Tp Cần Thơ",Cần Thơ,,"Ninh Kiều, Cần Thơ",VN,"10.047019299999999,105.76794439999999"
1090,ChIJdRnJCxaJoDERQZYhuFutsRo,Sửa chữa Mua Bán Điện Thoại-Phong Phát Mobile,Cửa hàng điện thoại di động,0941 114 118,"Sửa chữa Mua Bán Điện Thoại-Phong Phát Mobile, 42s12/7, Khu Vực 3, Phường An Khánh, Ninh Kiều, Cần Thơ","Phường An Khánh, Ninh Kiều","42s12/7, Khu Vực 3",Cần Thơ,,"Ninh Kiều, Cần Thơ",VN,"10.0317829,105.75658059999999"
1093,ChIJz0oRBGiIoDERNxLPSY90M9M,Điện Thoại Di Động Quốc Tuấn,Cửa hàng,,"Điện Thoại Di Động Quốc Tuấn, An Khánh, Ninh Kiều, Cần Thơ","An Khánh, Ninh Kiều",,Cần Thơ,,"Ninh Kiều, Cần Thơ",VN,"10.034735399999999,105.7473024"
1095,ChIJ-3IzakGIoDERGUY1HTNtg90,Cửa Hàng Điện Di Động Thoại Tùng,Cửa hàng điện thoại di động,0933 570 570,"Cửa Hàng Điện Di Động Thoại Tùng, 337B3, Đường Nguyễn Văn Linh, Quận Ninh Kiều, Thành Phố Cần Thơ, Phường An Khánh, Ninh Kiều, Cần Thơ","Phường An Khánh, Ninh Kiều","337B3, Đường Nguyễn Văn Linh, Quận Ninh Kiều, Thành Phố Cần Thơ",Cần Thơ,,"Ninh Kiều, Cần Thơ",VN,"10.0300459,105.75357029999999"
1101,ChIJBa1KWzqIoDER0J-LgKhBwDc,Cửa Hàng Điện Thoại Di Động Đặng Huỳnh,Cửa hàng điện thoại di động,0292 3893 845,"Cửa Hàng Điện Thoại Di Động Đặng Huỳnh, 171C, Đường 3/2, Quận Ninh Kiều, TP Cần Thơ, Hưng Lợi, Ninh Kiều, Cần Thơ","Hưng Lợi, Ninh Kiều","171C, Đường 3/2, Quận Ninh Kiều, TP Cần Thơ",Cần Thơ,,"Ninh Kiều, Cần Thơ",VN,"10.0242319,105.7666046"
1104,ChIJp15bpRmIoDERQo7inTaCAt8,Cửa Hàng ĐTDĐ 68,Cửa hàng điện thoại di động,0292 3834 241,"Cửa Hàng ĐTDĐ 68, 37 Đ. Mậu Thân, An Phú, Ninh Kiều, Cần Thơ","An Phú, Ninh Kiều",37 Đ. Mậu Thân,Cần Thơ,,"Ninh Kiều, Cần Thơ",VN,"10.0367759,105.7718328"
1118,ChIJhSxNT7WJoDERY34-SVLzuvM,Cửa Hàng Điện Thoại Di Động Trung Nguyên,Cửa hàng điện thoại di động,0292 3911 679,"Cửa Hàng Điện Thoại Di Động Trung Nguyên, 422, Quốc Lộ 1A, Quận Cái Răng, Hưng Lợi, Ninh Kiều, Cần Thơ","Hưng Lợi, Ninh Kiều","422, Quốc Lộ 1A, Quận Cái Răng",Cần Thơ,,"Ninh Kiều, Cần Thơ",VN,"10.0115324,105.75752159999999"
1119,ChIJAYUqMxOIoDERx8jLR7YYL94,Quán Trò Chơi Điện Tử Nguyễn Thị Kiều Loan,Quán cà phê internet,0765 348 492,"Quán Trò Chơi Điện Tử Nguyễn Thị Kiều Loan, B1/17, Khu Vực 1, Phường An Khánh, Quận Ninh Kiều, Phường An Khánh, Ninh Kiều, Cần Thơ","Phường An Khánh, Ninh Kiều","B1/17, Khu Vực 1, Phường An Khánh, Quận Ninh Kiều",Cần Thơ,,"Ninh Kiều, Cần Thơ",VN,"10.0411021,105.7585751"
1123,ChIJl2EtwV6JoDERxCZT0PsrHdQ,Sửa chữa điện thoại TP,Cửa hàng phụ kiện máy tính,0939 544 809,"Sửa chữa điện thoại TP, 26/2, Cần Thơ 000000","Phường An Khánh, Ninh Kiều",26/2,Cần Thơ,0.0,"Ninh Kiều, Cần Thơ",VN,"10.045161799999999,105.7468535"
1129,ChIJO4oeyruJoDERRNp0BaLY3ps,Phụ Kiện Điện Thoại Tâm Đan Shop,Cửa hàng,,"Phụ Kiện Điện Thoại Tâm Đan Shop, 42E5/5, Khu Vực 3, P, Ninh Kiều, Cần Thơ","P, Ninh Kiều","42E5/5, Khu Vực 3",Cần Thơ,,"Ninh Kiều, Cần Thơ",VN,"10.0312776,105.7615809"
1134,ChIJIUR8vhOIoDERXPWAvccwoks,Cửa Hàng Điện Tử Thanh Tuấn,Cửa hàng thiết bị điện,0366 007 901,"Cửa Hàng Điện Tử Thanh Tuấn, 147H/19, Nguyễn Văn Cừ, Phường An Khánh, Quận Ninh Kiều, Thành Phố Cần Thơ, Phường An Khánh, Ninh Kiều, Cần Thơ","Phường An Khánh, Ninh Kiều","147H/19, Nguyễn Văn Cừ, Phường An Khánh, Quận Ninh Kiều, Thành Phố Cần Thơ",Cần Thơ,,"Ninh Kiều, Cần Thơ",VN,"10.0404331,105.7623113"
1137,ChIJ3z6BDeiJoDERiIShbiY9icA,Cửa hàng điện thoại MobiFone Ninh Kiều,Cửa hàng đồ dùng cho nhà ở di động,,"Cửa hàng điện thoại MobiFone Ninh Kiều, số 6 Hoà Bình, Phường An Khánh, Ninh Kiều, Cần Thơ 900000","Phường An Khánh, Ninh Kiều",số 6 Hoà Bình,Cần Thơ,900000.0,"Ninh Kiều, Cần Thơ",VN,"10.045161799999999,105.7468535"
1139,ChIJG3k3q7SJoDERnOgw5OTpz6g,Cửa Hàng Điện Thoại Di Động Minh Hòa,Cửa hàng điện thoại di động,0292 3846 447,"Cửa Hàng Điện Thoại Di Động Minh Hòa, 121A, Đường 3/2 Nối Dài, p. An Bình, Quận Ninh Kiều, Hưng Lợi, Ninh Kiều, Cần Thơ","Hưng Lợi, Ninh Kiều","121A, Đường 3/2 Nối Dài, p. An Bình, Quận Ninh Kiều",Cần Thơ,,"Ninh Kiều, Cần Thơ",VN,"10.0115666,105.75284549999999"
1142,ChIJ3dKqerOJoDERrZpqDbI1oV8,Cửa Hàng Điện Thoại Di Động Bích Trân,Cửa hàng điện thoại di động,0977 988 667,"Cửa Hàng Điện Thoại Di Động Bích Trân, 108A, Quốc Lộ 1A, P. An Bình, Quận Ninh Kiều, An Bình, Ninh Kiều, Cần Thơ","An Bình, Ninh Kiều","108A, Quốc Lộ 1A, P. An Bình, Quận Ninh Kiều",Cần Thơ,,"Ninh Kiều, Cần Thơ",VN,"10.0106521,105.7513737"
1144,ChIJF_kpTbKJoDERqiVlRmFumAM,Điện Thoại Di Động VI Phúc,Cửa hàng điện thoại di động,,"2P5X+HVQ Điện Thoại Di Động VI Phúc, ĐT923, An Bình, Ninh Kiều, Cần Thơ","An Bình, Ninh Kiều","2P5X+HVQ, ĐT923",Cần Thơ,,"Ninh Kiều, Cần Thơ",VN,"10.0089586,105.7497492"
1146,ChIJgzoXywmJoDERym9Umz3puzA,Điện Thoại Di Động Nghĩa Trần Mobile,Cửa hàng điện thoại di động,0769 666 665,"Điện Thoại Di Động Nghĩa Trần Mobile, 337b Đ. Nguyễn Văn Linh, Phường An Khánh, Ninh Kiều, Cần Thơ","Phường An Khánh, Ninh Kiều",337b Đ. Nguyễn Văn Linh,Cần Thơ,,"Ninh Kiều, Cần Thơ",VN,"10.0330969,105.7488813"
1169,ChIJL1SO37CJoDERc5_mSg_6cdU,Tiệm Sửa Chữa Điện Thoại Hiền,Cửa hàng,0932 699 990,"Tiệm Sửa Chữa Điện Thoại Hiền, 27 Trưng Nữ Vương, Lê Bình, Cái Răng, Cần Thơ","Lê Bình, Cái Răng",27 Trưng Nữ Vương,Cần Thơ,,"Cái Răng, Cần Thơ",VN,"10.003878799999999,105.75166639999999"
1182,ChIJGTCLQ1GIoDERLkBP3QyEuCQ,Tiệm Điện Tử An Bình,Cửa hàng thiết bị điện,0918 867 755,"Tiệm Điện Tử An Bình, 311C Đ. Hoàng Quốc Việt, An Bình, Ninh Kiều, Cần Thơ 900000","An Bình, Ninh Kiều",311C Đ. Hoàng Quốc Việt,Cần Thơ,900000.0,"Ninh Kiều, Cần Thơ",VN,"10.0191793,105.74224"
1184,ChIJQ76D2uWIoDERDA1koiIRyMM,Điện Thoại Di Động Minh Điền,Cửa hàng điện thoại di động,0907 300 060,"Điện Thoại Di Động Minh Điền, Long Tuyền, Bình Thủy, Cần Thơ","Long Tuyền, Bình Thủy",,Cần Thơ,,"Bình Thủy, Cần Thơ",VN,"10.022862199999999,105.7180298"
1185,ChIJv7N5OBSJoDERKgXc0t9o4Zw,Cửa Hàng Điện Thoại Tuấn Vũ 2,Cửa hàng điện thoại di động,0949 515 115,"XPW8+J5G Cửa Hàng Điện Thoại Tuấn Vũ 2, Chợ Mỹ Khánh, Phong Điền, Cần Thơ","Chợ Mỹ Khánh, Phong Điền",XPW8+J5G,Cần Thơ,,"Phong Điền, Cần Thơ",VN,"9.996556,105.71545859999999"
1186,ChIJJdoXeBSJoDERNgbMdNHgcMg,Duy Tân Dán Xe Điện Thoại,Cửa hàng,,"Duy Tân Dán Xe Điện Thoại, Mỹ Khánh, Phong Điền, Cần Thơ","Mỹ Khánh, Phong Điền",,Cần Thơ,,"Phong Điền, Cần Thơ",VN,"9.995992,105.7177215"
1187,ChIJnXTsODmJoDERRTFfFvT6Ku0,Cửa Hàng Điện Thoại Phong Vũ,Cửa hàng điện thoại di động,0939 309 709,"Cửa Hàng Điện Thoại Phong Vũ, 231 Lộ Vòng Cung, Ấp Mỹ Phước, Phong Điền, Cần Thơ","Ấp Mỹ Phước, Phong Điền",231 Lộ Vòng Cung,Cần Thơ,,"Phong Điền, Cần Thơ",VN,"9.996957199999999,105.7047951"
1193,ChIJ_d-pHryJoDER8jphtmq037s,Cửa Hàng Điện Thoại Di Động Lâm,Cửa hàng điện thoại di động,0292 3848 589,"Cửa Hàng Điện Thoại Di Động Lâm, 69/2, Đường Trần Hưng Đạo, Quận Cái Răng, Lê Bình, Cái Răng, Cần Thơ","Lê Bình, Cái Răng","69/2, Đường Trần Hưng Đạo, Quận Cái Răng",Cần Thơ,,"Cái Răng, Cần Thơ",VN,"9.9951163,105.7523847"
1270,ChIJU2Qai6-JoDER4QpmEqUeeOA,Điện Thoại Di Động Thái Bửu,Cửa hàng,,"2P2W+R4J Điện Thoại Di Động Thái Bửu, Võ Tánh, Lê Bình, Cái Răng, Cần Thơ","Lê Bình, Cái Răng","2P2W+R4J, Võ Tánh",Cần Thơ,,"Cái Răng, Cần Thơ",VN,"10.0020902,105.7452625"
1285,ChIJR9d2r-WJoDERJnGmc_hKJB0,CỬA HÀNG ĐIỆN THOẠI DI ĐỘNG THIÊN VŨ MOBILE,Cửa hàng bán đồ điện tử,0914 415 795,"CỬA HÀNG ĐIỆN THOẠI DI ĐỘNG THIÊN VŨ MOBILE, 86 Ngô Sĩ Liên, kdc metro, Ninh Kiều, Cần Thơ","kdc metro, Ninh Kiều",86 Ngô Sĩ Liên,Cần Thơ,,"Ninh Kiều, Cần Thơ",VN,"10.020743,105.760522"
1292,ChIJI2iqGraJoDERzfAmHErMRao,Cửa Hàng Điện Thoại Phát Tiến 2,Cửa hàng bán đồ điện tử,,"Cửa Hàng Điện Thoại Phát Tiến 2, 55a Hẻm 132 Đ. 3 Tháng 2, Hưng Lợi, Ninh Kiều, Cần Thơ","Hưng Lợi, Ninh Kiều",55a Hẻm 132 Đ. 3 Tháng 2,Cần Thơ,,"Ninh Kiều, Cần Thơ",VN,"10.0196875,105.7576764"
1293,ChIJGUSym0qIoDERU585Gy3MNOI,Dung Nga Mobile Store,Cửa hàng,0292 3739 197,"Dung Nga Mobile Store, 56A, Street 3/2, Hung Loi Ward, Ninh Kieu District, Can Tho City, Hưng Lợi, Ninh Kiều, Cần Thơ","Hưng Lợi, Ninh Kiều","56A, Street 3/2, Hung Loi Ward, Ninh Kieu District, Can Tho City",Cần Thơ,,"Ninh Kiều, Cần Thơ",VN,"10.013914699999999,105.7580562"
1317,ChIJScSjJLGJoDERPz0Y6LZ9ntg,Cửa Hàng Thiết Bị Điện Tử Phạm Thị Trang,Cửa hàng bán đồ điện tử,0853 412 393,"Cửa Hàng Thiết Bị Điện Tử Phạm Thị Trang, 19/2 Ngô Quyền, Lê Bình, Cái Răng, Cần Thơ","Lê Bình, Cái Răng",19/2 Ngô Quyền,Cần Thơ,,"Cái Răng, Cần Thơ",VN,"10.0048897,105.7516485"
1319,ChIJs68-UDeIoDERyX_yU_nEjnc,Đại Lý Điện Thoại Số 07,Cửa hàng,0292 3662 299,"Đại Lý Điện Thoại Số 07, 11/8, Quốc Lộ 91B, Phường Phước Thới, Quận Ninh Kiều, Tp. Cần Thơ","Hưng Lợi, Ninh Kiều","11/8, Quốc Lộ 91B, Phường Phước Thới, Quận Ninh Kiều, Tp. Cần Thơ",Cần Thơ,,"Ninh Kiều, Cần Thơ",VN,"10.0219372,105.7641338"
1322,ChIJSVAZ-TSJoDERt9TaSfXN2To,Điện Thoại Di Động Thành Lợi,Cửa hàng bán đồ điện tử,0845 165 165,"2Q96+PF6 Điện Thoại Di Động Thành Lợi, Hưng Lợi, Ninh Kiều, Cần Thơ","Hưng Lợi, Ninh Kiều",2Q96+PF6,Cần Thơ,,"Ninh Kiều, Cần Thơ",VN,"10.0192768,105.7611488"
1341,ChIJC_tTBDuIoDERSzfGCYO3qQQ,Cửa Hàng Điện Thoại Di Động Hương Lan,Cửa hàng,0918 579 697,"Cửa Hàng Điện Thoại Di Động Hương Lan, 51A2, Đường 3/2, Quận Ninh Kiều, Tp Cần Thơ, Xuân Khánh, Ninh Kiều, Cần Thơ","Xuân Khánh, Ninh Kiều","51A2, Đường 3/2, Quận Ninh Kiều, Tp Cần Thơ",Cần Thơ,,"Ninh Kiều, Cần Thơ",VN,"10.0256601,105.76791929999999"
1355,ChIJB9rvoSaIoDERY_aYomgWzR4,Cửa Hàng A & T,Cửa hàng điện thoại di động,0917 936 847,"Cửa Hàng A & T, 185B Đ. 30 Tháng 4, Xuân Khánh, Ninh Kiều, Cần Thơ","Xuân Khánh, Ninh Kiều",185B Đ. 30 Tháng 4,Cần Thơ,,"Ninh Kiều, Cần Thơ",VN,"10.0261506,105.7765309"
1369,ChIJ3ctxIk-IoDERCRlsDzTDOYY,Điện Tử Minh,Cửa hàng bán đồ điện tử,0939 390 705,"2QC2+CG3 Điện Tử Minh, Đ. Trần Vĩnh Kiết, Phường An Khánh, Ninh Kiều, Cần Thơ","Phường An Khánh, Ninh Kiều","2QC2+CG3, Đ. Trần Vĩnh Kiết",Cần Thơ,,"Ninh Kiều, Cần Thơ",VN,"10.0210103,105.751296"
1372,ChIJ_RZW0DmIoDERoHRiENKxz88,Cửa Hàng Đtdđ Quốc Trường,Cửa hàng điện thoại di động,,"Cửa Hàng Đtdđ Quốc Trường, 17 QL91B, Hưng Lợi, Ninh Kiều, Cần Thơ","Hưng Lợi, Ninh Kiều",17 QL91B,Cần Thơ,,"Ninh Kiều, Cần Thơ",VN,"10.0229976,105.76170189999999"
1376,ChIJ52Cb9zOIoDERyuzlhcqsrEU,Cửa Hàng Đtdđ - Cầm Đồ Hoàng Châu,Cửa hàng điện thoại di động,0292 6290 186,"Cửa Hàng Đtdđ - Cầm Đồ Hoàng Châu, 566 Đ. 30 Tháng 4, Hưng Lợi, Ninh Kiều, Cần Thơ","Hưng Lợi, Ninh Kiều",566 Đ. 30 Tháng 4,Cần Thơ,,"Ninh Kiều, Cần Thơ",VN,"10.016502,105.7645572"
1378,ChIJR9UrGTWIoDEROIF7JyURu_A,Tiệm Dịch Vụ Sửa Chữa Điện Tử @ Tin Học Tuấn Cường,Cửa hàng bán đồ điện tử,7103838095,"Tiệm Dịch Vụ Sửa Chữa Điện Tử @ Tin Học Tuấn Cường, 86 Hẻm 553, Hưng Lợi, Ninh Kiều, Cần Thơ","Hưng Lợi, Ninh Kiều",86 Hẻm 553,Cần Thơ,,"Ninh Kiều, Cần Thơ",VN,"10.0134837,105.7610761"
1416,ChIJKYx768yJoDERayASQHX00N0,Duy Thái Linh Kiện Điện Tử & Vật Phẩm Trang Trí,Cửa hàng bán đồ điện tử,,"2Q68+2C3 Duy Thái Linh Kiện Điện Tử & Vật Phẩm Trang Trí, Đ. Trần Hoàng Na, Hưng Lợi, Ninh Kiều, Cần Thơ","Hưng Lợi, Ninh Kiều","2Q68+2C3, Đ. Trần Hoàng Na",Cần Thơ,,"Ninh Kiều, Cần Thơ",VN,"10.0100113,105.7660461"
1428,ChIJ7xLVSc2JoDERcOGmNexJFwE,Cửa Hàng Điện Tử Hùng,Cửa hàng bán đồ điện tử,,"2Q69+CGX Cửa Hàng Điện Tử Hùng, Tầm Vu, Hưng Lợi, Ninh Kiều, Cần Thơ","Hưng Lợi, Ninh Kiều","2Q69+CGX, Tầm Vu",Cần Thơ,,"Ninh Kiều, Cần Thơ",VN,"10.011120499999999,105.76885329999999"
1432,ChIJL-EzBzSIoDERK9YEIHyf0Jk,Cửa Hàng Điện Tử Hiền,Cửa hàng bán đồ điện tử,0292 3738 235,"Cửa Hàng Điện Tử Hiền, 180 Đ. 30 Tháng 4, Hưng Lợi, Ninh Kiều, Cần Thơ","Hưng Lợi, Ninh Kiều",180 Đ. 30 Tháng 4,Cần Thơ,,"Ninh Kiều, Cần Thơ",VN,"10.0166858,105.7644875"
1527,ChIJKftZFEeIoDERqH6voLOdLjY,Trung Tâm ĐTDĐ Didonggiare,Cửa hàng điện thoại di động,0763 808 288,"Trung Tâm ĐTDĐ Didonggiare, 1 Đ. Nguyễn Văn Linh, Phường An Khánh, Ninh Kiều, Cần Thơ","Phường An Khánh, Ninh Kiều",1 Đ. Nguyễn Văn Linh,Cần Thơ,,"Ninh Kiều, Cần Thơ",VN,"10.026845,105.75692"
1531,ChIJgy9aiaFioDERzCVnYhtNQzo,My Thanh Electronics Store,Cửa hàng bán đồ điện tử,0292 3825 484,"My Thanh Electronics Store, 19 Đ. Ngô Quyền, Tân An, Ninh Kiều, Cần Thơ","Tân An, Ninh Kiều",19 Đ. Ngô Quyền,Cần Thơ,,"Ninh Kiều, Cần Thơ",VN,"10.0338509,105.7874933"
1535,ChIJfdE3kYWJoDER66nc2-zxqtU,PROPHONE - Di động giá rẻ cần thơ,Cửa hàng điện thoại di động,,"PROPHONE - Di động giá rẻ cần thơ, 46 Đ. Nguyễn Việt Hồng, An Lạc, Ninh Kiều, Cần Thơ","An Lạc, Ninh Kiều",46 Đ. Nguyễn Việt Hồng,Cần Thơ,,"Ninh Kiều, Cần Thơ",VN,"10.0315955,105.7800415"
